{"type": "FeatureCollection", "features": [{"type": "Feature", "properties": {"SPR_ID": 399.0, "Site_typ": "unit", "Unit_Site": "IndotFac - Lebanon Maintenance unit", "layer": "CRAWFORDSVILLE", "Volt_Class": "50", "Flood_Zone": "AE", "SlopeMean": 3.911521979, "Solar_Mean": 1582082.2337, "NTran_DIST": 4020.92730146, "Shape_Area": 40025.5347385, "sol_s": 0.648662273317, "slp_s": 0.248434673411, "trn_s": 0.165259928427, "evp_s": 0.0, "dem_s": 0.8, "fld_s": 0.9658, "lc_s": 1.0, "DevOpe_21": 0.238095238095, "DevLowI_22": 0.119047619048, "DDevMed_23": 0.380952380952, "DDevHig_24": 0.142857142857, "DecFor_41": 0.0, "GrasHe_71": 0.119047619048, "OpenW_11": 0.0, "EverFor_42": 0.0, "MixFor_43": 0.0, "SShrub_52": 0.0, "PasHay_81": 0.0, "CultCr_82": 0.0, "welan_90": 0.0, "EmerW_95": 0.0, "Barre_31": 0.0, "source_geometry_valid": true, "dataset": "facility_unit", "layer_title": "INDOT Unit", "layer_type": "facility", "center_longitude": -86.50558872010177, "center_latitude": 40.07859550770811, "source_latitude": 0.0, "source_longitude": 0.0, "land_cover_sum": 1.0}, "geometry": {"type": "Polygon", "coordinates": [[[-86.50488316831671, 40.07978040521065, 0.0], [-86.50491011800425, 40.07615343354639, 0.0], [-86.50532173041658, 40.07649336102472, 0.0], [-86.50596629005778, 40.07705111623697, 0.0], [-86.50630186126988, 40.07734194588877, 0.0], [-86.506300704545, 40.0774304983582, 0.0], [-86.50627018500222, 40.079766459766674, 0.0], [-86.50488316831671, 40.07978040521065, 0.0]]]}}, {"type": "Feature", "properties": {"SPR_ID": 400.0, "Site_typ": "unit", "Unit_Site": "IndotFac - Ashboro Unit", "layer": "CRAWFORDSVILLE", "Volt_Class": "50", "Flood_Zone": "0", "SlopeMean": 3.49513651316, "Solar_Mean": 1586084.94231, "NTran_DIST": 4050.79689227, "Shape_Area": 21720.528777, "sol_s": 0.675549058678, "slp_s": 0.34621717862, "trn_s": 0.164241484376, "evp_s": 0.0, "dem_s": 0.8, "fld_s": 1.0, "lc_s": 0.923809523809, "DevOpe_21": 0.0952380952381, "DevLowI_22": 0.190476190476, "DDevMed_23": 0.285714285714, "DDevHig_24": 0.190476190476, "DecFor_41": 0.0952380952381, "GrasHe_71": 0.0, "OpenW_11": 0.0, "EverFor_42": 0.0, "MixFor_43": 0.0, "SShrub_52": 0.0, "PasHay_81": 0.142857142857, "CultCr_82": 0.0, "welan_90": 0.0, "EmerW_95": 0.0, "Barre_31": 0.0, "source_geometry_valid": true, "dataset": "facility_unit", "layer_title": "INDOT Unit", "layer_type": "facility", "center_longitude": -87.11183731914093, "center_latitude": 39.389353805771606, "source_latitude": 0.0, "source_longitude": 0.0, "land_cover_sum": 0.9999999999992}, "geometry": {"type": "Polygon", "coordinates": [[[-87.1106762876193, 39.388959043020314, 0.0], [-87.11069850341457, 39.38884754178017, 0.0], [-87.11301140908992, 39.38885253957586, 0.0], [-87.11300692681482, 39.389855431379374, 0.0], [-87.11144642221534, 39.38984800414836, 0.0], [-87.11144926024757, 39.38984359517368, 0.0], [-87.1113257885464, 39.38975285348266, 0.0], [-87.11065464104038, 39.389750809377475, 0.0], [-87.1106762876193, 39.388959043020314, 0.0]]]}}, {"type": "Feature", "properties": {"SPR_ID": 401.0, "Site_typ": "unit", "Unit_Site": "IndotFac - Lebanon Unit", "layer": "CRAWFORDSVILLE", "Volt_Class": "250", "Flood_Zone": "0", "SlopeMean": 1.49155692905, "Solar_Mean": 1605951.225, "NTran_DIST": 3862.26389603, "Shape_Area": 32125.471131, "sol_s": 0.808993815875, "slp_s": 0.816730794472, "trn_s": 0.17088872056, "evp_s": 0.0, "dem_s": 0.8, "fld_s": 1.0, "lc_s": 0.954285714286, "DevOpe_21": 0.0857142857143, "DevLowI_22": 0.0857142857143, "DDevMed_23": 0.257142857143, "DDevHig_24": 0.257142857143, "DecFor_41": 0.0, "GrasHe_71": 0.0, "OpenW_11": 0.0, "EverFor_42": 0.0, "MixFor_43": 0.0, "SShrub_52": 0.0, "PasHay_81": 0.257142857143, "CultCr_82": 0.0571428571429, "welan_90": 0.0, "EmerW_95": 0.0, "Barre_31": 0.0, "source_geometry_valid": true, "dataset": "facility_unit", "layer_title": "INDOT Unit", "layer_type": "facility", "center_longitude": -86.53312630752373, "center_latitude": 40.27758579863884, "source_latitude": 0.0, "source_longitude": 0.0, "land_cover_sum": 1.0000000000005}, "geometry": {"type": "Polygon", "coordinates": [[[-86.53227722809874, 40.2783431714716, 0.0], [-86.53227825771552, 40.27676099401915, 0.0], [-86.53397411378934, 40.27682841431829, 0.0], [-86.53397596097015, 40.2786345084113, 0.0], [-86.53397559469593, 40.27879047986005, 0.0], [-86.53227802254875, 40.27881032495205, 0.0], [-86.53227799276962, 40.278783066239406, 0.0], [-86.5322778059008, 40.2786736211897, 0.0], [-86.53227760801431, 40.278552289198856, 0.0], [-86.53227754732538, 40.27851125060764, 0.0], [-86.53227755044865, 40.27850652973745, 0.0], [-86.53227746475665, 40.27847287508222, 0.0], [-86.53227725089508, 40.278353519667114, 0.0], [-86.53227722809874, 40.2783431714716, 0.0]]]}}, {"type": "Feature", "properties": {"SPR_ID": 403.0, "Site_typ": "unit", "Unit_Site": "IndotFac - Plainfield Unit", "layer": "CRAWFORDSVILLE", "Volt_Class": "50", "Flood_Zone": "X", "SlopeMean": 1.88037780018, "Solar_Mean": 1582129.21591, "NTran_DIST": 1090.42152431, "Shape_Area": 27822.2010462, "sol_s": 0.648977859766, "slp_s": 0.725421462193, "trn_s": 0.421979495326, "evp_s": 0.0, "dem_s": 0.8, "fld_s": 0.79795, "lc_s": 0.954545454545, "DevOpe_21": 0.030303030303, "DevLowI_22": 0.272727272727, "DDevMed_23": 0.333333333333, "DDevHig_24": 0.272727272727, "DecFor_41": 0.0, "GrasHe_71": 0.0, "OpenW_11": 0.0, "EverFor_42": 0.0, "MixFor_43": 0.0, "SShrub_52": 0.0, "PasHay_81": 0.0, "CultCr_82": 0.0, "welan_90": 0.0, "EmerW_95": 0.0, "Barre_31": 0.0909090909091, "source_geometry_valid": true, "dataset": "facility_unit", "layer_title": "INDOT Unit", "layer_type": "facility", "center_longitude": -86.39405162559157, "center_latitude": 39.69104860149672, "source_latitude": 0.0, "source_longitude": 0.0, "land_cover_sum": 0.9999999999991002}, "geometry": {"type": "Polygon", "coordinates": [[[-86.39339881905441, 39.690082654267435, 0.0], [-86.39467472139431, 39.690070434268364, 0.0], [-86.39471178709789, 39.692494860568814, 0.0], [-86.39471357377347, 39.69261184825348, 0.0], [-86.39470157296383, 39.69260727429576, 0.0], [-86.39371069453846, 39.692229735421606, 0.0], [-86.39342998315922, 39.69212448826161, 0.0], [-86.39342823027239, 39.69200788546421, 0.0], [-86.39339881905441, 39.690082654267435, 0.0]]]}}, {"type": "Feature", "properties": {"SPR_ID": 409.0, "Site_typ": "unit", "Unit_Site": "IndotFac - Romney Unit", "layer": "CRAWFORDSVILLE", "Volt_Class": "150", "Flood_Zone": "0", "SlopeMean": 4.21885863619, "Solar_Mean": 1591601.47177, "NTran_DIST": 3250.50638685, "Shape_Area": 25176.2107755, "sol_s": 0.71260440244, "slp_s": 0.176260808691, "trn_s": 0.19672361452, "evp_s": 0.0, "dem_s": 0.8, "fld_s": 1.0, "lc_s": 0.328, "DevOpe_21": 0.04, "DevLowI_22": 0.0, "DDevMed_23": 0.12, "DDevHig_24": 0.0, "DecFor_41": 0.0, "GrasHe_71": 0.0, "OpenW_11": 0.0, "EverFor_42": 0.0, "MixFor_43": 0.0, "SShrub_52": 0.0, "PasHay_81": 0.0, "CultCr_82": 0.84, "welan_90": 0.0, "EmerW_95": 0.0, "Barre_31": 0.0, "source_geometry_valid": true, "dataset": "facility_unit", "layer_title": "INDOT Unit", "layer_type": "facility", "center_longitude": -86.90679250096669, "center_latitude": 40.23051807572389, "source_latitude": 0.0, "source_longitude": 0.0, "land_cover_sum": 1.0}, "geometry": {"type": "Polygon", "coordinates": [[[-86.90593140609083, 40.22991351044697, 0.0], [-86.90767340873074, 40.22987499137763, 0.0], [-86.90765163236335, 40.23124741371676, 0.0], [-86.9042318536832, 40.23132302037256, 0.0], [-86.90423382421461, 40.23115831862856, 0.0], [-86.90591220988004, 40.23112123205934, 0.0], [-86.90593140609083, 40.22991351044697, 0.0]]]}}, {"type": "Feature", "properties": {"SPR_ID": 411.0, "Site_typ": "unit", "Unit_Site": "IndotFac - Newport Unit", "layer": "CRAWFORDSVILLE", "Volt_Class": "50", "Flood_Zone": "0", "SlopeMean": 3.42143360916, "Solar_Mean": 1571218.82738, "NTran_DIST": 0.0, "Shape_Area": 22217.0626143, "sol_s": 0.575691167382, "slp_s": 0.363525310593, "trn_s": 1.0, "evp_s": 0.0, "dem_s": 0.8, "fld_s": 1.0, "lc_s": 0.644827586208, "DevOpe_21": 0.0, "DevLowI_22": 0.241379310345, "DDevMed_23": 0.137931034483, "DDevHig_24": 0.0344827586207, "DecFor_41": 0.0, "GrasHe_71": 0.0, "OpenW_11": 0.0, "EverFor_42": 0.0, "MixFor_43": 0.0, "SShrub_52": 0.0, "PasHay_81": 0.0, "CultCr_82": 0.206896551724, "welan_90": 0.0, "EmerW_95": 0.0, "Barre_31": 0.379310344828, "source_geometry_valid": true, "dataset": "facility_unit", "layer_title": "INDOT Unit", "layer_type": "facility", "center_longitude": -87.41074284750147, "center_latitude": 39.86937778398667, "source_latitude": 0.0, "source_longitude": 0.0, "land_cover_sum": 1.0000000000006999}, "geometry": {"type": "Polygon", "coordinates": [[[-87.41033117895941, 39.87064258798404, 0.0], [-87.41026711951012, 39.868103398330135, 0.0], [-87.41068449933223, 39.86811464337488, 0.0], [-87.41174481366393, 39.87077984847829, 0.0], [-87.41033117895941, 39.87064258798404, 0.0]]]}}, {"type": "Feature", "properties": {"SPR_ID": 412.0, "Site_typ": "unit", "Unit_Site": "IndotFac - Fort Harrison Unit", "layer": "CRAWFORDSVILLE", "Volt_Class": "250", "Flood_Zone": "0", "SlopeMean": 1.86574972545, "Solar_Mean": 1539915.57812, "NTran_DIST": 2342.51135761, "Shape_Area": 19867.2190148, "sol_s": 0.365422615274, "slp_s": 0.728856668056, "trn_s": 0.253636262428, "evp_s": 0.0, "dem_s": 0.8, "fld_s": 1.0, "lc_s": 0.95294117647, "DevOpe_21": 0.0588235294118, "DevLowI_22": 0.0, "DDevMed_23": 0.176470588235, "DDevHig_24": 0.705882352941, "DecFor_41": 0.0588235294118, "GrasHe_71": 0.0, "OpenW_11": 0.0, "EverFor_42": 0.0, "MixFor_43": 0.0, "SShrub_52": 0.0, "PasHay_81": 0.0, "CultCr_82": 0.0, "welan_90": 0.0, "EmerW_95": 0.0, "Barre_31": 0.0, "source_geometry_valid": true, "dataset": "facility_unit", "layer_title": "INDOT Unit", "layer_type": "facility", "center_longitude": -87.37401831793603, "center_latitude": 39.50770557742967, "source_latitude": 0.0, "source_longitude": 0.0, "land_cover_sum": 0.9999999999996}, "geometry": {"type": "Polygon", "coordinates": [[[-87.37334828094002, 39.5071660754524, 0.0], [-87.37333534499797, 39.50679066157083, 0.0], [-87.37386428984908, 39.50678896275702, 0.0], [-87.37467965405352, 39.50679627926813, 0.0], [-87.37469168997126, 39.508430222138365, 0.0], [-87.37372961074695, 39.508318683193956, 0.0], [-87.37335231841385, 39.50824937358215, 0.0], [-87.37334828094002, 39.5071660754524, 0.0]]]}}, {"type": "Feature", "properties": {"SPR_ID": 415.0, "Site_typ": "unit", "Unit_Site": "IndotFac - Carbondale Unit", "layer": "CRAWFORDSVILLE", "Volt_Class": "250", "Flood_Zone": "0", "SlopeMean": 4.50630169715, "Solar_Mean": 1584383.92105, "NTran_DIST": 11926.7001976, "Shape_Area": 70332.9513948, "sol_s": 0.664123047452, "slp_s": 0.108758686471, "trn_s": 0.0625693125026, "evp_s": 0.0, "dem_s": 0.8, "fld_s": 1.0, "lc_s": 0.718181818181, "DevOpe_21": 0.012987012987, "DevLowI_22": 0.12987012987, "DDevMed_23": 0.025974025974, "DDevHig_24": 0.038961038961, "DecFor_41": 0.0, "GrasHe_71": 0.298701298701, "OpenW_11": 0.103896103896, "EverFor_42": 0.0, "MixFor_43": 0.0, "SShrub_52": 0.0, "PasHay_81": 0.116883116883, "CultCr_82": 0.207792207792, "welan_90": 0.0, "EmerW_95": 0.0, "Barre_31": 0.0649350649351, "source_geometry_valid": true, "dataset": "facility_unit", "layer_title": "INDOT Unit", "layer_type": "facility", "center_longitude": -87.34969353938321, "center_latitude": 40.34624047490564, "source_latitude": 0.0, "source_longitude": 0.0, "land_cover_sum": 0.9999999999991}, "geometry": {"type": "Polygon", "coordinates": [[[-87.35167077918162, 40.34485752619149, 0.0], [-87.35207044700256, 40.34481900401302, 0.0], [-87.35260610627883, 40.3448959670965, 0.0], [-87.35271735409663, 40.345322895441726, 0.0], [-87.35167947646978, 40.34603839975561, 0.0], [-87.35111747702098, 40.34646139966866, 0.0], [-87.34934522532949, 40.34803021933106, 0.0], [-87.34888708672646, 40.34791383166178, 0.0], [-87.34792589177313, 40.34644185955011, 0.0], [-87.34810745318862, 40.34561814752421, 0.0], [-87.3493787078496, 40.34556537192236, 0.0], [-87.35044901221887, 40.345311535833964, 0.0], [-87.35108058350816, 40.345076843517894, 0.0], [-87.35167077918162, 40.34485752619149, 0.0]]]}}, {"type": "Feature", "properties": {"SPR_ID": 425.0, "Site_typ": "unit", "Unit_Site": "IndotFac - Corydon Unit", "layer": "SEYMOUR", "Volt_Class": "50", "Flood_Zone": "0", "SlopeMean": 4.3535137607, "Solar_Mean": 1618833.01389, "NTran_DIST": 198.243475262, "Shape_Area": 15374.8024313, "sol_s": 0.895522695863, "slp_s": 0.144638870622, "trn_s": 0.80061954923, "evp_s": 0.0, "dem_s": 0.8, "fld_s": 1.0, "lc_s": 1.0, "DevOpe_21": 0.0, "DevLowI_22": 0.0, "DDevMed_23": 0.923076923077, "DDevHig_24": 0.0769230769231, "DecFor_41": 0.0, "GrasHe_71": 0.0, "OpenW_11": 0.0, "EverFor_42": 0.0, "MixFor_43": 0.0, "SShrub_52": 0.0, "PasHay_81": 0.0, "CultCr_82": 0.0, "welan_90": 0.0, "EmerW_95": 0.0, "Barre_31": 0.0, "source_geometry_valid": true, "dataset": "facility_unit", "layer_title": "INDOT Unit", "layer_type": "facility", "center_longitude": -86.13163368661716, "center_latitude": 38.24776721741614, "source_latitude": 0.0, "source_longitude": 0.0, "land_cover_sum": 1.0000000000001}, "geometry": {"type": "Polygon", "coordinates": [[[-86.13112445901244, 38.248555797879206, 0.0], [-86.13118011437642, 38.24691396984598, 0.0], [-86.13195735702651, 38.2469662050445, 0.0], [-86.13214226845542, 38.2469786298134, 0.0], [-86.13208801765762, 38.24861842478789, 0.0], [-86.13112445901244, 38.248555797879206, 0.0]]]}}, {"type": "Feature", "properties": {"SPR_ID": 431.0, "Site_typ": "unit", "Unit_Site": "IndotFac - Aberdeen Unit", "layer": "SEYMOUR", "Volt_Class": "50", "Flood_Zone": "0", "SlopeMean": 3.92628316491, "Solar_Mean": 1585130.26136, "NTran_DIST": 860.35910353, "Shape_Area": 26906.3881999, "sol_s": 0.669136325628, "slp_s": 0.244968208184, "trn_s": 0.480589044509, "evp_s": 0.0, "dem_s": 0.8, "fld_s": 1.0, "lc_s": 1.0, "DevOpe_21": 0.0689655172414, "DevLowI_22": 0.206896551724, "DDevMed_23": 0.103448275862, "DDevHig_24": 0.137931034483, "DecFor_41": 0.0, "GrasHe_71": 0.0, "OpenW_11": 0.0, "EverFor_42": 0.0, "MixFor_43": 0.0, "SShrub_52": 0.0, "PasHay_81": 0.48275862069, "CultCr_82": 0.0, "welan_90": 0.0, "EmerW_95": 0.0, "Barre_31": 0.0, "source_geometry_valid": true, "dataset": "facility_unit", "layer_title": "INDOT Unit", "layer_type": "facility", "center_longitude": -84.98899350394318, "center_latitude": 38.90428659072705, "source_latitude": 0.0, "source_longitude": 0.0, "land_cover_sum": 1.0000000000004001}, "geometry": {"type": "Polygon", "coordinates": [[[-84.98834128934108, 38.90520954883949, 0.0], [-84.98834128994923, 38.90504054860141, 0.0], [-84.98810628948753, 38.90503754840849, 0.0], [-84.9881082896868, 38.904805548249584, 0.0], [-84.98811129004014, 38.90410654872865, 0.0], [-84.98939328966587, 38.90316154878679, 0.0], [-84.98948928962675, 38.90309054871086, 0.0], [-84.98952328992026, 38.903194548587486, 0.0], [-84.98992928890407, 38.904467548736584, 0.0], [-84.99014328944865, 38.90514954834191, 0.0], [-84.99007928872227, 38.90514854888869, 0.0], [-84.98935328919556, 38.905135548261654, 0.0], [-84.9889822895986, 38.90514154898732, 0.0], [-84.9887612896734, 38.90515654889031, 0.0], [-84.98872428905759, 38.90515954872615, 0.0], [-84.98834128934108, 38.90520954883949, 0.0]]]}}, {"type": "Feature", "properties": {"SPR_ID": 435.0, "Site_typ": "unit", "Unit_Site": "IndotFac - Versailles Unit", "layer": "SEYMOUR", "Volt_Class": "50", "Flood_Zone": "0", "SlopeMean": 3.75164996584, "Solar_Mean": 1585283.00521, "NTran_DIST": 124.053630034, "Shape_Area": 19221.4904515, "sol_s": 0.670162328645, "slp_s": 0.285978457337, "trn_s": 0.865174868256, "evp_s": 0.0, "dem_s": 0.8, "fld_s": 1.0, "lc_s": 1.0, "DevOpe_21": 0.0, "DevLowI_22": 0.0869565217391, "DDevMed_23": 0.347826086957, "DDevHig_24": 0.173913043478, "DecFor_41": 0.0, "GrasHe_71": 0.0, "OpenW_11": 0.0, "EverFor_42": 0.0, "MixFor_43": 0.0, "SShrub_52": 0.0, "PasHay_81": 0.391304347826, "CultCr_82": 0.0, "welan_90": 0.0, "EmerW_95": 0.0, "Barre_31": 0.0, "source_geometry_valid": true, "dataset": "facility_unit", "layer_title": "INDOT Unit", "layer_type": "facility", "center_longitude": -85.26144352212927, "center_latitude": 39.04854468378728, "source_latitude": 0.0, "source_longitude": 0.0, "land_cover_sum": 1.0000000000001}, "geometry": {"type": "Polygon", "coordinates": [[[-85.26252319733243, 39.04771853425738, 0.0], [-85.26265828705218, 39.04771711239953, 0.0], [-85.26242281733496, 39.048139746922075, 0.0], [-85.2619480047355, 39.04897173927503, 0.0], [-85.26107419769873, 39.048975534185175, 0.0], [-85.26070519841167, 39.048976534166435, 0.0], [-85.26069519806909, 39.047734534236774, 0.0], [-85.26182219774053, 39.0477235348111, 0.0], [-85.26252319733243, 39.04771853425738, 0.0]]]}}, {"type": "Feature", "properties": {"SPR_ID": 436.0, "Site_typ": "unit", "Unit_Site": "IndotFac - Scottsburg Unit", "layer": "SEYMOUR", "Volt_Class": "50", "Flood_Zone": "0", "SlopeMean": 4.96942683629, "Solar_Mean": 1535830.54762, "NTran_DIST": 0.0114548731009, "Shape_Area": 19049.3042971, "sol_s": 0.337982861611, "slp_s": 0.0, "trn_s": 0.999985610639, "evp_s": 0.0, "dem_s": 0.8, "fld_s": 1.0, "lc_s": 1.0, "DevOpe_21": 0.0, "DevLowI_22": 0.0, "DDevMed_23": 0.5, "DDevHig_24": 0.5, "DecFor_41": 0.0, "GrasHe_71": 0.0, "OpenW_11": 0.0, "EverFor_42": 0.0, "MixFor_43": 0.0, "SShrub_52": 0.0, "PasHay_81": 0.0, "CultCr_82": 0.0, "welan_90": 0.0, "EmerW_95": 0.0, "Barre_31": 0.0, "source_geometry_valid": true, "dataset": "facility_unit", "layer_title": "INDOT Unit", "layer_type": "facility", "center_longitude": -85.7950113557985, "center_latitude": 38.68418873449631, "source_latitude": 0.0, "source_longitude": 0.0, "land_cover_sum": 1.0}, "geometry": {"type": "Polygon", "coordinates": [[[-85.7942933238013, 38.68349021881057, 0.0], [-85.79571361560183, 38.683500684879704, 0.0], [-85.79573247602718, 38.68489125250768, 0.0], [-85.7943060055946, 38.68487257829705, 0.0], [-85.7942933238013, 38.68349021881057, 0.0]]]}}, {"type": "Feature", "properties": {"SPR_ID": 441.0, "Site_typ": "unit", "Unit_Site": "IndotFac - Logansport Unit", "layer": "LA PORTE", "Volt_Class": "50", "Flood_Zone": "0", "SlopeMean": 2.87567423615, "Solar_Mean": 1540214.42361, "NTran_DIST": 0.0, "Shape_Area": 30724.6166297, "sol_s": 0.367430004602, "slp_s": 0.491689531279, "trn_s": 1.0, "evp_s": 0.0, "dem_s": 0.8, "fld_s": 1.0, "lc_s": 0.955555555556, "DevOpe_21": 0.0277777777778, "DevLowI_22": 0.305555555556, "DDevMed_23": 0.5, "DDevHig_24": 0.111111111111, "DecFor_41": 0.0555555555556, "GrasHe_71": 0.0, "OpenW_11": 0.0, "EverFor_42": 0.0, "MixFor_43": 0.0, "SShrub_52": 0.0, "PasHay_81": 0.0, "CultCr_82": 0.0, "welan_90": 0.0, "EmerW_95": 0.0, "Barre_31": 0.0, "source_geometry_valid": true, "dataset": "facility_unit", "layer_title": "INDOT Unit", "layer_type": "facility", "center_longitude": -86.39850998297129, "center_latitude": 40.735080073669984, "source_latitude": 0.0, "source_longitude": 0.0, "land_cover_sum": 1.0000000000004001}, "geometry": {"type": "Polygon", "coordinates": [[[-86.39776817501387, 40.73394854077521, 0.0], [-86.39913012975242, 40.7332415592197, 0.0], [-86.39913418569634, 40.733515383581484, 0.0], [-86.39915684696085, 40.73411682707567, 0.0], [-86.39918621662794, 40.736050211249754, 0.0], [-86.3980282336391, 40.7360523457811, 0.0], [-86.39791757783037, 40.736048439943154, 0.0], [-86.39776817501387, 40.73394854077521, 0.0]]]}}, {"type": "Feature", "properties": {"SPR_ID": 444.0, "Site_typ": "unit", "Unit_Site": "IndotFac - Gary West Unit", "layer": "LA PORTE", "Volt_Class": "-99999", "Flood_Zone": "0", "SlopeMean": 1.61010481264, "Solar_Mean": 1551236.20588, "NTran_DIST": 1397.5042523, "Shape_Area": 35474.6120467, "sol_s": 0.441464945202, "slp_s": 0.788891424476, "trn_s": 0.362905333289, "evp_s": 0.0, "dem_s": 0.8, "fld_s": 1.0, "lc_s": 1.0, "DevOpe_21": 0.0, "DevLowI_22": 0.104166666667, "DDevMed_23": 0.229166666667, "DDevHig_24": 0.666666666667, "DecFor_41": 0.0, "GrasHe_71": 0.0, "OpenW_11": 0.0, "EverFor_42": 0.0, "MixFor_43": 0.0, "SShrub_52": 0.0, "PasHay_81": 0.0, "CultCr_82": 0.0, "welan_90": 0.0, "EmerW_95": 0.0, "Barre_31": 0.0, "source_geometry_valid": true, "dataset": "facility_unit", "layer_title": "INDOT Unit", "layer_type": "facility", "center_longitude": -87.4294940029475, "center_latitude": 41.590754510139966, "source_latitude": 0.0, "source_longitude": 0.0, "land_cover_sum": 1.000000000001}, "geometry": {"type": "Polygon", "coordinates": [[[-87.42888006059725, 41.58864569078775, 0.0], [-87.42887826192589, 41.58817269524811, 0.0], [-87.42939328973945, 41.58817384980664, 0.0], [-87.42939211052912, 41.58847027674983, 0.0], [-87.42964319214613, 41.58888501952307, 0.0], [-87.4300927674347, 41.58889057777911, 0.0], [-87.4300962451909, 41.58979759548246, 0.0], [-87.43010354728979, 41.59170785483179, 0.0], [-87.42889171535393, 41.59170318811682, 0.0], [-87.42888450793559, 41.58981035558963, 0.0], [-87.42888424772113, 41.589741855274895, 0.0], [-87.42888398630805, 41.589673354963814, 0.0], [-87.42888372592304, 41.58960482852697, 0.0], [-87.4288834597073, 41.589536327331466, 0.0], [-87.42888319812484, 41.58946780089744, 0.0], [-87.42888294031569, 41.589399300569674, 0.0], [-87.4288826787296, 41.58933077323331, 0.0], [-87.42888241972302, 41.589262272908364, 0.0], [-87.42888215711835, 41.589193772596026, 0.0], [-87.42888189572054, 41.58912527317909, 0.0], [-87.42888163053985, 41.58905674585289, 0.0], [-87.42888137033816, 41.58898824552914, 0.0], [-87.42888006059725, 41.58864569078775, 0.0]]]}}, {"type": "Feature", "properties": {"SPR_ID": 446.0, "Site_typ": "unit", "Unit_Site": "IndotFac - Crown Point Unit", "layer": "LA PORTE", "Volt_Class": "150", "Flood_Zone": "0", "SlopeMean": 3.8586358428, "Solar_Mean": 1559643.20089, "NTran_DIST": 5598.08250648, "Shape_Area": 20219.3513911, "sol_s": 0.497935973294, "slp_s": 0.260854268504, "trn_s": 0.124497496039, "evp_s": 0.0, "dem_s": 0.8, "fld_s": 1.0, "lc_s": 0.923809523809, "DevOpe_21": 0.0, "DevLowI_22": 0.0, "DDevMed_23": 0.285714285714, "DDevHig_24": 0.333333333333, "DecFor_41": 0.0, "GrasHe_71": 0.047619047619, "OpenW_11": 0.0, "EverFor_42": 0.0, "MixFor_43": 0.0, "SShrub_52": 0.0, "PasHay_81": 0.238095238095, "CultCr_82": 0.0952380952381, "welan_90": 0.0, "EmerW_95": 0.0, "Barre_31": 0.0, "source_geometry_valid": true, "dataset": "facility_unit", "layer_title": "INDOT Unit", "layer_type": "facility", "center_longitude": -87.3124926810575, "center_latitude": 41.38288436750323, "source_latitude": 0.0, "source_longitude": 0.0, "land_cover_sum": 0.9999999999991}, "geometry": {"type": "Polygon", "coordinates": [[[-87.31190151844584, 41.38378991893582, 0.0], [-87.31188132935912, 41.38197854553976, 0.0], [-87.31308380942156, 41.38197881299726, 0.0], [-87.31310406775626, 41.38379018596731, 0.0], [-87.31190151844584, 41.38378991893582, 0.0]]]}}, {"type": "Feature", "properties": {"SPR_ID": 452.0, "Site_typ": "unit", "Unit_Site": "IndotFac - Roselawn Unit", "layer": "LA PORTE", "Volt_Class": "150", "Flood_Zone": "0", "SlopeMean": 4.91094315946, "Solar_Mean": 1533871.1375, "NTran_DIST": 3245.46612421, "Shape_Area": 14649.4807572, "sol_s": 0.324821214221, "slp_s": 0.0137341019403, "trn_s": 0.196968952576, "evp_s": 0.0, "dem_s": 0.8, "fld_s": 1.0, "lc_s": 0.999999999999, "DevOpe_21": 0.0, "DevLowI_22": 0.0, "DDevMed_23": 0.333333333333, "DDevHig_24": 0.333333333333, "DecFor_41": 0.0, "GrasHe_71": 0.333333333333, "OpenW_11": 0.0, "EverFor_42": 0.0, "MixFor_43": 0.0, "SShrub_52": 0.0, "PasHay_81": 0.0, "CultCr_82": 0.0, "welan_90": 0.0, "EmerW_95": 0.0, "Barre_31": 0.0, "source_geometry_valid": true, "dataset": "facility_unit", "layer_title": "INDOT Unit", "layer_type": "facility", "center_longitude": -87.27631847053937, "center_latitude": 41.14389985446832, "source_latitude": 0.0, "source_longitude": 0.0, "land_cover_sum": 0.9999999999990001}, "geometry": {"type": "Polygon", "coordinates": [[[-87.27692237288977, 41.14426517805398, 0.0], [-87.27572676348665, 41.14425472406955, 0.0], [-87.27572614162334, 41.1442547651932, 0.0], [-87.27572542525553, 41.14425471916546, 0.0], [-87.27572424798083, 41.1442547345945, 0.0], [-87.27571471895891, 41.143547857365704, 0.0], [-87.2757067007429, 41.14294274161988, 0.0], [-87.2769047739953, 41.14295196482238, 0.0], [-87.27692237288977, 41.14426517805398, 0.0]]]}}, {"type": "Feature", "properties": {"SPR_ID": 453.0, "Site_typ": "unit", "Unit_Site": "IndotFac - Kentland Unit", "layer": "LA PORTE", "Volt_Class": "150", "Flood_Zone": "0", "SlopeMean": 1.35800120786, "Solar_Mean": 1567516.87963, "NTran_DIST": 4014.93072792, "Shape_Area": 24094.549741, "sol_s": 0.550824637173, "slp_s": 0.848094552515, "trn_s": 0.165465913974, "evp_s": 0.0, "dem_s": 0.8, "fld_s": 1.0, "lc_s": 0.455172413793, "DevOpe_21": 0.0, "DevLowI_22": 0.0, "DDevMed_23": 0.137931034483, "DDevHig_24": 0.103448275862, "DecFor_41": 0.0, "GrasHe_71": 0.0, "OpenW_11": 0.0, "EverFor_42": 0.0, "MixFor_43": 0.0, "SShrub_52": 0.0, "PasHay_81": 0.0, "CultCr_82": 0.551724137931, "welan_90": 0.0, "EmerW_95": 0.0, "Barre_31": 0.206896551724, "source_geometry_valid": true, "dataset": "facility_unit", "layer_title": "INDOT Unit", "layer_type": "facility", "center_longitude": -87.43963873689839, "center_latitude": 40.81099571472596, "source_latitude": 0.0, "source_longitude": 0.0, "land_cover_sum": 1.0}, "geometry": {"type": "Polygon", "coordinates": [[[-87.43965712448687, 40.809191814645686, 0.0], [-87.43966205221632, 40.809144436387776, 0.0], [-87.43997069473583, 40.80914578766974, 0.0], [-87.44002110256483, 40.812661165591216, 0.0], [-87.43870018621756, 40.812660050019694, 0.0], [-87.4388785273401, 40.81222480833823, 0.0], [-87.4388805948818, 40.81221936835161, 0.0], [-87.4391665924379, 40.8114043680037, 0.0], [-87.4391682854404, 40.81139913483054, 0.0], [-87.43922928561538, 40.81119313417399, 0.0], [-87.43923027354414, 40.8111895801649, 0.0], [-87.43933027210093, 40.81080457989874, 0.0], [-87.43933106975452, 40.810801300471354, 0.0], [-87.43934801170688, 40.81072655462329, 0.0], [-87.43938101408861, 40.81058453972281, 0.0], [-87.4393863938232, 40.8105607043738, 0.0], [-87.43946393376594, 40.81024297214701, 0.0], [-87.43951571628715, 40.80998777406787, 0.0], [-87.43955309269352, 40.80982218431607, 0.0], [-87.4395540261942, 40.80981757471479, 0.0], [-87.43963202543765, 40.80938357420185, 0.0], [-87.43963281464252, 40.80937848049217, 0.0], [-87.43965280324834, 40.809224560789865, 0.0], [-87.43965676623128, 40.8091948383622, 0.0], [-87.43965712448687, 40.809191814645686, 0.0]]]}}, {"type": "Feature", "properties": {"SPR_ID": 459.0, "Site_typ": "unit", "Unit_Site": "IndotFac - Mishawaka Unit", "layer": "LA PORTE", "Volt_Class": "345", "Flood_Zone": "0", "SlopeMean": 2.26013881394, "Solar_Mean": 1565384.91667, "NTran_DIST": 785.234971012, "Shape_Area": 16044.9402562, "sol_s": 0.536503926852, "slp_s": 0.636239715103, "trn_s": 0.503420946922, "evp_s": 0.0, "dem_s": 0.8, "fld_s": 1.0, "lc_s": 1.0, "DevOpe_21": 0.0, "DevLowI_22": 0.0, "DDevMed_23": 0.333333333333, "DDevHig_24": 0.666666666667, "DecFor_41": 0.0, "GrasHe_71": 0.0, "OpenW_11": 0.0, "EverFor_42": 0.0, "MixFor_43": 0.0, "SShrub_52": 0.0, "PasHay_81": 0.0, "CultCr_82": 0.0, "welan_90": 0.0, "EmerW_95": 0.0, "Barre_31": 0.0, "source_geometry_valid": true, "dataset": "facility_unit", "layer_title": "INDOT Unit", "layer_type": "facility", "center_longitude": -86.15162050557196, "center_latitude": 41.65371560583522, "source_latitude": 0.0, "source_longitude": 0.0, "land_cover_sum": 1.0}, "geometry": {"type": "Polygon", "coordinates": [[[-86.15053571009473, 41.653360105209465, 0.0], [-86.15280970963951, 41.65334010507014, 0.0], [-86.1528167095704, 41.654069104538436, 0.0], [-86.15162571023512, 41.65407810507739, 0.0], [-86.15053871013922, 41.654086104661324, 0.0], [-86.15042970976272, 41.65408710494397, 0.0], [-86.15042571061682, 41.65336210510012, 0.0], [-86.15053571009473, 41.653360105209465, 0.0]]]}}, {"type": "Feature", "properties": {"SPR_ID": 460.0, "Site_typ": "unit", "Unit_Site": "IndotFac - Indianapolis Blvd. Lift Bridge", "layer": "LA PORTE", "Volt_Class": "150", "Flood_Zone": "AE", "SlopeMean": 0.889497329227, "Solar_Mean": 1555312.93182, "NTran_DIST": 790.091454714, "Shape_Area": 13938.0112804, "sol_s": 0.468848915908, "slp_s": 0.95811636334, "trn_s": 0.501879565176, "evp_s": 0.0, "dem_s": 0.8, "fld_s": 0.8702, "lc_s": 1.0, "DevOpe_21": 0.0, "DevLowI_22": 0.0, "DDevMed_23": 0.117647058824, "DDevHig_24": 0.882352941176, "DecFor_41": 0.0, "GrasHe_71": 0.0, "OpenW_11": 0.0, "EverFor_42": 0.0, "MixFor_43": 0.0, "SShrub_52": 0.0, "PasHay_81": 0.0, "CultCr_82": 0.0, "welan_90": 0.0, "EmerW_95": 0.0, "Barre_31": 0.0, "source_geometry_valid": true, "dataset": "facility_unit", "layer_title": "INDOT Unit", "layer_type": "facility", "center_longitude": -87.47935460774559, "center_latitude": 41.64598715278512, "source_latitude": 0.0, "source_longitude": 0.0, "land_cover_sum": 1.0}, "geometry": {"type": "Polygon", "coordinates": [[[-87.47797801194979, 41.64634672814333, 0.0], [-87.47797808368783, 41.64619883613826, 0.0], [-87.47971199521149, 41.646201451517456, 0.0], [-87.48018630024465, 41.64622815988051, 0.0], [-87.48018800679749, 41.646145701863546, 0.0], [-87.47971369996716, 41.64611899351397, 0.0], [-87.47799823932736, 41.646116406816375, 0.0], [-87.47805066161003, 41.64568360781331, 0.0], [-87.47876941704072, 41.645761842249605, 0.0], [-87.48069615259374, 41.64570973958053, 0.0], [-87.48069599572942, 41.64585794539895, 0.0], [-87.48069599928867, 41.646373296986646, 0.0], [-87.47797801194979, 41.64634672814333, 0.0]]]}}, {"type": "Feature", "properties": {"SPR_ID": 462.0, "Site_typ": "unit", "Unit_Site": "IndotFac - Muncie Unit", "layer": "GREENFIELD", "Volt_Class": "150", "Flood_Zone": "0", "SlopeMean": 2.80607924735, "Solar_Mean": 1611001.54688, "NTran_DIST": 1461.95357487, "Shape_Area": 24437.1238044, "sol_s": 0.842917574414, "slp_s": 0.508032974826, "trn_s": 0.352547085011, "evp_s": 0.0, "dem_s": 0.8, "fld_s": 1.0, "lc_s": 1.0, "DevOpe_21": 0.0714285714286, "DevLowI_22": 0.392857142857, "DDevMed_23": 0.428571428571, "DDevHig_24": 0.107142857143, "DecFor_41": 0.0, "GrasHe_71": 0.0, "OpenW_11": 0.0, "EverFor_42": 0.0, "MixFor_43": 0.0, "SShrub_52": 0.0, "PasHay_81": 0.0, "CultCr_82": 0.0, "welan_90": 0.0, "EmerW_95": 0.0, "Barre_31": 0.0, "source_geometry_valid": true, "dataset": "facility_unit", "layer_title": "INDOT Unit", "layer_type": "facility", "center_longitude": -85.36701748911439, "center_latitude": 40.23888944319343, "source_latitude": 0.0, "source_longitude": 0.0, "land_cover_sum": 0.9999999999996}, "geometry": {"type": "Polygon", "coordinates": [[[-85.36789571972312, 40.23712762773057, 0.0], [-85.36800313256877, 40.23712525097309, 0.0], [-85.36800546449768, 40.23759919464451, 0.0], [-85.36789803057913, 40.237601585516614, 0.0], [-85.3678969891542, 40.2376041761775, 0.0], [-85.36789593580497, 40.23760677387722, 0.0], [-85.36789489422848, 40.23760937084212, 0.0], [-85.36789384224886, 40.23761196045321, 0.0], [-85.36789279009612, 40.237614557268905, 0.0], [-85.36789173811636, 40.237617146879955, 0.0], [-85.36789067538736, 40.237619743546446, 0.0], [-85.36788963415653, 40.23762232610206, 0.0], [-85.36788858061206, 40.237624931906886, 0.0], [-85.36788751925259, 40.23762752048472, 0.0], [-85.36788645667468, 40.237630110847114, 0.0], [-85.3678853941183, 40.237632700308936, 0.0], [-85.36788433138882, 40.23763529697533, 0.0], [-85.36788327000741, 40.237637886453705, 0.0], [-85.36788220742915, 40.237640476816054, 0.0], [-85.36788113547149, 40.23764306614518, 0.0], [-85.36788006231697, 40.23764565635832, 0.0], [-85.36787900095686, 40.237648244936075, 0.0], [-85.36787792899894, 40.237650834265175, 0.0], [-85.36787684644321, 40.23765342434567, 0.0], [-85.36787577448511, 40.23765601367477, 0.0], [-85.36787470269996, 40.23765859579923, 0.0], [-85.367873620144, 40.237661185879695, 0.0], [-85.36787253878468, 40.23766377507613, 0.0], [-85.36787145524806, 40.23766635703478, 0.0], [-85.36787037388859, 40.23766894623121, 0.0], [-85.36786929169996, 40.237671521001815, 0.0], [-85.36786819956957, 40.23767411815421, 0.0], [-85.36786710663164, 40.23767669998021, 0.0], [-85.36786602409668, 40.23767928916002, 0.0], [-85.36786493233373, 40.23768187100257, 0.0], [-85.36786384057068, 40.2376844528451, 0.0], [-85.36786274782708, 40.23768702656586, 0.0], [-85.36786164646821, 40.23768961638098, 0.0], [-85.3678605533351, 40.2376922063121, 0.0], [-85.36785945217073, 40.23769478802196, 0.0], [-85.36785834983117, 40.23769736971526, 0.0], [-85.36785725708712, 40.237699943435956, 0.0], [-85.36785614534641, 40.23770252499662, 0.0], [-85.36785503258189, 40.23770510023665, 0.0], [-85.36785393124406, 40.23770768915108, 0.0], [-85.36785281832795, 40.237710270695125, 0.0], [-85.36785171616087, 40.237712845183715, 0.0], [-85.3678506044197, 40.2377154267443, 0.0], [-85.36784949150334, 40.23771800828831, 0.0], [-85.36784836935895, 40.237720582495086, 0.0], [-85.36784725761753, 40.237723164055616, 0.0], [-85.3678461352783, 40.237725746367566, 0.0], [-85.3678450133283, 40.2377283124691, 0.0], [-85.36784390038987, 40.2377308949136, 0.0], [-85.36784276886569, 40.23773346808711, 0.0], [-85.36784163729816, 40.237736043061766, 0.0], [-85.36784052457575, 40.23773861650045, 0.0], [-85.36783939183293, 40.23774119145851, 0.0], [-85.36783827071145, 40.23774377198577, 0.0], [-85.36783713796845, 40.23774634694379, 0.0], [-85.36783600542002, 40.23774891379658, 0.0], [-85.36783486331912, 40.23775148682083, 0.0], [-85.36783373177259, 40.237754060894815, 0.0], [-85.36783259902924, 40.23775663585277, 0.0], [-85.36783145710112, 40.237759201672326, 0.0], [-85.36783030457516, 40.237761768243274, 0.0], [-85.36782917285524, 40.23776434952182, 0.0], [-85.36782803071056, 40.23776692434711, 0.0], [-85.36782688878206, 40.23776949016661, 0.0], [-85.36782573608272, 40.23777206394214, 0.0], [-85.36782459413241, 40.23777463066219, 0.0], [-85.36782344160594, 40.237777197233044, 0.0], [-85.36782229008145, 40.23777977102509, 0.0], [-85.36782113755477, 40.237782337595924, 0.0], [-85.36781998504964, 40.23778490326617, 0.0], [-85.36781882312181, 40.237787469704344, 0.0], [-85.36781767059486, 40.237790036275136, 0.0], [-85.36781650849382, 40.23779260991793, 0.0], [-85.36781534558524, 40.237795168234285, 0.0], [-85.36781418483217, 40.237797734689025, 0.0], [-85.36781302290389, 40.23780030112712, 0.0], [-85.36781185980038, 40.237802867548666, 0.0], [-85.36781068727417, 40.23780543473813, 0.0], [-85.36780951594464, 40.237808001043604, 0.0], [-85.36780835303553, 40.23781055935989, 0.0], [-85.36780718053069, 40.23781312564876, 0.0], [-85.36780600939554, 40.23781568384899, 0.0], [-85.3678048263144, 40.23781824998862, 0.0], [-85.3678036539823, 40.23782080907283, 0.0], [-85.3678024732296, 40.23782337614617, 0.0], [-85.36780129151798, 40.23782593419714, 0.0], [-85.36780011920723, 40.23782849238073, 0.0], [-85.36779892672466, 40.23783105838766, 0.0], [-85.367797743816, 40.23783361732261, 0.0], [-85.36779656227705, 40.23783616816891, 0.0], [-85.36779536979417, 40.23783873417581, 0.0], [-85.36779418803874, 40.23784129402786, 0.0], [-85.36779299575035, 40.23784385192956, 0.0], [-85.36779180346188, 40.23784640983121, 0.0], [-85.36779061113005, 40.23784896953402, 0.0], [-85.36778939886429, 40.23785152715387, 0.0], [-85.36778821730306, 40.23785407890064, 0.0], [-85.3677870144381, 40.237856636653035, 0.0], [-85.36778581272652, 40.237859195322606, 0.0], [-85.36778461120954, 40.23786174588696, 0.0], [-85.36778340830104, 40.23786430544048, 0.0], [-85.36778220560875, 40.23786685598824, 0.0], [-85.36778100291636, 40.23786940653595, 0.0], [-85.36777979060658, 40.23787196595682, 0.0], [-85.36777857968814, 40.23787451638848, 0.0], [-85.36777736759447, 40.23787706680353, 0.0], [-85.3677761555007, 40.23787961721857, 0.0], [-85.36777494319057, 40.237882176639395, 0.0], [-85.3677737310966, 40.23788472705441, 0.0], [-85.36777250840483, 40.23788727822079, 0.0], [-85.3677712963107, 40.23788982863578, 0.0], [-85.36777007381338, 40.23789237169694, 0.0], [-85.36776885229644, 40.23789492287986, 0.0], [-85.36776762960427, 40.237897474046186, 0.0], [-85.36776639753263, 40.2379000241793, 0.0], [-85.36776517621009, 40.23790256725697, 0.0], [-85.36776394411663, 40.237905118290634, 0.0], [-85.36776272125103, 40.237907676661514, 0.0], [-85.36776148835, 40.237910212368774, 0.0], [-85.36776025625625, 40.237912763402385, 0.0], [-85.3677590149561, 40.23791530619817, 0.0], [-85.36775779361135, 40.23791785017632, 0.0], [-85.36775654173488, 40.23792039282288, 0.0], [-85.36775530846562, 40.237922943839855, 0.0], [-85.36775406598997, 40.23792548661901, 0.0], [-85.3677528246677, 40.23792803031529, 0.0], [-85.36775158219184, 40.2379305730944, 0.0], [-85.36775033031489, 40.23793311574088, 0.0], [-85.36774908783885, 40.237935658519966, 0.0], [-85.36774783594007, 40.237938202066985, 0.0], [-85.36774658423587, 40.2379407375088, 0.0], [-85.36774533118341, 40.23794328013864, 0.0], [-85.36774407928434, 40.23794582368562, 0.0], [-85.36774282738517, 40.237948367232576, 0.0], [-85.36774157570224, 40.237950901773736, 0.0], [-85.36774031205161, 40.237953445154915, 0.0], [-85.3677390509242, 40.23795598136458, 0.0], [-85.36773777926382, 40.23795851562388, 0.0], [-85.36773652618906, 40.23796105915419, 0.0], [-85.36773526392949, 40.23796359354608, 0.0], [-85.3677340028017, 40.23796612975569, 0.0], [-85.36773272994417, 40.23796866489893, 0.0], [-85.36773145824003, 40.237971200959315, 0.0], [-85.36773019595846, 40.23797373625172, 0.0], [-85.36772892312226, 40.23797627049433, 0.0], [-85.36772765141784, 40.23797880655466, 0.0], [-85.36772637033395, 40.237981341581765, 0.0], [-85.36772509745421, 40.23798387762549, 0.0], [-85.36772381502195, 40.2379864198406, 0.0], [-85.36772254250974, 40.23798894057448, 0.0], [-85.36772126142546, 40.23799147560153, 0.0], [-85.3677199791443, 40.23799401151256, 0.0], [-85.36771869590423, 40.23799653840123, 0.0], [-85.36771740422189, 40.2379990741796, 0.0], [-85.36771612213514, 40.238001601985395, 0.0], [-85.3677148306689, 40.23800412875797, 0.0], [-85.36771353898625, 40.23800666453629, 0.0], [-85.36771224632307, 40.238009192192834, 0.0], [-85.36771095483489, 40.23801171986593, 0.0], [-85.3677096621715, 40.23801424752244, 0.0], [-85.367708360107, 40.23801677504629, 0.0], [-85.36770705684563, 40.23801930345413, 0.0], [-85.3677057653787, 40.23802183022659, 0.0], [-85.36770446331391, 40.23802435775038, 0.0], [-85.36770316142206, 40.23802687806957, 0.0], [-85.36770185935706, 40.23802940559335, 0.0], [-85.36770054789093, 40.238031932984484, 0.0], [-85.3676992448453, 40.23803445238647, 0.0], [-85.36769793335736, 40.23803698067814, 0.0], [-85.3676966207158, 40.23803950805264, 0.0], [-85.36769529767105, 40.23804202807331, 0.0], [-85.36769399697528, 40.23804454750836, 0.0], [-85.3676926845065, 40.2380470676782, 0.0], [-85.36769136246352, 40.238049594920014, 0.0], [-85.36769004999454, 40.23805211508982, 0.0], [-85.36768872812442, 40.238054635126986, 0.0], [-85.3676874062542, 40.23805715516412, 0.0], [-85.36768608320877, 40.238059675184665, 0.0], [-85.36768475193733, 40.23806219508916, 0.0], [-85.36768342889168, 40.238064715109665, 0.0], [-85.3676821081962, 40.23806723516331, 0.0], [-85.36768077594402, 40.238069746945975, 0.0], [-85.36767944349705, 40.2380722668338, 0.0], [-85.36767812162613, 40.23807478687082, 0.0], [-85.36767677877586, 40.238077299404814, 0.0], [-85.36767543692758, 40.238079819159964, 0.0], [-85.36767410585001, 40.2380823309591, 0.0], [-85.36767276302108, 40.23808484259245, 0.0], [-85.36767143055188, 40.23808736338075, 0.0], [-85.36767008772273, 40.238089875014055, 0.0], [-85.36766953599201, 40.238092534741774, 0.0], [-85.3676689948374, 40.23809519461871, 0.0], [-85.36766843233575, 40.238097862302396, 0.0], [-85.36766788058324, 40.23810052293069, 0.0], [-85.36766731710107, 40.23810318249261, 0.0], [-85.36766676654523, 40.238105842236884, 0.0], [-85.36766620306295, 40.23810850179879, 0.0], [-85.36766564190926, 40.23811116229445, 0.0], [-85.3676650794073, 40.238113829978104, 0.0], [-85.36766451710001, 40.23811648955658, 0.0], [-85.36766394519694, 40.238119157107626, 0.0], [-85.3676633830626, 40.2381218094815, 0.0], [-85.36766281135414, 40.238124468927325, 0.0], [-85.36766223862192, 40.23812712205253, 0.0], [-85.36766166691335, 40.238129781498365, 0.0], [-85.36766109400797, 40.23813244182818, 0.0], [-85.36766051289827, 40.23813510114139, 0.0], [-85.36765992941663, 40.23813776132199, 0.0], [-85.36765934830684, 40.23814042063516, 0.0], [-85.36765876499817, 40.23814307361116, 0.0], [-85.36765818386665, 40.23814573382492, 0.0], [-85.36765760258366, 40.238148400342695, 0.0], [-85.3676570100685, 40.23815104508083, 0.0], [-85.36765642660819, 40.23815370436084, 0.0], [-85.36765583490032, 40.23815636442538, 0.0], [-85.36765524219032, 40.23815901726869, 0.0], [-85.36765464090826, 40.2381616844052, 0.0], [-85.36765404841448, 40.23816432824275, 0.0], [-85.36765344728371, 40.23816698907522, 0.0], [-85.36765284401899, 40.23816964086874, 0.0], [-85.36765224290976, 40.238172300800606, 0.0], [-85.36765163964495, 40.238174952594115, 0.0], [-85.36765103873032, 40.2381776044208, 0.0], [-85.36765042586964, 40.23818026418686, 0.0], [-85.36764982375817, 40.238182916897514, 0.0], [-85.36764920169105, 40.23818556842574, 0.0], [-85.36764860058153, 40.2381882283576, 0.0], [-85.3676479878937, 40.23819088091902, 0.0], [-85.36764736462969, 40.238193533331234, 0.0], [-85.36764675313854, 40.23819618500868, 0.0], [-85.36764613104954, 40.23819883743746, 0.0], [-85.36764550898211, 40.238201488965665, 0.0], [-85.367644886893, 40.238204141394455, 0.0], [-85.3676442646308, 40.23820680102784, 0.0], [-85.36764363198704, 40.238209452406835, 0.0], [-85.36764301009248, 40.23821209673041, 0.0], [-85.36764236800431, 40.23821474977791, 0.0], [-85.36764174593658, 40.2382174013061, 0.0], [-85.36764111444612, 40.23822005360222, 0.0], [-85.36764048178047, 40.238222705881746, 0.0], [-85.36763983971373, 40.23822535802866, 0.0], [-85.36763919764694, 40.238228010175554, 0.0], [-85.36763856537054, 40.2382306462447, 0.0], [-85.36763793370673, 40.238233305745396, 0.0], [-85.36763727046579, 40.23823595849445, 0.0], [-85.36763662859349, 40.23823860253613, 0.0], [-85.3676359769307, 40.238241262655556, 0.0], [-85.36763533388314, 40.23824390668066, 0.0], [-85.3676346826096, 40.23824655058969, 0.0], [-85.36763402996621, 40.23824920258735, 0.0], [-85.3676333681164, 40.238251846347175, 0.0], [-85.36763271662639, 40.23825449926197, 0.0], [-85.36763205357973, 40.23825714390578, 0.0], [-85.3676314011308, 40.2382597877982, 0.0], [-85.36763073906445, 40.23826244056377, 0.0], [-85.36763007721436, 40.23826508432355, 0.0], [-85.36762940476642, 40.238267728834714, 0.0], [-85.36762874254848, 40.2382703879043, 0.0], [-85.36762807029511, 40.23827302431026, 0.0], [-85.367627397847, 40.2382756688214, 0.0], [-85.36762672657395, 40.23827831334909, 0.0], [-85.36762606472354, 40.23828095710887, 0.0], [-85.36762538169907, 40.238283601470776, 0.0], [-85.367624699655, 40.23828625395445, 0.0], [-85.3676240272066, 40.238288898465555, 0.0], [-85.36762334537873, 40.23829154194345, 0.0], [-85.36762266370224, 40.23829417911731, 0.0], [-85.36762197127645, 40.23829682334657, 0.0], [-85.36762128942676, 40.23829946772503, 0.0], [-85.36762059700087, 40.23830211195425, 0.0], [-85.36761991497801, 40.23830476353732, 0.0], [-85.36761922272504, 40.238307400561936, 0.0], [-85.36761853029897, 40.23831004479114, 0.0], [-85.36761782883954, 40.23831267357795, 0.0], [-85.36761713624027, 40.238315325011754, 0.0], [-85.36761643323783, 40.23831796909175, 0.0], [-85.36761573177822, 40.23832059787851, 0.0], [-85.3676150297561, 40.238323250080256, 0.0], [-85.36761432812331, 40.23832588607163, 0.0], [-85.3676136252937, 40.23832852294698, 0.0], [-85.36761291286827, 40.238331167794904, 0.0], [-85.36761221104061, 40.23833381189143, 0.0], [-85.3676114986367, 40.238336455838734, 0.0], [-85.3676107866005, 40.23833908447626, 0.0], [-85.36761007419648, 40.23834172842356, 0.0], [-85.3676093525644, 40.23834436503361, 0.0], [-85.36760864033332, 40.2383470017763, 0.0], [-85.36760791735293, 40.23834964557438, 0.0], [-85.36760719569905, 40.238352283084986, 0.0], [-85.36760647408835, 40.23835491879443, 0.0], [-85.36760576185705, 40.23835755553708, 0.0], [-85.36760500967115, 40.23836019171605, 0.0], [-85.36760429743973, 40.23836282845868, 0.0], [-85.36760356503628, 40.23836547302468, 0.0], [-85.36760283184704, 40.23836810136369, 0.0], [-85.36760210081331, 40.23837073784105, 0.0], [-85.36760136860437, 40.238373374301815, 0.0], [-85.3676006258192, 40.23837601061337, 0.0], [-85.36759988420907, 40.2383786469415, 0.0], [-85.36759915217303, 40.238381276197636, 0.0], [-85.36759841058442, 40.23838391162518, 0.0], [-85.3675976583763, 40.23838654870465, 0.0], [-85.36759691576388, 40.23838917781154, 0.0], [-85.36759616357726, 40.238391813990425, 0.0], [-85.36759542079164, 40.23839445030193, 0.0], [-85.36759466877798, 40.23839707927618, 0.0], [-85.36759390601497, 40.23839971530584, 0.0], [-85.36759316577414, 40.2384023435453, 0.0], [-85.3675924029894, 40.23840498047551, 0.0], [-85.36759165097547, 40.23840760944973, 0.0], [-85.3675908883853, 40.238410238274746, 0.0], [-85.36759012562199, 40.23841287430436, 0.0], [-85.3675893642068, 40.23841550314592, 0.0], [-85.36758860161643, 40.238418131970896, 0.0], [-85.36758782943024, 40.23842076876843, 0.0], [-85.36758705743867, 40.238423397460785, 0.0], [-85.36758629604488, 40.23842602540176, 0.0], [-85.36758552405318, 40.23842865409407, 0.0], [-85.36758473088737, 40.238431283388536, 0.0], [-85.36758396949341, 40.23843391132948, 0.0], [-85.36758319630476, 40.238436540905795, 0.0], [-85.36758241491174, 40.23843916946544, 0.0], [-85.36758164311443, 40.23844179005254, 0.0], [-85.36758084977525, 40.23844442655157, 0.0], [-85.36758006838205, 40.23844705511123, 0.0], [-85.36757928600834, 40.238449675549084, 0.0], [-85.3675784940388, 40.23845230395949, 0.0], [-85.36757770087243, 40.238454933253884, 0.0], [-85.36757690907584, 40.23845755445968, 0.0], [-85.3675761171061, 40.23846018287006, 0.0], [-85.36757532513629, 40.238462811280435, 0.0], [-85.36757454274057, 40.23846543261883, 0.0], [-85.36757373079335, 40.23846806074735, 0.0], [-85.36757292842022, 40.2384706818039, 0.0], [-85.3675721258523, 40.2384733109656, 0.0], [-85.36757132350067, 40.238475931121535, 0.0], [-85.36757052110572, 40.238478553078615, 0.0], [-85.36756970915816, 40.2384811812071, 0.0], [-85.36756890680635, 40.23848380136301, 0.0], [-85.3675680950101, 40.23848642318744, 0.0], [-85.36756728325706, 40.23848904321069, 0.0], [-85.36756647128762, 40.23849167223974, 0.0], [-85.36756566891388, 40.238494293296185, 0.0], [-85.36756483716174, 40.23849691393816, 0.0], [-85.36756401478895, 40.23849953561332, 0.0], [-85.36756320186045, 40.23850215561998, 0.0], [-85.36756238066266, 40.238504777311704, 0.0], [-85.3675615477351, 40.23850739793707, 0.0], [-85.36756072675351, 40.238510010623, 0.0], [-85.36755989382581, 40.238512631248355, 0.0], [-85.36755907145262, 40.23851525292348, 0.0], [-85.36755823969993, 40.23851787356539, 0.0], [-85.36755740814186, 40.2385204861021, 0.0], [-85.36755656579116, 40.23852310749533, 0.0], [-85.36755573286312, 40.23852572812065, 0.0], [-85.36755489070701, 40.238528341408674, 0.0], [-85.3675540577572, 40.23853096293454, 0.0], [-85.36755321677609, 40.23853357623915, 0.0], [-85.36755237427361, 40.238536203936384, 0.0], [-85.3675515217357, 40.23853880896999, 0.0], [-85.36755068075438, 40.238541422274565, 0.0], [-85.36754982782692, 40.23854404351853, 0.0], [-85.36754897626923, 40.23854665667389, 0.0], [-85.36754812353635, 40.23854926981264, 0.0], [-85.3675472708034, 40.2385518829514, 0.0], [-85.3675464190508, 40.23855450421189, 0.0], [-85.36754555691662, 40.238557117218, 0.0], [-85.36754470535858, 40.23855973037331, 0.0], [-85.36754384322425, 40.23856234337937, 0.0], [-85.36754297991473, 40.23856495636888, 0.0], [-85.36754211778027, 40.238567569374936, 0.0], [-85.36754124624466, 40.23857018224836, 0.0], [-85.36754038428313, 40.23857278804979, 0.0], [-85.36753952214846, 40.238575401055805, 0.0], [-85.36753864003641, 40.238578013779986, 0.0], [-85.36753776732537, 40.2385806266368, 0.0], [-85.36753689476569, 40.238583233189544, 0.0], [-85.36753602322966, 40.23858584606292, 0.0], [-85.36753514111732, 40.23858845878706, 0.0], [-85.36753425800283, 40.238591064289984, 0.0], [-85.36753337589036, 40.238593677014094, 0.0], [-85.36753249395088, 40.238596282533585, 0.0], [-85.36753161318647, 40.23859888806965, 0.0], [-85.3675307204759, 40.238601501545105, 0.0], [-85.3675298373827, 40.23860410614742, 0.0], [-85.3675289460202, 40.238606712434816, 0.0], [-85.36752805333107, 40.23860932500967, 0.0], [-85.36752716199007, 40.23861193039647, 0.0], [-85.36752626947386, 40.2386145357667, 0.0], [-85.36752536755648, 40.23861714100427, 0.0], [-85.3675244656174, 40.238619747142394, 0.0], [-85.36752356254637, 40.23862235146279, 0.0], [-85.36752267002989, 40.23862495683296, 0.0], [-85.36752175868948, 40.238627562838424, 0.0], [-85.36752085679336, 40.238630167175366, 0.0], [-85.36751995367878, 40.23863277329688, 0.0], [-85.36751904253288, 40.238635371197134, 0.0], [-85.36751813006032, 40.23863797538484, 0.0], [-85.36751721754442, 40.23864058137367, 0.0], [-85.36751630522315, 40.23864317925731, 0.0], [-85.36751538332764, 40.23864578421292, 0.0], [-85.36751447100623, 40.23864838209654, 0.0], [-85.36751354911056, 40.238650987052125, 0.0], [-85.3675126273879, 40.238653584803096, 0.0], [-85.36751170429532, 40.238656190642665, 0.0], [-85.36751078259415, 40.23865878749303, 0.0], [-85.36750985969614, 40.23866138522738, 0.0], [-85.367508928399, 40.23866399005028, 0.0], [-85.3675079960781, 40.23866658855256, 0.0], [-85.36750706377876, 40.23866918615423, 0.0], [-85.36750613147935, 40.2386717837559, 0.0], [-85.36750520035497, 40.23867438137416, 0.0], [-85.36750425747918, 40.238676978826604, 0.0], [-85.36750332537424, 40.23867956832304, 0.0], [-85.36750238230357, 40.23868217388067, 0.0], [-85.36750143120157, 40.238684771217, 0.0], [-85.3675004989017, 40.238687368818624, 0.0], [-85.36749955602552, 40.238689966271, 0.0], [-85.3674986049233, 40.238692563607316, 0.0], [-85.36749765164379, 40.23869515370585, 0.0], [-85.36749670994251, 40.23869775117479, 0.0], [-85.36749575764328, 40.23870034939507, 0.0], [-85.36749480556034, 40.23870293860956, 0.0], [-85.36749384268471, 40.23870553668061, 0.0], [-85.36749287179939, 40.2387081256298, 0.0], [-85.36749193009773, 40.2387107230987, 0.0], [-85.3674909568187, 40.238713313815865, 0.0], [-85.36749000473537, 40.238715903030325, 0.0], [-85.36748905263032, 40.23871849314533, 0.0], [-85.367488070952, 40.238721090951046, 0.0], [-85.36748710827057, 40.238723680916806, 0.0], [-85.36748613620956, 40.23872626984936, 0.0], [-85.3674851641052, 40.23872886058304, 0.0], [-85.36748419086891, 40.23873144949899, 0.0], [-85.36748321993954, 40.23873404024924, 0.0], [-85.36748223728034, 40.2387366299331, 0.0], [-85.36748126521897, 40.238739218865604, 0.0], [-85.36748028253798, 40.238741809450005, 0.0], [-85.36747930122678, 40.23874439194581, 0.0], [-85.3674783185889, 40.238746980729054, 0.0], [-85.36747733708282, 40.23874957133001, 0.0], [-85.3674763451951, 40.23875215367655, 0.0], [-85.367475362557, 40.23875474245977, 0.0], [-85.36747437049607, 40.238757332010884, 0.0], [-85.36747337743299, 40.23875991434081, 0.0], [-85.36747239592651, 40.23876250494173, 0.0], [-85.36747139346217, 40.23876508713897, 0.0], [-85.36747039217288, 40.238767669352825, 0.0], [-85.36746938953529, 40.23877025875467, 0.0], [-85.36746839647184, 40.23877284108455, 0.0], [-85.36746739520393, 40.23877542239775, 0.0], [-85.36746638331643, 40.23877800536289, 0.0], [-85.36746538085163, 40.238780587560086, 0.0], [-85.36746437960512, 40.2387831679727, 0.0], [-85.36746336654225, 40.23878575092123, 0.0], [-85.36746235350093, 40.23878833296917, 0.0], [-85.3674613428098, 40.23879091505023, 0.0], [-85.36746032976832, 40.23879349709816, 0.0], [-85.36745931907704, 40.238796079179224, 0.0], [-85.36745829565386, 40.2387986529727, 0.0], [-85.36745727321102, 40.238801234887944, 0.0], [-85.36745625074646, 40.238803817703754, 0.0], [-85.36745522965168, 40.23880639243093, 0.0], [-85.36745420723024, 40.23880897344555, 0.0], [-85.36745318496015, 40.23881154815613, 0.0], [-85.36745215309413, 40.238814130839245, 0.0], [-85.36745113084554, 40.23881670464922, 0.0], [-85.36745009799894, 40.23881927921054, 0.0], [-85.36744906617596, 40.23882186009246, 0.0], [-85.36744802508159, 40.238824435438254, 0.0], [-85.36744699225639, 40.23882700909896, 0.0], [-85.36744594998673, 40.23882958442815, 0.0], [-85.36744491716136, 40.23883215808885, 0.0], [-85.36744387610995, 40.238834731633446, 0.0], [-85.36744283384002, 40.238837306962616, 0.0], [-85.36744178101539, 40.238839881241944, 0.0], [-85.36744073878857, 40.23884245476995, 0.0], [-85.367439687312, 40.23884502186125, 0.0], [-85.36743863585697, 40.238847588051954, 0.0], [-85.36743759341356, 40.238850170585685, 0.0], [-85.36743653001224, 40.238852744715736, 0.0], [-85.36743547855697, 40.2388553109064, 0.0], [-85.36743442688527, 40.23885788610284, 0.0], [-85.36743336485357, 40.23886045214425, 0.0], [-85.36743231202819, 40.238863026423495, 0.0], [-85.36743124057355, 40.2388655932328, 0.0], [-85.36743017734481, 40.2388681601582, 0.0], [-85.36742911513969, 40.23887073340418, 0.0], [-85.36742804368481, 40.238873300213456, 0.0], [-85.36742698163097, 40.23887586715539, 0.0], [-85.36742591017591, 40.23887843396464, 0.0], [-85.36742483754563, 40.23888100075731, 0.0], [-85.36742375551414, 40.238883567417325, 0.0], [-85.36742268292696, 40.238886132408815, 0.0], [-85.36742161029642, 40.23888869920144, 0.0], [-85.36742051886354, 40.23889126572878, 0.0], [-85.36741944642756, 40.23889382441618, 0.0], [-85.36741836439565, 40.23889639107614, 0.0], [-85.36741729176477, 40.23889895786871, 0.0], [-85.3674161993295, 40.2389015171748, 0.0], [-85.36741510909296, 40.23890408281805, 0.0], [-85.36741402605865, 40.238906642256765, 0.0], [-85.36741293462516, 40.23890920878399, 0.0], [-85.36741183161327, 40.23891176794081, 0.0], [-85.36741074017962, 40.23891433446801, 0.0], [-85.36740964776547, 40.23891689287344, 0.0], [-85.36740855532959, 40.23891945217941, 0.0], [-85.36740745351413, 40.23892201045217, 0.0], [-85.36740635187167, 40.23892456152029, 0.0], [-85.36740524849144, 40.23892713598681, 0.0], [-85.367404146481, 40.23892970236472, 0.0], [-85.36740303445673, 40.23893224517838, 0.0], [-85.36740193259756, 40.23893480525222, 0.0], [-85.3674008202053, 40.23893736337567, 0.0], [-85.36739970898809, 40.23893992151567, 0.0], [-85.36739859655239, 40.23894248144024, 0.0], [-85.36739748433295, 40.23894503235904, 0.0], [-85.36739636251758, 40.23894759125033, 0.0], [-85.36739525012487, 40.23895014937373, 0.0], [-85.3673941273289, 40.23895270014325, 0.0], [-85.36739300549162, 40.238955259935096, 0.0], [-85.3673918828902, 40.238957802599394, 0.0], [-85.36739076107438, 40.23896036149064, 0.0], [-85.36738962866053, 40.23896292113323, 0.0], [-85.36738850706091, 40.2389654710187, 0.0], [-85.36738737484163, 40.238968022556044, 0.0], [-85.36738624264389, 40.238970573192816, 0.0], [-85.36738511042444, 40.23897312473016, 0.0], [-85.3673839782049, 40.23897567626748, 0.0], [-85.3673828460069, 40.23897822690422, 0.0], [-85.36738170440766, 40.23898077740828, 0.0], [-85.36738056161157, 40.238983328796344, 0.0], [-85.36737942018527, 40.23898587209576, 0.0], [-85.36737826800949, 40.23898842245056, 0.0], [-85.36737712638826, 40.23899097385515, 0.0], [-85.3673759837649, 40.23899351803853, 0.0], [-85.36737483139413, 40.23899607649846, 0.0], [-85.36737367956415, 40.238998612443986, 0.0], [-85.3673725273663, 40.239001163699285, 0.0], [-85.3673713753847, 40.23900370594881, 0.0], [-85.36737022220625, 40.23900624908231, 0.0], [-85.36736907118326, 40.23900880035414, 0.0], [-85.36736790860346, 40.23901134335496, 0.0], [-85.36736674717709, 40.23901388727293, 0.0], [-85.36736558459712, 40.23901643027372, 0.0], [-85.36736442201706, 40.239018973274504, 0.0], [-85.36736326999157, 40.23902151732507, 0.0], [-85.3673620780111, 40.23902406081187, 0.0], [-85.36736092602871, 40.23902660306127, 0.0], [-85.36735975400387, 40.23902914773048, 0.0], [-85.36735858221692, 40.23903168249334, 0.0], [-85.36735741021354, 40.23903422626196, 0.0], [-85.3673562276554, 40.23903676898073, 0.0], [-85.36735505584657, 40.23903930464415, 0.0], [-85.36735387326662, 40.23904184826349, 0.0], [-85.36735269088129, 40.2390443837776, 0.0], [-85.36735150967102, 40.23904691930833, 0.0], [-85.36735032711243, 40.239049462027026, 0.0], [-85.3673491341289, 40.23905199829246, 0.0], [-85.36734795291835, 40.23905453382313, 0.0], [-85.36734677170773, 40.23905706935376, 0.0], [-85.36734557874557, 40.23905960471857, 0.0], [-85.36734438695846, 40.23906214009996, 0.0], [-85.36734318339818, 40.23906467621607, 0.0], [-85.36734199278601, 40.23906721161401, 0.0], [-85.36734080099862, 40.239069746995334, 0.0], [-85.3673395974597, 40.23907228221083, 0.0], [-85.36733839644405, 40.23907481025487, 0.0], [-85.36733719288331, 40.2390773463709, 0.0], [-85.3673359916944, 40.23907988161954, 0.0], [-85.36733478010218, 40.239082409514275, 0.0], [-85.36733357773794, 40.239084944746274, 0.0], [-85.36733236614553, 40.239087472640996, 0.0], [-85.3673311533779, 40.23909000051912, 0.0], [-85.36732994159055, 40.23909253651901, 0.0], [-85.36732872884438, 40.239095063496514, 0.0], [-85.36732752782792, 40.23909759154043, 0.0], [-85.3673262950608, 40.23910012003716, 0.0], [-85.36732508348948, 40.239102647031224, 0.0], [-85.36732386014496, 40.23910517476001, 0.0], [-85.36732263912901, 40.239107703422526, 0.0], [-85.36732140638316, 40.23911023101864, 0.0], [-85.36732018421353, 40.23911275876397, 0.0], [-85.36731895281571, 40.239115279172026, 0.0], [-85.36731773066752, 40.239117806016736, 0.0], [-85.36731649792128, 40.23912033361278, 0.0], [-85.3673152665232, 40.23912285402079, 0.0], [-85.36731403375515, 40.23912538251736, 0.0], [-85.36731279180219, 40.23912790187551, 0.0], [-85.36731156040383, 40.239130422283466, 0.0], [-85.36731030767965, 40.23913294959754, 0.0], [-85.36730907628109, 40.239135470005465, 0.0], [-85.36730783313098, 40.239137990247535, 0.0], [-85.36730659215796, 40.239140517727364, 0.0], [-85.3673053397796, 40.23914303063214, 0.0], [-85.36730409662921, 40.239145550874184, 0.0], [-85.3673028452527, 40.239148071000116, 0.0], [-85.36730159270094, 40.239150591109464, 0.0], [-85.3673003401491, 40.239153111218805, 0.0], [-85.36729908896703, 40.2391556232395, 0.0], [-85.367297836415, 40.23915814334879, 0.0], [-85.36729657446169, 40.239160663325414, 0.0], [-85.36729532325771, 40.23916317624664, 0.0], [-85.36729405074954, 40.23916569517341, 0.0], [-85.36729278777226, 40.23916820882937, 0.0], [-85.36729152718844, 40.239170720717304, 0.0], [-85.36729026405952, 40.23917324067727, 0.0], [-85.36728900227874, 40.23917575344918, 0.0], [-85.36728772054201, 40.23917826503861, 0.0], [-85.36728645895577, 40.23918076970529, 0.0], [-85.36728518640365, 40.23918329043309, 0.0], [-85.36728390349148, 40.239185802005856, 0.0], [-85.36728263230904, 40.239188314645034, 0.0], [-85.36728135995136, 40.2391908272676, 0.0], [-85.3672800781924, 40.2391933397575, 0.0], [-85.36727879545295, 40.2391958441256, 0.0], [-85.36727751369381, 40.23919835661545, 0.0], [-85.36727622270648, 40.239200861768026, 0.0], [-85.36727493979363, 40.2392033733407, 0.0], [-85.36727365820731, 40.23920587862587, 0.0], [-85.36727236589309, 40.23920839006583, 0.0], [-85.36727107255507, 40.23921089518519, 0.0], [-85.3672697815889, 40.23921339943708, 0.0], [-85.36726848923112, 40.239215912678155, 0.0], [-85.36726718771008, 40.23921841588022, 0.0], [-85.36726589554682, 40.23922092101606, 0.0], [-85.36726460338348, 40.239223426151874, 0.0], [-85.36726329126417, 40.23922593010522, 0.0], [-85.36726198871904, 40.23922842698657, 0.0], [-85.36726068717587, 40.239230931089125, 0.0], [-85.36725937503462, 40.23923343594297, 0.0], [-85.36725807346961, 40.23923594094607, 0.0], [-85.36725676169601, 40.23923843049009, 0.0], [-85.36725544938135, 40.239240942548506, 0.0], [-85.36725413743447, 40.23924343929708, 0.0], [-85.36725282529272, 40.23924594415086, 0.0], [-85.36725152274681, 40.23924844103207, 0.0], [-85.36725020022328, 40.239250937631375, 0.0], [-85.36724887885316, 40.239253435147816, 0.0], [-85.36724755615633, 40.23925593895169, 0.0], [-85.36724623478602, 40.239258436468106, 0.0], [-85.36724489228459, 40.23926093278543, 0.0], [-85.36724356976056, 40.239263429384636, 0.0], [-85.36724224858469, 40.239265918795795, 0.0], [-85.36724092603882, 40.239268416295545, 0.0], [-85.36723959411331, 40.23927091276204, 0.0], [-85.3672382621877, 40.23927340922851, 0.0], [-85.36723691985877, 40.23927589834111, 0.0], [-85.36723558793297, 40.23927839480755, 0.0], [-85.36723425615853, 40.239280884969936, 0.0], [-85.3672329138293, 40.23928337408246, 0.0], [-85.36723157250199, 40.2392858704162, 0.0], [-85.36723023015091, 40.23928836042927, 0.0], [-85.36722887824706, 40.23929085661372, 0.0], [-85.36722753611217, 40.239293337621, 0.0], [-85.36722619476284, 40.23929583485523, 0.0], [-85.3667088597937, 40.24025092804449, 0.0], [-85.3664609560191, 40.240661876192696, 0.0], [-85.36676708621906, 40.23715261052781, 0.0], [-85.36789571972312, 40.23712762773057, 0.0]]]}}, {"type": "Feature", "properties": {"SPR_ID": 463.0, "Site_typ": "unit", "Unit_Site": "IndotFac - Westfield Unit", "layer": "GREENFIELD", "Volt_Class": "50", "Flood_Zone": "0", "SlopeMean": 1.49858752886, "Solar_Mean": 1610738.6369, "NTran_DIST": 715.941067016, "Shape_Area": 20526.3334064, "sol_s": 0.841151569219, "slp_s": 0.815079753024, "trn_s": 0.526492452867, "evp_s": 0.0, "dem_s": 0.8, "fld_s": 1.0, "lc_s": 1.0, "DevOpe_21": 0.0, "DevLowI_22": 0.037037037037, "DDevMed_23": 0.62962962963, "DDevHig_24": 0.333333333333, "DecFor_41": 0.0, "GrasHe_71": 0.0, "OpenW_11": 0.0, "EverFor_42": 0.0, "MixFor_43": 0.0, "SShrub_52": 0.0, "PasHay_81": 0.0, "CultCr_82": 0.0, "welan_90": 0.0, "EmerW_95": 0.0, "Barre_31": 0.0, "source_geometry_valid": true, "dataset": "facility_unit", "layer_title": "INDOT Unit", "layer_type": "facility", "center_longitude": -86.17069985037872, "center_latitude": 40.04122683813472, "source_latitude": 0.0, "source_longitude": 0.0, "land_cover_sum": 1.0}, "geometry": {"type": "Polygon", "coordinates": [[[-86.1705832050105, 40.04005987364388, 0.0], [-86.17118419777404, 40.04005870456844, 0.0], [-86.17119096485453, 40.04227681465502, 0.0], [-86.17021379607955, 40.04228560709308, 0.0], [-86.17021386112106, 40.042274247389344, 0.0], [-86.17021000388013, 40.040176868471825, 0.0], [-86.17020975449323, 40.040061199053085, 0.0], [-86.1705832050105, 40.04005987364388, 0.0]]]}}, {"type": "Feature", "properties": {"SPR_ID": 468.0, "Site_typ": "unit", "Unit_Site": "IndotFac - Portland Winter Unit", "layer": "GREENFIELD", "Volt_Class": "150", "Flood_Zone": "0", "SlopeMean": 4.71665008739, "Solar_Mean": 1586894.80469, "NTran_DIST": 9083.19416056, "Shape_Area": 27031.419102, "sol_s": 0.680989023987, "slp_s": 0.0593612068477, "trn_s": 0.0805783973301, "evp_s": 0.0, "dem_s": 0.8, "fld_s": 1.0, "lc_s": 0.933333333334, "DevOpe_21": 0.0555555555556, "DevLowI_22": 0.166666666667, "DDevMed_23": 0.333333333333, "DDevHig_24": 0.0555555555556, "DecFor_41": 0.0, "GrasHe_71": 0.0, "OpenW_11": 0.0, "EverFor_42": 0.0, "MixFor_43": 0.0, "SShrub_52": 0.0, "PasHay_81": 0.305555555556, "CultCr_82": 0.0833333333333, "welan_90": 0.0, "EmerW_95": 0.0, "Barre_31": 0.0, "source_geometry_valid": true, "dataset": "facility_unit", "layer_title": "INDOT Unit", "layer_type": "facility", "center_longitude": -85.0270685753735, "center_latitude": 40.4203296665423, "source_latitude": 0.0, "source_longitude": 0.0, "land_cover_sum": 1.0000000000005}, "geometry": {"type": "Polygon", "coordinates": [[[-85.02780905646406, 40.41944296734062, 0.0], [-85.02881720336983, 40.41943019652724, 0.0], [-85.02673165230055, 40.421459170550705, 0.0], [-85.02631067939409, 40.42126841499027, 0.0], [-85.02566593906103, 40.42097625778492, 0.0], [-85.0256503177191, 40.42096917886123, 0.0], [-85.0256981874103, 40.420912259819666, 0.0], [-85.02570388088355, 40.42090575400714, 0.0], [-85.02588996028506, 40.420696787487024, 0.0], [-85.02591880357458, 40.42066506022438, 0.0], [-85.02596146972624, 40.420619483700804, 0.0], [-85.02600590215808, 40.42057307703762, 0.0], [-85.02614245107816, 40.42043058931852, 0.0], [-85.02637492132254, 40.42020108715669, 0.0], [-85.02639216651885, 40.42018474964959, 0.0], [-85.02661613522505, 40.4199766370134, 0.0], [-85.02681958834047, 40.41979787489052, 0.0], [-85.02686470612458, 40.41975947533954, 0.0], [-85.02712307731386, 40.41954565132312, 0.0], [-85.02724793116879, 40.4194484868882, 0.0], [-85.02780905646406, 40.41944296734062, 0.0]]]}}, {"type": "Feature", "properties": {"SPR_ID": 471.0, "Site_typ": "unit", "Unit_Site": "IndotFac - Alexandria Unit", "layer": "GREENFIELD", "Volt_Class": "50", "Flood_Zone": "0", "SlopeMean": 2.70694905168, "Solar_Mean": 1611407.19286, "NTran_DIST": 2526.47149356, "Shape_Area": 29810.0866107, "sol_s": 0.845642358419, "slp_s": 0.531312362965, "trn_s": 0.239593040891, "evp_s": 0.0, "dem_s": 0.8, "fld_s": 1.0, "lc_s": 0.74054054054, "DevOpe_21": 0.0, "DevLowI_22": 0.0810810810811, "DDevMed_23": 0.189189189189, "DDevHig_24": 0.108108108108, "DecFor_41": 0.0, "GrasHe_71": 0.0, "OpenW_11": 0.0, "EverFor_42": 0.0, "MixFor_43": 0.0, "SShrub_52": 0.0, "PasHay_81": 0.297297297297, "CultCr_82": 0.324324324324, "welan_90": 0.0, "EmerW_95": 0.0, "Barre_31": 0.0, "source_geometry_valid": true, "dataset": "facility_unit", "layer_title": "INDOT Unit", "layer_type": "facility", "center_longitude": -85.66934222505074, "center_latitude": 40.278975102041926, "source_latitude": 0.0, "source_longitude": 0.0, "land_cover_sum": 0.9999999999990998}, "geometry": {"type": "Polygon", "coordinates": [[[-85.67051553287712, 40.27796216073715, 0.0], [-85.67064339898349, 40.277958068825704, 0.0], [-85.6696130325008, 40.27998940190888, 0.0], [-85.66807451728639, 40.27999090557531, 0.0], [-85.66807449570184, 40.27896680794449, 0.0], [-85.66904845047931, 40.2789654285987, 0.0], [-85.66904841716914, 40.27799213845382, 0.0], [-85.66947471265895, 40.277986265396024, 0.0], [-85.66958302210162, 40.277985260536106, 0.0], [-85.66976466845243, 40.277982252904955, 0.0], [-85.66998714782474, 40.27797925946868, 0.0], [-85.66999158542518, 40.27797915823278, 0.0], [-85.67051553287712, 40.27796216073715, 0.0]]]}}, {"type": "Feature", "properties": {"SPR_ID": 473.0, "Site_typ": "unit", "Unit_Site": "IndotFac - 65th St Unit", "layer": "GREENFIELD", "Volt_Class": "150", "Flood_Zone": "X", "SlopeMean": 3.97917420334, "Solar_Mean": 1585909.44444, "NTran_DIST": 1088.60742959, "Shape_Area": 23788.2436529, "sol_s": 0.674370213545, "slp_s": 0.232547461869, "trn_s": 0.422385674796, "evp_s": 0.0, "dem_s": 0.8, "fld_s": 0.8852, "lc_s": 1.0, "DevOpe_21": 0.09375, "DevLowI_22": 0.03125, "DDevMed_23": 0.3125, "DDevHig_24": 0.5625, "DecFor_41": 0.0, "GrasHe_71": 0.0, "OpenW_11": 0.0, "EverFor_42": 0.0, "MixFor_43": 0.0, "SShrub_52": 0.0, "PasHay_81": 0.0, "CultCr_82": 0.0, "welan_90": 0.0, "EmerW_95": 0.0, "Barre_31": 0.0, "source_geometry_valid": true, "dataset": "facility_unit", "layer_title": "INDOT Unit", "layer_type": "facility", "center_longitude": -86.07798484729638, "center_latitude": 39.87766509801455, "source_latitude": 0.0, "source_longitude": 0.0, "land_cover_sum": 1.0}, "geometry": {"type": "Polygon", "coordinates": [[[-86.07792833631746, 39.876100807804455, 0.0], [-86.07810644088731, 39.876099105374585, 0.0], [-86.07809269625389, 39.87963034552533, 0.0], [-86.07770854408712, 39.879635743297264, 0.0], [-86.07678210207607, 39.87964632592868, 0.0], [-86.07678930312319, 39.878019942057705, 0.0], [-86.07781469961394, 39.87800813157347, 0.0], [-86.07792400378014, 39.87732022792671, 0.0], [-86.07792522025842, 39.876980994894694, 0.0], [-86.07792827643316, 39.876114534638056, 0.0], [-86.07792833631746, 39.876100807804455, 0.0]]]}}, {"type": "Feature", "properties": {"SPR_ID": 475.0, "Site_typ": "unit", "Unit_Site": "IndotFac - Madison & Morris Unit", "layer": "GREENFIELD", "Volt_Class": "150", "Flood_Zone": "0", "SlopeMean": 4.94463970111, "Solar_Mean": 1562670.54808, "NTran_DIST": 530.837861826, "Shape_Area": 9131.87881055, "sol_s": 0.518271111831, "slp_s": 0.00582092405645, "trn_s": 0.599938861461, "evp_s": 0.0, "dem_s": 0.8, "fld_s": 1.0, "lc_s": 1.0, "DevOpe_21": 0.0, "DevLowI_22": 0.0, "DDevMed_23": 0.333333333333, "DDevHig_24": 0.666666666667, "DecFor_41": 0.0, "GrasHe_71": 0.0, "OpenW_11": 0.0, "EverFor_42": 0.0, "MixFor_43": 0.0, "SShrub_52": 0.0, "PasHay_81": 0.0, "CultCr_82": 0.0, "welan_90": 0.0, "EmerW_95": 0.0, "Barre_31": 0.0, "source_geometry_valid": true, "dataset": "facility_unit", "layer_title": "INDOT Unit", "layer_type": "facility", "center_longitude": -86.15562264693706, "center_latitude": 39.75256034141788, "source_latitude": 0.0, "source_longitude": 0.0, "land_cover_sum": 1.0}, "geometry": {"type": "Polygon", "coordinates": [[[-86.15567918552561, 39.75188412268651, 0.0], [-86.15593616498144, 39.75187789081983, 0.0], [-86.15591373117404, 39.75325757979226, 0.0], [-86.15551849883519, 39.75324774106395, 0.0], [-86.15500532053089, 39.753240473406976, 0.0], [-86.15498259962277, 39.75318998981049, 0.0], [-86.15490818495924, 39.75303319829181, 0.0], [-86.15483319206591, 39.75285459649249, 0.0], [-86.15480403474018, 39.75278541167235, 0.0], [-86.15488282435042, 39.7527237244203, 0.0], [-86.15495127845837, 39.75267475697828, 0.0], [-86.15507716137654, 39.752638824271, 0.0], [-86.15519166960433, 39.75261621462785, 0.0], [-86.1552888222812, 39.75257155000906, 0.0], [-86.1553517000928, 39.75254473249466, 0.0], [-86.15539731585247, 39.752509136125624, 0.0], [-86.15544293154316, 39.752473541539786, 0.0], [-86.15547689220021, 39.752411441186766, 0.0], [-86.15551063692975, 39.752318363744294, 0.0], [-86.15553120330758, 39.75217239626715, 0.0], [-86.1555324736714, 39.752163381085055, 0.0], [-86.15552584955384, 39.75202409041493, 0.0], [-86.15552573986986, 39.75202179296567, 0.0], [-86.15553683023295, 39.751968639817974, 0.0], [-86.15558811593196, 39.75192417011708, 0.0], [-86.15567918552561, 39.75188412268651, 0.0]]]}}, {"type": "Feature", "properties": {"SPR_ID": 476.0, "Site_typ": "unit", "Unit_Site": "IndotFac - Indianapolis Materials & Test", "layer": "GREENFIELD", "Volt_Class": "150", "Flood_Zone": "0", "SlopeMean": 3.58190061152, "Solar_Mean": 1590451.87917, "NTran_DIST": 0.0, "Shape_Area": 56742.3515932, "sol_s": 0.704882419029, "slp_s": 0.325841801486, "trn_s": 1.0, "evp_s": 0.0, "dem_s": 0.8, "fld_s": 1.0, "lc_s": 1.0, "DevOpe_21": 0.292307692308, "DevLowI_22": 0.215384615385, "DDevMed_23": 0.276923076923, "DDevHig_24": 0.215384615385, "DecFor_41": 0.0, "GrasHe_71": 0.0, "OpenW_11": 0.0, "EverFor_42": 0.0, "MixFor_43": 0.0, "SShrub_52": 0.0, "PasHay_81": 0.0, "CultCr_82": 0.0, "welan_90": 0.0, "EmerW_95": 0.0, "Barre_31": 0.0, "source_geometry_valid": true, "dataset": "facility_unit", "layer_title": "INDOT Unit", "layer_type": "facility", "center_longitude": -86.04289029383223, "center_latitude": 39.770775863467854, "source_latitude": 0.0, "source_longitude": 0.0, "land_cover_sum": 1.000000000001}, "geometry": {"type": "Polygon", "coordinates": [[[-86.04180987887942, 39.77008890281154, 0.0], [-86.04180820365555, 39.76981292474173, 0.0], [-86.04053960172982, 39.76988172485901, 0.0], [-86.0405383647166, 39.769633417193965, 0.0], [-86.04473731825223, 39.76948408857029, 0.0], [-86.04495639493427, 39.76947198206977, 0.0], [-86.04495420122393, 39.76998110264082, 0.0], [-86.04494569939185, 39.77003945126887, 0.0], [-86.044928929615, 39.770096724544864, 0.0], [-86.0449040953187, 39.770152225869694, 0.0], [-86.04487149886513, 39.77020528108074, 0.0], [-86.04483153559268, 39.770255247413246, 0.0], [-86.04478469143199, 39.77030151708489, 0.0], [-86.04473153340504, 39.770343528930994, 0.0], [-86.04467270840838, 39.770380771998994, 0.0], [-86.04410347520957, 39.77070236775329, 0.0], [-86.04401048322968, 39.770755591077624, 0.0], [-86.04392273940924, 39.77081387879552, 0.0], [-86.04384070451768, 39.770876923872386, 0.0], [-86.04376481165995, 39.7709443938184, 0.0], [-86.04369545922194, 39.77101593423404, 0.0], [-86.04363301438522, 39.77109116793777, 0.0], [-86.0435778049047, 39.771169698501865, 0.0], [-86.04353012258579, 39.771251112082794, 0.0], [-86.04349021740917, 39.7713349800756, 0.0], [-86.04331354377625, 39.77175253411968, 0.0], [-86.0429843456708, 39.77194645888037, 0.0], [-86.0418219467368, 39.77208259950071, 0.0], [-86.04182175860561, 39.77205465275912, 0.0], [-86.04180987887942, 39.77008890281154, 0.0]]]}}, {"type": "Feature", "properties": {"SPR_ID": 482.0, "Site_typ": "unit", "Unit_Site": "IndotFac - Shelbyville Unit", "layer": "GREENFIELD", "Volt_Class": "150", "Flood_Zone": "0", "SlopeMean": 1.62031125963, "Solar_Mean": 1582965.59, "NTran_DIST": 119.355021778, "Shape_Area": 24519.6656906, "sol_s": 0.65459590815, "slp_s": 0.786494578193, "trn_s": 0.869615634909, "evp_s": 0.0, "dem_s": 0.8, "fld_s": 1.0, "lc_s": 1.0, "DevOpe_21": 0.0666666666667, "DevLowI_22": 0.266666666667, "DDevMed_23": 0.4, "DDevHig_24": 0.233333333333, "DecFor_41": 0.0, "GrasHe_71": 0.0, "OpenW_11": 0.0, "EverFor_42": 0.0, "MixFor_43": 0.0, "SShrub_52": 0.0, "PasHay_81": 0.0333333333333, "CultCr_82": 0.0, "welan_90": 0.0, "EmerW_95": 0.0, "Barre_31": 0.0, "source_geometry_valid": true, "dataset": "facility_unit", "layer_title": "INDOT Unit", "layer_type": "facility", "center_longitude": -85.7717876036607, "center_latitude": 39.547965787391334, "source_latitude": 0.0, "source_longitude": 0.0, "land_cover_sum": 1.0}, "geometry": {"type": "Polygon", "coordinates": [[[-85.77087769425407, 39.5474671716771, 0.0], [-85.77269460372342, 39.547480355730485, 0.0], [-85.77269390283051, 39.54752944803168, 0.0], [-85.77267895382283, 39.548421118160356, 0.0], [-85.77269030621838, 39.549247843542894, 0.0], [-85.77258285015024, 39.54921848630786, 0.0], [-85.7723521195806, 39.54913974976413, 0.0], [-85.7720330773341, 39.54902522585326, 0.0], [-85.7719716608979, 39.54900314183528, 0.0], [-85.7712167838067, 39.5486620345798, 0.0], [-85.77108566445158, 39.548597484557156, 0.0], [-85.77090124886769, 39.548506481083685, 0.0], [-85.77087769425407, 39.5474671716771, 0.0]]]}}, {"type": "Feature", "properties": {"SPR_ID": 487.0, "Site_typ": "unit", "Unit_Site": "IndotFac - Cambridge City Unit", "layer": "GREENFIELD", "Volt_Class": "50", "Flood_Zone": "0", "SlopeMean": 4.47245660071, "Solar_Mean": 1598029.16102, "NTran_DIST": 1160.8669435, "Shape_Area": 45884.5726762, "sol_s": 0.755780141188, "slp_s": 0.116706750442, "trn_s": 0.406789038702, "evp_s": 0.0, "dem_s": 0.8, "fld_s": 1.0, "lc_s": 1.0, "DevOpe_21": 0.0555555555556, "DevLowI_22": 0.277777777778, "DDevMed_23": 0.5, "DDevHig_24": 0.0555555555556, "DecFor_41": 0.0, "GrasHe_71": 0.111111111111, "OpenW_11": 0.0, "EverFor_42": 0.0, "MixFor_43": 0.0, "SShrub_52": 0.0, "PasHay_81": 0.0, "CultCr_82": 0.0, "welan_90": 0.0, "EmerW_95": 0.0, "Barre_31": 0.0, "source_geometry_valid": true, "dataset": "facility_unit", "layer_title": "INDOT Unit", "layer_type": "facility", "center_longitude": -85.1432271410458, "center_latitude": 39.851625782387146, "source_latitude": 0.0, "source_longitude": 0.0, "land_cover_sum": 1.0000000000001998}, "geometry": {"type": "Polygon", "coordinates": [[[-85.14099750278373, 39.852310638599754, 0.0], [-85.14168259446431, 39.85190553478105, 0.0], [-85.14168244280125, 39.85191809024216, 0.0], [-85.14182064184259, 39.851830728324046, 0.0], [-85.14244433584587, 39.851436288550246, 0.0], [-85.14320497665464, 39.85095523017004, 0.0], [-85.14378603560242, 39.850587737812724, 0.0], [-85.14391099191994, 39.850508707484416, 0.0], [-85.14396692023738, 39.85047787139045, 0.0], [-85.14402285758909, 39.85045333643473, 0.0], [-85.14408286105736, 39.85043289092662, 0.0], [-85.1441534767808, 39.85041560356414, 0.0], [-85.14422174776422, 39.85040517156066, 0.0], [-85.14427619888431, 39.85040130948966, 0.0], [-85.14427695096981, 39.850409752316516, 0.0], [-85.14430102371828, 39.85053107677984, 0.0], [-85.14431045650078, 39.85061855641774, 0.0], [-85.14429522820883, 39.850812716441546, 0.0], [-85.144294930879, 39.850818634319026, 0.0], [-85.14428391057237, 39.85143778235362, 0.0], [-85.14428191693116, 39.85181962344472, 0.0], [-85.14427681499798, 39.85190635695534, 0.0], [-85.14427408344064, 39.85195278258971, 0.0], [-85.14427392264462, 39.8519570161326, 0.0], [-85.14426538014315, 39.852764377506084, 0.0], [-85.14348103988348, 39.852749669297374, 0.0], [-85.1412350010195, 39.85266581878668, 0.0], [-85.14117805848299, 39.85266369252131, 0.0], [-85.14116529884741, 39.85266321591673, 0.0], [-85.14024489940871, 39.85262884231559, 0.0], [-85.13928141954625, 39.85259285213267, 0.0], [-85.1388226337527, 39.85257573641772, 0.0], [-85.14016133176858, 39.852541514925974, 0.0], [-85.14061134589228, 39.852463807276116, 0.0], [-85.14099750278373, 39.852310638599754, 0.0]]]}}, {"type": "Feature", "properties": {"SPR_ID": 491.0, "Site_typ": "unit", "Unit_Site": "IndotFac - New Haven Unit", "layer": "FORT WAYNE", "Volt_Class": "50", "Flood_Zone": "AE", "SlopeMean": 2.3258717772, "Solar_Mean": 1602044.22917, "NTran_DIST": 196.516977089, "Shape_Area": 17038.9642884, "sol_s": 0.782749947405, "slp_s": 0.620803216114, "trn_s": 0.802012163205, "evp_s": 0.0, "dem_s": 0.8, "fld_s": 0.9143, "lc_s": 0.68, "DevOpe_21": 0.0, "DevLowI_22": 0.05, "DDevMed_23": 0.05, "DDevHig_24": 0.5, "DecFor_41": 0.0, "GrasHe_71": 0.0, "OpenW_11": 0.0, "EverFor_42": 0.0, "MixFor_43": 0.0, "SShrub_52": 0.0, "PasHay_81": 0.0, "CultCr_82": 0.4, "welan_90": 0.0, "EmerW_95": 0.0, "Barre_31": 0.0, "source_geometry_valid": true, "dataset": "facility_unit", "layer_title": "INDOT Unit", "layer_type": "facility", "center_longitude": -84.99403396479532, "center_latitude": 41.068473335630614, "source_latitude": 0.0, "source_longitude": 0.0, "land_cover_sum": 1.0}, "geometry": {"type": "Polygon", "coordinates": [[[-84.99472657665886, 41.06797510778865, 0.0], [-84.99499085050765, 41.06790850030032, 0.0], [-84.9950322589249, 41.068711446877565, 0.0], [-84.9950462622932, 41.06898298348008, 0.0], [-84.99409425509917, 41.06901015985671, 0.0], [-84.99306929939921, 41.06903942436271, 0.0], [-84.99303864531277, 41.06823526758222, 0.0], [-84.99305495610004, 41.068230234715784, 0.0], [-84.99326855153214, 41.06821345068959, 0.0], [-84.99342224718923, 41.06818852144138, 0.0], [-84.99368694399672, 41.068146509935666, 0.0], [-84.99400081635552, 41.06809026596321, 0.0], [-84.99450895145756, 41.06799963826, 0.0], [-84.99472657665886, 41.06797510778865, 0.0]]]}}, {"type": "Feature", "properties": {"SPR_ID": 493.0, "Site_typ": "unit", "Unit_Site": "IndotFac - New Paris Unit", "layer": "FORT WAYNE", "Volt_Class": "150", "Flood_Zone": "A", "SlopeMean": 2.22030380894, "Solar_Mean": 1602020.56985, "NTran_DIST": 248.615222948, "Shape_Area": 28500.9854407, "sol_s": 0.782591024256, "slp_s": 0.645594428232, "trn_s": 0.762015361676, "evp_s": 0.0, "dem_s": 0.8, "fld_s": 0.9913, "lc_s": 0.946666666666, "DevOpe_21": 0.0, "DevLowI_22": 0.133333333333, "DDevMed_23": 0.0, "DDevHig_24": 0.0666666666667, "DecFor_41": 0.0, "GrasHe_71": 0.0, "OpenW_11": 0.0, "EverFor_42": 0.0, "MixFor_43": 0.0, "SShrub_52": 0.0, "PasHay_81": 0.733333333333, "CultCr_82": 0.0666666666667, "welan_90": 0.0, "EmerW_95": 0.0, "Barre_31": 0.0, "source_geometry_valid": true, "dataset": "facility_unit", "layer_title": "INDOT Unit", "layer_type": "facility", "center_longitude": -85.87109246229551, "center_latitude": 41.45082697017439, "source_latitude": 0.0, "source_longitude": 0.0, "land_cover_sum": 0.9999999999993999}, "geometry": {"type": "Polygon", "coordinates": [[[-85.87117929139927, 41.45005704406189, 0.0], [-85.87194459494052, 41.45005513653392, 0.0], [-85.87171938942348, 41.45013774510649, 0.0], [-85.87085809378603, 41.450155063456904, 0.0], [-85.871105521924, 41.45037197416902, 0.0], [-85.87149795582867, 41.45060350367661, 0.0], [-85.87173342602935, 41.45070748183025, 0.0], [-85.87248854269214, 41.45096644054672, 0.0], [-85.87251380849835, 41.45171691260059, 0.0], [-85.8700965357774, 41.451711653478164, 0.0], [-85.87005875943974, 41.45021578498465, 0.0], [-85.87044967538723, 41.45014925838754, 0.0], [-85.87063070289788, 41.450119642733995, 0.0], [-85.87062773051899, 41.450089603885935, 0.0], [-85.87079165265783, 41.450078469671325, 0.0], [-85.87117929139927, 41.45005704406189, 0.0]]]}}, {"type": "Feature", "properties": {"SPR_ID": 498.0, "Site_typ": "unit", "Unit_Site": "IndotFac - Warsaw Unit", "layer": "FORT WAYNE", "Volt_Class": "150", "Flood_Zone": "0", "SlopeMean": 4.93779885612, "Solar_Mean": 1605891.94737, "NTran_DIST": 312.176522292, "Shape_Area": 35283.1359228, "sol_s": 0.808595639273, "slp_s": 0.00742740414701, "trn_s": 0.71831083783, "evp_s": 0.0, "dem_s": 0.8, "fld_s": 1.0, "lc_s": 0.824390243902, "DevOpe_21": 0.0, "DevLowI_22": 0.0487804878049, "DDevMed_23": 0.0975609756098, "DDevHig_24": 0.414634146341, "DecFor_41": 0.0, "GrasHe_71": 0.0, "OpenW_11": 0.0, "EverFor_42": 0.0, "MixFor_43": 0.0, "SShrub_52": 0.0, "PasHay_81": 0.219512195122, "CultCr_82": 0.219512195122, "welan_90": 0.0, "EmerW_95": 0.0, "Barre_31": 0.0, "source_geometry_valid": true, "dataset": "facility_unit", "layer_title": "INDOT Unit", "layer_type": "facility", "center_longitude": -85.89409627974074, "center_latitude": 41.270849679673624, "source_latitude": 0.0, "source_longitude": 0.0, "land_cover_sum": 0.9999999999997}, "geometry": {"type": "Polygon", "coordinates": [[[-85.8922794926911, 41.270119966128156, 0.0], [-85.89522239740512, 41.27008693480973, 0.0], [-85.89587667677851, 41.27056321753442, 0.0], [-85.89589018692061, 41.271170451717914, 0.0], [-85.89585874670888, 41.271170924816055, 0.0], [-85.8951152768789, 41.271181977744625, 0.0], [-85.89232613350669, 41.27124131522729, 0.0], [-85.8922794926911, 41.270119966128156, 0.0]]]}}, {"type": "Feature", "properties": {"SPR_ID": 499.0, "Site_typ": "unit", "Unit_Site": "IndotFac - Shipshewana Unit", "layer": "FORT WAYNE", "Volt_Class": "150", "Flood_Zone": "0", "SlopeMean": 2.44566850937, "Solar_Mean": 1604057.88462, "NTran_DIST": 9084.23100298, "Shape_Area": 14141.2893924, "sol_s": 0.796275968694, "slp_s": 0.592670570889, "trn_s": 0.0805699413898, "evp_s": 0.0, "dem_s": 0.8, "fld_s": 1.0, "lc_s": 0.84, "DevOpe_21": 0.0, "DevLowI_22": 0.15, "DDevMed_23": 0.15, "DDevHig_24": 0.0, "DecFor_41": 0.0, "GrasHe_71": 0.0, "OpenW_11": 0.0, "EverFor_42": 0.0, "MixFor_43": 0.0, "SShrub_52": 0.0, "PasHay_81": 0.5, "CultCr_82": 0.2, "welan_90": 0.0, "EmerW_95": 0.0, "Barre_31": 0.0, "source_geometry_valid": true, "dataset": "facility_unit", "layer_title": "INDOT Unit", "layer_type": "facility", "center_longitude": -85.5549727649072, "center_latitude": 41.65956871398085, "source_latitude": 0.0, "source_longitude": 0.0, "land_cover_sum": 1.0}, "geometry": {"type": "Polygon", "coordinates": [[[-85.5560255016181, 41.659229737736204, 0.0], [-85.55609838966322, 41.65922928542516, 0.0], [-85.5561057160669, 41.65989415798001, 0.0], [-85.55610584939585, 41.659906360354036, 0.0], [-85.55603289094523, 41.659906811782555, 0.0], [-85.5538472626908, 41.65992033368635, 0.0], [-85.55384712858776, 41.65990813130141, 0.0], [-85.55383982542982, 41.65924325897463, 0.0], [-85.5560255016181, 41.659229737736204, 0.0]]]}}, {"type": "Feature", "properties": {"SPR_ID": 508.0, "Site_typ": "unit", "Unit_Site": "IndotFac - Rochester Unit", "layer": "LA PORTE", "Volt_Class": "735", "Flood_Zone": "0", "SlopeMean": 0.954837728664, "Solar_Mean": 1594581.4125, "NTran_DIST": 6660.92807463, "Shape_Area": 22037.6323483, "sol_s": 0.732621104779, "slp_s": 0.942772052665, "trn_s": 0.106752835947, "evp_s": 0.0, "dem_s": 0.8, "fld_s": 1.0, "lc_s": 0.533333333334, "DevOpe_21": 0.0, "DevLowI_22": 0.0, "DDevMed_23": 0.0, "DDevHig_24": 0.416666666667, "DecFor_41": 0.0, "GrasHe_71": 0.0, "OpenW_11": 0.0, "EverFor_42": 0.0, "MixFor_43": 0.0, "SShrub_52": 0.0, "PasHay_81": 0.0, "CultCr_82": 0.583333333333, "welan_90": 0.0, "EmerW_95": 0.0, "Barre_31": 0.0, "source_geometry_valid": true, "dataset": "facility_unit", "layer_title": "INDOT Unit", "layer_type": "facility", "center_longitude": -86.24124924672998, "center_latitude": 41.06438177981108, "source_latitude": 0.0, "source_longitude": 0.0, "land_cover_sum": 1.0}, "geometry": {"type": "Polygon", "coordinates": [[[-86.24045473815771, 41.06511121334648, 0.0], [-86.24044073791138, 41.063635213311116, 0.0], [-86.24204572801683, 41.063652353644294, 0.0], [-86.24205573765306, 41.06512421334214, 0.0], [-86.24045473815771, 41.06511121334648, 0.0]]]}}, {"type": "Feature", "properties": {"SPR_ID": 576.0, "Site_typ": "unit", "Unit_Site": "IndotFac - Loogootee Unit", "layer": "VINCENNES", "Volt_Class": "150", "Flood_Zone": "0", "SlopeMean": 2.55316493572, "Solar_Mean": 1570279.09534, "NTran_DIST": 2181.3674448, "Shape_Area": 49019.8387963, "sol_s": 0.569378848371, "slp_s": 0.567426486424, "trn_s": 0.267363556585, "evp_s": 0.0, "dem_s": 0.8, "fld_s": 1.0, "lc_s": 0.322033898305, "DevOpe_21": 0.0677966101695, "DevLowI_22": 0.0677966101695, "DDevMed_23": 0.0169491525424, "DDevHig_24": 0.0, "DecFor_41": 0.0, "GrasHe_71": 0.0, "OpenW_11": 0.0, "EverFor_42": 0.0, "MixFor_43": 0.0, "SShrub_52": 0.0, "PasHay_81": 0.0, "CultCr_82": 0.847457627119, "welan_90": 0.0, "EmerW_95": 0.0, "Barre_31": 0.0, "source_geometry_valid": true, "dataset": "facility_unit", "layer_title": "INDOT Unit", "layer_type": "facility", "center_longitude": -86.93196613347978, "center_latitude": 38.66319118823695, "source_latitude": 0.0, "source_longitude": 0.0, "land_cover_sum": 1.0000000000004}, "geometry": {"type": "Polygon", "coordinates": [[[-86.93109466594939, 38.662891396391785, 0.0], [-86.93110379847964, 38.66200557742305, 0.0], [-86.93303372675632, 38.662054281830166, 0.0], [-86.93308052966559, 38.66360484629192, 0.0], [-86.93307873951849, 38.66380668696071, 0.0], [-86.93240274050272, 38.6638206866202, 0.0], [-86.93240184639188, 38.66436827289137, 0.0], [-86.93225667565825, 38.66437268673355, 0.0], [-86.93069515511384, 38.66438567999203, 0.0], [-86.92998647818408, 38.66439782952414, 0.0], [-86.93063374086759, 38.6634896874165, 0.0], [-86.93109466594939, 38.662891396391785, 0.0]]]}}, {"type": "Feature", "properties": {"SPR_ID": 577.0, "Site_typ": "unit", "Unit_Site": "IndotFac - Crane Unit", "layer": "VINCENNES", "Volt_Class": "50", "Flood_Zone": "0", "SlopeMean": 4.73229572076, "Solar_Mean": 1533238.54025, "NTran_DIST": 347.851943523, "Shape_Area": 51230.7460145, "sol_s": 0.320571964991, "slp_s": 0.0556870410758, "trn_s": 0.695908609519, "evp_s": 0.0, "dem_s": 0.8, "fld_s": 1.0, "lc_s": 0.26779661017, "DevOpe_21": 0.0847457627119, "DevLowI_22": 0.0, "DDevMed_23": 0.0, "DDevHig_24": 0.0, "DecFor_41": 0.186440677966, "GrasHe_71": 0.0, "OpenW_11": 0.0, "EverFor_42": 0.0, "MixFor_43": 0.0, "SShrub_52": 0.0, "PasHay_81": 0.0, "CultCr_82": 0.728813559322, "welan_90": 0.0, "EmerW_95": 0.0, "Barre_31": 0.0, "source_geometry_valid": true, "dataset": "facility_unit", "layer_title": "INDOT Unit", "layer_type": "facility", "center_longitude": -86.91305622713453, "center_latitude": 38.90156827889395, "source_latitude": 0.0, "source_longitude": 0.0, "land_cover_sum": 0.9999999999999}, "geometry": {"type": "Polygon", "coordinates": [[[-86.91251591735248, 38.90063777503093, 0.0], [-86.91402789746604, 38.90063146810491, 0.0], [-86.91352072622813, 38.90290864116241, 0.0], [-86.9138267262194, 38.90291764100439, 0.0], [-86.91382472599732, 38.90398464131881, 0.0], [-86.91347272616419, 38.90399264093547, 0.0], [-86.91338672657035, 38.903994640806005, 0.0], [-86.91217887265304, 38.90406305684641, 0.0], [-86.91207072673888, 38.90249764103495, 0.0], [-86.91251591735248, 38.90063777503093, 0.0]]]}}, {"type": "Feature", "properties": {"SPR_ID": 579.0, "Site_typ": "unit", "Unit_Site": "IndotFac - Jasper Unit", "layer": "VINCENNES", "Volt_Class": "50", "Flood_Zone": "A", "SlopeMean": 4.52141284943, "Solar_Mean": 1572927.39583, "NTran_DIST": 2680.93652182, "Shape_Area": 21670.9942471, "sol_s": 0.587167874199, "slp_s": 0.105210036368, "trn_s": 0.228949138991, "evp_s": 0.0, "dem_s": 0.8, "fld_s": 0.8487, "lc_s": 1.0, "DevOpe_21": 0.0, "DevLowI_22": 0.214285714286, "DDevMed_23": 0.714285714286, "DDevHig_24": 0.0714285714286, "DecFor_41": 0.0, "GrasHe_71": 0.0, "OpenW_11": 0.0, "EverFor_42": 0.0, "MixFor_43": 0.0, "SShrub_52": 0.0, "PasHay_81": 0.0, "CultCr_82": 0.0, "welan_90": 0.0, "EmerW_95": 0.0, "Barre_31": 0.0, "source_geometry_valid": true, "dataset": "facility_unit", "layer_title": "INDOT Unit", "layer_type": "facility", "center_longitude": -86.89837654147874, "center_latitude": 38.365818407467216, "source_latitude": 0.0, "source_longitude": 0.0, "land_cover_sum": 1.0000000000006}, "geometry": {"type": "Polygon", "coordinates": [[[-86.8975645601796, 38.365980486610404, 0.0], [-86.89719959039273, 38.36575213080551, 0.0], [-86.89650883879497, 38.36530616602643, 0.0], [-86.89633303913263, 38.36517348704595, 0.0], [-86.89639801295772, 38.36517005850411, 0.0], [-86.89944905969932, 38.36517261289027, 0.0], [-86.89944905990421, 38.365898082376, 0.0], [-86.89876633967992, 38.365883995320225, 0.0], [-86.89830523465972, 38.366450398155614, 0.0], [-86.89790238525563, 38.36619200873476, 0.0], [-86.8975645601796, 38.365980486610404, 0.0]]]}}, {"type": "Feature", "properties": {"SPR_ID": 589.0, "Site_typ": "unit", "Unit_Site": "IndotFac - Poseyville Unit", "layer": "VINCENNES", "Volt_Class": "345", "Flood_Zone": "0", "SlopeMean": 2.50562044357, "Solar_Mean": 1540642.78125, "NTran_DIST": 1033.54986537, "Shape_Area": 22557.1223868, "sol_s": 0.370307346184, "slp_s": 0.578591668528, "trn_s": 0.435096364297, "evp_s": 0.0, "dem_s": 0.8, "fld_s": 1.0, "lc_s": 0.600000000001, "DevOpe_21": 0.0357142857143, "DevLowI_22": 0.0357142857143, "DDevMed_23": 0.214285714286, "DDevHig_24": 0.214285714286, "DecFor_41": 0.0, "GrasHe_71": 0.0, "OpenW_11": 0.0, "EverFor_42": 0.0, "MixFor_43": 0.0, "SShrub_52": 0.0, "PasHay_81": 0.0, "CultCr_82": 0.5, "welan_90": 0.0, "EmerW_95": 0.0, "Barre_31": 0.0, "source_geometry_valid": true, "dataset": "facility_unit", "layer_title": "INDOT Unit", "layer_type": "facility", "center_longitude": -87.77294539535771, "center_latitude": 38.16964910998849, "source_latitude": 0.0, "source_longitude": 0.0, "land_cover_sum": 1.0000000000006}, "geometry": {"type": "Polygon", "coordinates": [[[-87.77170393830966, 38.17010903394538, 0.0], [-87.7716942955144, 38.169164729253204, 0.0], [-87.77212488782332, 38.169169018687214, 0.0], [-87.77292669977804, 38.16918074683422, 0.0], [-87.77418670433428, 38.169189173909906, 0.0], [-87.77419643198357, 38.1701122344744, 0.0], [-87.7739890116684, 38.1701110494468, 0.0], [-87.77292097594822, 38.17010910854968, 0.0], [-87.77170393830966, 38.17010903394538, 0.0]]]}}, {"type": "Feature", "properties": {"SPR_ID": 592.0, "Site_typ": "unit", "Unit_Site": "IndotFac - Evansville/Addison Unit", "layer": "VINCENNES", "Volt_Class": "50", "Flood_Zone": "0", "SlopeMean": 1.34387008, "Solar_Mean": 1515703.52885, "NTran_DIST": 17.7553293136, "Shape_Area": 11708.4736707, "sol_s": 0.202786701625, "slp_s": 0.851413057114, "trn_s": 0.978182445122, "evp_s": 0.0, "dem_s": 0.8, "fld_s": 1.0, "lc_s": 1.0, "DevOpe_21": 0.0, "DevLowI_22": 0.0, "DDevMed_23": 0.6, "DDevHig_24": 0.4, "DecFor_41": 0.0, "GrasHe_71": 0.0, "OpenW_11": 0.0, "EverFor_42": 0.0, "MixFor_43": 0.0, "SShrub_52": 0.0, "PasHay_81": 0.0, "CultCr_82": 0.0, "welan_90": 0.0, "EmerW_95": 0.0, "Barre_31": 0.0, "source_geometry_valid": true, "dataset": "facility_unit", "layer_title": "INDOT Unit", "layer_type": "facility", "center_longitude": -87.61462901872977, "center_latitude": 37.97330130500469, "source_latitude": 0.0, "source_longitude": 0.0, "land_cover_sum": 1.0}, "geometry": {"type": "Polygon", "coordinates": [[[-87.61425772745697, 37.97414707767329, 0.0], [-87.61428786748253, 37.97291324904402, 0.0], [-87.6156715278657, 37.973685691130214, 0.0], [-87.61565764895829, 37.974165808698544, 0.0], [-87.61425772745697, 37.97414707767329, 0.0]]]}}, {"type": "Feature", "properties": {"SPR_ID": 598.0, "Site_typ": "unit", "Unit_Site": "IndotFac - Fowler Unit", "layer": "CRAWFORDSVILLE", "Volt_Class": "345", "Flood_Zone": "0", "SlopeMean": 3.85821739435, "Solar_Mean": 1609442.285, "NTran_DIST": 3798.75418772, "Shape_Area": 21049.7539375, "sol_s": 0.832443781897, "slp_s": 0.260952535473, "trn_s": 0.173250754489, "evp_s": 0.0, "dem_s": 0.8, "fld_s": 1.0, "lc_s": 1.0, "DevOpe_21": 0.0, "DevLowI_22": 0.0833333333333, "DDevMed_23": 0.166666666667, "DDevHig_24": 0.75, "DecFor_41": 0.0, "GrasHe_71": 0.0, "OpenW_11": 0.0, "EverFor_42": 0.0, "MixFor_43": 0.0, "SShrub_52": 0.0, "PasHay_81": 0.0, "CultCr_82": 0.0, "welan_90": 0.0, "EmerW_95": 0.0, "Barre_31": 0.0, "source_geometry_valid": true, "dataset": "facility_unit", "layer_title": "INDOT Unit", "layer_type": "facility", "center_longitude": -87.31681977314804, "center_latitude": 40.61311958695125, "source_latitude": 0.0, "source_longitude": 0.0, "land_cover_sum": 1.0000000000003}, "geometry": {"type": "Polygon", "coordinates": [[[-87.31691949458909, 40.61381192251109, 0.0], [-87.31691735336932, 40.61335873954032, 0.0], [-87.31630023733437, 40.61336043120261, 0.0], [-87.31629797936961, 40.61288159587334, 0.0], [-87.31495155392587, 40.61288527616679, 0.0], [-87.31494745766663, 40.612013111444234, 0.0], [-87.31577336803046, 40.61201085546917, 0.0], [-87.31683826083234, 40.61275750492814, 0.0], [-87.31775644135699, 40.61341691754812, 0.0], [-87.31787447118298, 40.61350193875415, 0.0], [-87.31801180954375, 40.61360018117631, 0.0], [-87.31830347511449, 40.61380811666611, 0.0], [-87.31691949458909, 40.61381192251109, 0.0]]]}}]}