{"type": "FeatureCollection", "features": [{"type": "Feature", "properties": {"SPR_ID": 404.0, "Site_typ": "Complex", "Unit_Site": "IndotFac - Crawfordsville District Complex", "layer": "CRAWFORDSVILLE", "Volt_Class": "150", "Flood_Zone": "0", "SlopeMean": 1.47294840048, "Solar_Mean": 1587870.95761, "NTran_DIST": 2152.30322477, "Shape_Area": 104339.641467, "sol_s": 0.687545987433, "slp_s": 0.821100756181, "trn_s": 0.26999916438, "evp_s": 0.0, "dem_s": 1.0, "fld_s": 1.0, "lc_s": 0.999999999999, "DevOpe_21": 0.027027027027, "DevLowI_22": 0.108108108108, "DDevMed_23": 0.396396396396, "DDevHig_24": 0.468468468468, "DecFor_41": 0.0, "GrasHe_71": 0.0, "OpenW_11": 0.0, "EverFor_42": 0.0, "MixFor_43": 0.0, "SShrub_52": 0.0, "PasHay_81": 0.0, "CultCr_82": 0.0, "welan_90": 0.0, "EmerW_95": 0.0, "Barre_31": 0.0, "source_geometry_valid": true, "dataset": "facility_complex", "layer_title": "INDOT Complex", "layer_type": "facility", "center_longitude": -86.9081456521807, "center_latitude": 40.08237361702468, "source_latitude": 0.0, "source_longitude": 0.0, "land_cover_sum": 0.9999999999989999}, "geometry": {"type": "Polygon", "coordinates": [[[-86.90407780875147, 40.0826469143739, 0.0], [-86.90409459928614, 40.0817114386549, 0.0], [-86.90423125300836, 40.081619287246255, 0.0], [-86.90566843613045, 40.081810834546594, 0.0], [-86.90653742038923, 40.08164567081199, 0.0], [-86.90741789107781, 40.08147470660224, 0.0], [-86.90795512687482, 40.08139938677985, 0.0], [-86.90840068837161, 40.08137221088775, 0.0], [-86.90883677832684, 40.08137667591254, 0.0], [-86.90955046193939, 40.081455085234566, 0.0], [-86.91026057772976, 40.08160340787007, 0.0], [-86.91143537819218, 40.081900677983754, 0.0], [-86.91220745149333, 40.082100172229, 0.0], [-86.91221110748343, 40.08303622950079, 0.0], [-86.91122906465911, 40.08303958322519, 0.0], [-86.90765556546488, 40.08297331118624, 0.0], [-86.90408842933319, 40.082953884481476, 0.0], [-86.90407780875147, 40.0826469143739, 0.0]]]}}, {"type": "Feature", "properties": {"SPR_ID": 407.0, "Site_typ": "Complex", "Unit_Site": "IndotFac - West Lafayette Sub Complex", "layer": "CRAWFORDSVILLE", "Volt_Class": "150", "Flood_Zone": "0", "SlopeMean": 3.62411285298, "Solar_Mean": 1567537.9375, "NTran_DIST": 84.0933735763, "Shape_Area": 14819.9763272, "sol_s": 0.550966085998, "slp_s": 0.315928826468, "trn_s": 0.904455347133, "evp_s": 0.0, "dem_s": 1.0, "fld_s": 1.0, "lc_s": 0.36, "DevOpe_21": 0.0666666666667, "DevLowI_22": 0.0, "DDevMed_23": 0.0, "DDevHig_24": 0.0, "DecFor_41": 0.4, "GrasHe_71": 0.0, "OpenW_11": 0.0, "EverFor_42": 0.0, "MixFor_43": 0.0, "SShrub_52": 0.0, "PasHay_81": 0.133333333333, "CultCr_82": 0.4, "welan_90": 0.0, "EmerW_95": 0.0, "Barre_31": 0.0, "source_geometry_valid": true, "dataset": "facility_complex", "layer_title": "INDOT Complex", "layer_type": "facility", "center_longitude": -86.94560143527053, "center_latitude": 40.45055233113172, "source_latitude": 0.0, "source_longitude": 0.0, "land_cover_sum": 0.9999999999997}, "geometry": {"type": "Polygon", "coordinates": [[[-86.94648586966424, 40.45024438410092, 0.0], [-86.94671343713418, 40.45024274956574, 0.0], [-86.9470684041739, 40.45084489882604, 0.0], [-86.94662386372619, 40.45084949357011, 0.0], [-86.94554940605613, 40.45086059258315, 0.0], [-86.94431047379139, 40.45087311241714, 0.0], [-86.94430304573852, 40.450259826154166, 0.0], [-86.94473421845471, 40.45025695107795, 0.0], [-86.94648586966424, 40.45024438410092, 0.0]]]}}, {"type": "Feature", "properties": {"SPR_ID": 410.0, "Site_typ": "Complex", "Unit_Site": "IndotFac - Research & Development", "layer": "CRAWFORDSVILLE", "Volt_Class": "150", "Flood_Zone": "0", "SlopeMean": 1.56170592705, "Solar_Mean": 1566028.44583, "NTran_DIST": 229.54162993, "Shape_Area": 30707.130368, "sol_s": 0.540826607338, "slp_s": 0.800257249344, "trn_s": 0.77618700078, "evp_s": 0.0, "dem_s": 1.0, "fld_s": 1.0, "lc_s": 0.999999999999, "DevOpe_21": 0.162162162162, "DevLowI_22": 0.486486486486, "DDevMed_23": 0.27027027027, "DDevHig_24": 0.0810810810811, "DecFor_41": 0.0, "GrasHe_71": 0.0, "OpenW_11": 0.0, "EverFor_42": 0.0, "MixFor_43": 0.0, "SShrub_52": 0.0, "PasHay_81": 0.0, "CultCr_82": 0.0, "welan_90": 0.0, "EmerW_95": 0.0, "Barre_31": 0.0, "source_geometry_valid": true, "dataset": "facility_complex", "layer_title": "INDOT Complex", "layer_type": "facility", "center_longitude": -86.92638488311175, "center_latitude": 40.457902663410835, "source_latitude": 0.0, "source_longitude": 0.0, "land_cover_sum": 0.9999999999991}, "geometry": {"type": "Polygon", "coordinates": [[[-86.92463154036894, 40.457578420374794, 0.0], [-86.9278783194878, 40.45757433395967, 0.0], [-86.92796102457105, 40.45767885850986, 0.0], [-86.92831694981142, 40.458128675547556, 0.0], [-86.92832212528809, 40.45813521574998, 0.0], [-86.92833099227644, 40.458148523163935, 0.0], [-86.92833682712268, 40.45816277375064, 0.0], [-86.9283394651276, 40.4581775692068, 0.0], [-86.9283388336075, 40.4581924923669, 0.0], [-86.92833494951452, 40.458207127021566, 0.0], [-86.92832792061449, 40.45822105972023, 0.0], [-86.92831794664363, 40.458233901393704, 0.0], [-86.92830530633114, 40.4582452909497, 0.0], [-86.9282903538468, 40.4582549087845, 0.0], [-86.9282735093568, 40.45826248488536, 0.0], [-86.928255244861, 40.458267807830865, 0.0], [-86.92794262679615, 40.45836766108465, 0.0], [-86.92779243252406, 40.458411787560365, 0.0], [-86.92763920334299, 40.458449334407135, 0.0], [-86.92748343242764, 40.458480181200684, 0.0], [-86.9273256200116, 40.45850422734356, 0.0], [-86.9271662769211, 40.458521395671255, 0.0], [-86.92700591513871, 40.45853163244629, 0.0], [-86.92684505134582, 40.45853490285598, 0.0], [-86.92475508016382, 40.458532054099344, 0.0], [-86.92473540727822, 40.45853084578628, 0.0], [-86.92471622293168, 40.45852729993029, 0.0], [-86.9246980011599, 40.45852150693128, 0.0], [-86.92468118999513, 40.458513606722434, 0.0], [-86.9246662043824, 40.45850379507198, 0.0], [-86.92465341203719, 40.45849231366375, 0.0], [-86.92464312991203, 40.45847944559041, 0.0], [-86.924635608874, 40.4584655063342, 0.0], [-86.92463103606774, 40.45845084016469, 0.0], [-86.92462952195486, 40.45843580841865, 0.0], [-86.92463154036894, 40.457578420374794, 0.0]]]}}, {"type": "Feature", "properties": {"SPR_ID": 426.0, "Site_typ": "Complex", "Unit_Site": "IndotFac - Seymour District Complex", "layer": "SEYMOUR", "Volt_Class": "150", "Flood_Zone": "0", "SlopeMean": 2.85692787419, "Solar_Mean": 1559284.49583, "NTran_DIST": 27.2221122926, "Shape_Area": 51820.1316935, "sol_s": 0.495526498387, "slp_s": 0.496091861299, "trn_s": 0.966934406968, "evp_s": 0.0, "dem_s": 1.0, "fld_s": 1.0, "lc_s": 0.971929824561, "DevOpe_21": 0.0526315789474, "DevLowI_22": 0.105263157895, "DDevMed_23": 0.333333333333, "DDevHig_24": 0.473684210526, "DecFor_41": 0.0, "GrasHe_71": 0.0, "OpenW_11": 0.0, "EverFor_42": 0.0, "MixFor_43": 0.0, "SShrub_52": 0.0, "PasHay_81": 0.0, "CultCr_82": 0.0350877192982, "welan_90": 0.0, "EmerW_95": 0.0, "Barre_31": 0.0, "source_geometry_valid": true, "dataset": "facility_complex", "layer_title": "INDOT Complex", "layer_type": "facility", "center_longitude": -85.86136624753684, "center_latitude": 38.96109058876269, "source_latitude": 0.0, "source_longitude": 0.0, "land_cover_sum": 0.9999999999996001}, "geometry": {"type": "Polygon", "coordinates": [[[-85.86245407446776, 38.959623926795345, 0.0], [-85.86245946444382, 38.95962391806141, 0.0], [-85.86240375983053, 38.96176660547929, 0.0], [-85.860789569011, 38.96177290921403, 0.0], [-85.86074609017733, 38.96314666992184, 0.0], [-85.85984669770433, 38.963147761913966, 0.0], [-85.8598791549952, 38.96177301717623, 0.0], [-85.86030702946374, 38.96177411142533, 0.0], [-85.86031564888002, 38.96041443504075, 0.0], [-85.86081203597026, 38.960412007259876, 0.0], [-85.86083145507014, 38.95962763962851, 0.0], [-85.86245407446776, 38.959623926795345, 0.0]]]}}, {"type": "Feature", "properties": {"SPR_ID": 434.0, "Site_typ": "Complex", "Unit_Site": "IndotFac - Osgood Lab", "layer": "SEYMOUR", "Volt_Class": "150", "Flood_Zone": "0", "SlopeMean": 3.15027652184, "Solar_Mean": 1634386.83333, "NTran_DIST": 1000.05551094, "Shape_Area": 4055.48013926, "sol_s": 1.0, "slp_s": 0.427202891774, "trn_s": 0.443210163535, "evp_s": 0.0, "dem_s": 1.0, "fld_s": 1.0, "lc_s": 0.8, "DevOpe_21": 0.25, "DevLowI_22": 0.25, "DDevMed_23": 0.25, "DDevHig_24": 0.0, "DecFor_41": 0.0, "GrasHe_71": 0.0, "OpenW_11": 0.0, "EverFor_42": 0.0, "MixFor_43": 0.0, "SShrub_52": 0.0, "PasHay_81": 0.0, "CultCr_82": 0.25, "welan_90": 0.0, "EmerW_95": 0.0, "Barre_31": 0.0, "source_geometry_valid": true, "dataset": "facility_complex", "layer_title": "INDOT Complex", "layer_type": "facility", "center_longitude": -85.29610244384406, "center_latitude": 39.12169200488102, "source_latitude": 0.0, "source_longitude": 0.0, "land_cover_sum": 1.0}, "geometry": {"type": "Polygon", "coordinates": [[[-85.29564518271816, 39.12146052201407, 0.0], [-85.2965651824303, 39.12146352197536, 0.0], [-85.29656218210548, 39.1219235221746, 0.0], [-85.29563718205911, 39.121916522306606, 0.0], [-85.29564518271816, 39.12146052201407, 0.0]]]}}, {"type": "Feature", "properties": {"SPR_ID": 439.0, "Site_typ": "Complex", "Unit_Site": "IndotFac - Monticello sub Complex", "layer": "LA PORTE", "Volt_Class": "150", "Flood_Zone": "0", "SlopeMean": 3.38393399559, "Solar_Mean": 1574970.92628, "NTran_DIST": 1774.13377319, "Shape_Area": 69045.6847553, "sol_s": 0.600894570279, "slp_s": 0.372331588574, "trn_s": 0.309726003677, "evp_s": 0.0, "dem_s": 1.0, "fld_s": 1.0, "lc_s": 0.999999999999, "DevOpe_21": 0.358974358974, "DevLowI_22": 0.307692307692, "DDevMed_23": 0.128205128205, "DDevHig_24": 0.0512820512821, "DecFor_41": 0.0, "GrasHe_71": 0.0, "OpenW_11": 0.0, "EverFor_42": 0.0, "MixFor_43": 0.0, "SShrub_52": 0.0, "PasHay_81": 0.153846153846, "CultCr_82": 0.0, "welan_90": 0.0, "EmerW_95": 0.0, "Barre_31": 0.0, "source_geometry_valid": true, "dataset": "facility_complex", "layer_title": "INDOT Complex", "layer_type": "facility", "center_longitude": -86.75211175418166, "center_latitude": 40.72619902942364, "source_latitude": 0.0, "source_longitude": 0.0, "land_cover_sum": 0.9999999999990998}, "geometry": {"type": "Polygon", "coordinates": [[[-86.75035861879577, 40.72462230109412, 0.0], [-86.75030086993405, 40.724262477590784, 0.0], [-86.75054753713204, 40.724371794060616, 0.0], [-86.75151593848793, 40.72479497173613, 0.0], [-86.75367363674032, 40.72574284055706, 0.0], [-86.75388352378748, 40.725835377444234, 0.0], [-86.75347261740906, 40.7263883005035, 0.0], [-86.75223661829763, 40.72805130019419, 0.0], [-86.75143961814214, 40.72770430038671, 0.0], [-86.7508116180371, 40.72743130035503, 0.0], [-86.75074661851716, 40.72702830023159, 0.0], [-86.75068561892199, 40.72665030049289, 0.0], [-86.75062761794571, 40.7262873002806, 0.0], [-86.7505976185389, 40.726104300307895, 0.0], [-86.7504686191119, 40.72530330063868, 0.0], [-86.75035861879577, 40.72462230109412, 0.0]]]}}, {"type": "Feature", "properties": {"SPR_ID": 443.0, "Site_typ": "Complex", "Unit_Site": "IndotFac - Rensselaer Sub Complex", "layer": "LA PORTE", "Volt_Class": "-99999", "Flood_Zone": "0", "SlopeMean": 3.05458272631, "Solar_Mean": 1559011.87838, "NTran_DIST": 802.016509621, "Shape_Area": 71571.3736206, "sol_s": 0.493695286681, "slp_s": 0.449675287733, "trn_s": 0.498134460437, "evp_s": 0.0, "dem_s": 1.0, "fld_s": 1.0, "lc_s": 0.292592592593, "DevOpe_21": 0.0246913580247, "DevLowI_22": 0.037037037037, "DDevMed_23": 0.037037037037, "DDevHig_24": 0.0123456790123, "DecFor_41": 0.0, "GrasHe_71": 0.0, "OpenW_11": 0.0, "EverFor_42": 0.0, "MixFor_43": 0.0, "SShrub_52": 0.0, "PasHay_81": 0.0, "CultCr_82": 0.876543209877, "welan_90": 0.0, "EmerW_95": 0.0, "Barre_31": 0.0123456790123, "source_geometry_valid": true, "dataset": "facility_complex", "layer_title": "INDOT Complex", "layer_type": "facility", "center_longitude": -87.13851011513773, "center_latitude": 40.94670732800168, "source_latitude": 0.0, "source_longitude": 0.0, "land_cover_sum": 1.0000000000003}, "geometry": {"type": "Polygon", "coordinates": [[[-87.13683248409934, 40.94792328118984, 0.0], [-87.13682248475031, 40.94587628144719, 0.0], [-87.14018948425995, 40.94587428185154, 0.0], [-87.14019786801002, 40.94753630468136, 0.0], [-87.14024967327406, 40.9481604874225, 0.0], [-87.13683348494948, 40.94813128113956, 0.0], [-87.13683248409934, 40.94792328118984, 0.0]]]}}, {"type": "Feature", "properties": {"SPR_ID": 447.0, "Site_typ": "Complex", "Unit_Site": "IndotFac - Cline Avenue Lab", "layer": "LA PORTE", "Volt_Class": "345", "Flood_Zone": "X", "SlopeMean": 1.84018655618, "Solar_Mean": 1557210.75, "NTran_DIST": 969.240062507, "Shape_Area": 2969.1416441, "sol_s": 0.481596841134, "slp_s": 0.734859833241, "trn_s": 0.450946959556, "evp_s": 0.0, "dem_s": 1.0, "fld_s": 0.9061, "lc_s": 1.0, "DevOpe_21": 0.0, "DevLowI_22": 0.0, "DDevMed_23": 0.0, "DDevHig_24": 1.0, "DecFor_41": 0.0, "GrasHe_71": 0.0, "OpenW_11": 0.0, "EverFor_42": 0.0, "MixFor_43": 0.0, "SShrub_52": 0.0, "PasHay_81": 0.0, "CultCr_82": 0.0, "welan_90": 0.0, "EmerW_95": 0.0, "Barre_31": 0.0, "source_geometry_valid": true, "dataset": "facility_complex", "layer_title": "INDOT Complex", "layer_type": "facility", "center_longitude": -87.4336159609949, "center_latitude": 41.56853812378986, "source_latitude": 0.0, "source_longitude": 0.0, "land_cover_sum": 1.0}, "geometry": {"type": "Polygon", "coordinates": [[[-87.43315821170991, 41.56833186840336, 0.0], [-87.43313515957642, 41.56826744214542, 0.0], [-87.4339334534235, 41.56827054189584, 0.0], [-87.43393457885634, 41.568847394931424, 0.0], [-87.43366699781348, 41.568773926567054, 0.0], [-87.43358894824918, 41.56874207020213, 0.0], [-87.43351502991672, 41.56870507214525, 0.0], [-87.43344584093163, 41.56866323189462, 0.0], [-87.43338194248891, 41.568616888720726, 0.0], [-87.43332385403528, 41.56856641718045, 0.0], [-87.43327204368, 41.56851222805362, 0.0], [-87.43322693172712, 41.56845475842129, 0.0], [-87.43318888590825, 41.56839447618701, 0.0], [-87.43315821170991, 41.56833186840336, 0.0]]]}}, {"type": "Feature", "properties": {"SPR_ID": 448.0, "Site_typ": "Complex", "Unit_Site": "IndotFac - Wanatah Complex", "layer": "LA PORTE", "Volt_Class": "735", "Flood_Zone": "0", "SlopeMean": 2.02817187971, "Solar_Mean": 1580749.56641, "NTran_DIST": 3251.23064946, "Shape_Area": 84614.9524277, "sol_s": 0.639710550153, "slp_s": 0.69071401792, "trn_s": 0.19668841078, "evp_s": 0.0, "dem_s": 1.0, "fld_s": 1.0, "lc_s": 0.932258064516, "DevOpe_21": 0.0, "DevLowI_22": 0.0860215053763, "DDevMed_23": 0.0215053763441, "DDevHig_24": 0.0215053763441, "DecFor_41": 0.0, "GrasHe_71": 0.172043010753, "OpenW_11": 0.0, "EverFor_42": 0.0, "MixFor_43": 0.0, "SShrub_52": 0.0, "PasHay_81": 0.569892473118, "CultCr_82": 0.010752688172, "welan_90": 0.0, "EmerW_95": 0.0, "Barre_31": 0.118279569892, "source_geometry_valid": true, "dataset": "facility_complex", "layer_title": "INDOT Complex", "layer_type": "facility", "center_longitude": -86.90370722436117, "center_latitude": 41.4366488031646, "source_latitude": 0.0, "source_longitude": 0.0, "land_cover_sum": 0.9999999999995}, "geometry": {"type": "Polygon", "coordinates": [[[-86.90249992980888, 41.43521491431178, 0.0], [-86.90239505417414, 41.43431707028948, 0.0], [-86.90469291089074, 41.43432870963864, 0.0], [-86.90479485231587, 41.438692950507885, 0.0], [-86.90290339861008, 41.4386687481595, 0.0], [-86.90280172197923, 41.43779838707974, 0.0], [-86.9028009998331, 41.43779220909158, 0.0], [-86.90275045623163, 41.437359545426816, 0.0], [-86.90275027422882, 41.437357982462856, 0.0], [-86.90269954689991, 41.43692375667835, 0.0], [-86.90263510489693, 41.43637209948055, 0.0], [-86.90256771886021, 41.43579523026069, 0.0], [-86.90249992980888, 41.43521491431178, 0.0]]]}}, {"type": "Feature", "properties": {"SPR_ID": 449.0, "Site_typ": "Complex", "Unit_Site": "IndotFac - LaPorte District Complex", "layer": "LA PORTE", "Volt_Class": "345", "Flood_Zone": "0", "SlopeMean": 3.59963921248, "Solar_Mean": 1561321.02669, "NTran_DIST": 1489.29024369, "Shape_Area": 78995.4443118, "sol_s": 0.509206177187, "slp_s": 0.321676130531, "trn_s": 0.348330012241, "evp_s": 0.0, "dem_s": 1.0, "fld_s": 1.0, "lc_s": 0.858823529412, "DevOpe_21": 0.0235294117647, "DevLowI_22": 0.0941176470588, "DDevMed_23": 0.305882352941, "DDevHig_24": 0.176470588235, "DecFor_41": 0.0, "GrasHe_71": 0.0, "OpenW_11": 0.0117647058824, "EverFor_42": 0.0, "MixFor_43": 0.0, "SShrub_52": 0.0, "PasHay_81": 0.223529411765, "CultCr_82": 0.152941176471, "welan_90": 0.0, "EmerW_95": 0.0117647058824, "Barre_31": 0.0, "source_geometry_valid": true, "dataset": "facility_complex", "layer_title": "INDOT Complex", "layer_type": "facility", "center_longitude": -86.69308671659228, "center_latitude": 41.585513505542295, "source_latitude": 0.0, "source_longitude": 0.0, "land_cover_sum": 1.0000000000003}, "geometry": {"type": "Polygon", "coordinates": [[[-86.69424922563714, 41.58417360324487, 0.0], [-86.69453153793914, 41.584171384828814, 0.0], [-86.69507314094648, 41.584180348085255, 0.0], [-86.69499739239531, 41.5866589979192, 0.0], [-86.6905746793158, 41.58654495564505, 0.0], [-86.69064353176663, 41.58632662466385, 0.0], [-86.69077965656719, 41.58600383853878, 0.0], [-86.69100009779434, 41.58566991705388, 0.0], [-86.69128228549611, 41.585346674260855, 0.0], [-86.69162829410784, 41.58505887815242, 0.0], [-86.6919246498374, 41.584848839525684, 0.0], [-86.69236342577472, 41.58461409143208, 0.0], [-86.69276184937941, 41.58445218580219, 0.0], [-86.69323771344085, 41.58431414581833, 0.0], [-86.69360054818824, 41.584233105386254, 0.0], [-86.69393986716354, 41.58419087494524, 0.0], [-86.69424922563714, 41.58417360324487, 0.0]]]}}, {"type": "Feature", "properties": {"SPR_ID": 474.0, "Site_typ": "Complex", "Unit_Site": "IndotFac - Indianapolis TMC", "layer": "GREENFIELD", "Volt_Class": "150", "Flood_Zone": "0", "SlopeMean": 3.38518594398, "Solar_Mean": 1607112.68056, "NTran_DIST": 1251.94200155, "Shape_Area": 138356.133561, "sol_s": 0.816795484543, "slp_s": 0.372037585396, "trn_s": 0.388698995748, "evp_s": 0.0, "dem_s": 1.0, "fld_s": 1.0, "lc_s": 1.0, "DevOpe_21": 0.28275862069, "DevLowI_22": 0.172413793103, "DDevMed_23": 0.248275862069, "DDevHig_24": 0.296551724138, "DecFor_41": 0.0, "GrasHe_71": 0.0, "OpenW_11": 0.0, "EverFor_42": 0.0, "MixFor_43": 0.0, "SShrub_52": 0.0, "PasHay_81": 0.0, "CultCr_82": 0.0, "welan_90": 0.0, "EmerW_95": 0.0, "Barre_31": 0.0, "source_geometry_valid": true, "dataset": "facility_complex", "layer_title": "INDOT Complex", "layer_type": "facility", "center_longitude": -86.01661521621872, "center_latitude": 39.798061237439455, "source_latitude": 0.0, "source_longitude": 0.0, "land_cover_sum": 1.0}, "geometry": {"type": "Polygon", "coordinates": [[[-86.01421323955792, 39.7967777908108, 0.0], [-86.01896820918087, 39.79673429789755, 0.0], [-86.01897590107139, 39.797139696610174, 0.0], [-86.0189773159567, 39.797214638317406, 0.0], [-86.01898461481697, 39.797598954166446, 0.0], [-86.01902382104203, 39.799660424345646, 0.0], [-86.01461359917296, 39.79995218577171, 0.0], [-86.01427208263807, 39.799954746780294, 0.0], [-86.01425419985452, 39.798990139454006, 0.0], [-86.01424382703364, 39.798428487583614, 0.0], [-86.01422946344795, 39.79765362182487, 0.0], [-86.0142234050623, 39.79732678760803, 0.0], [-86.01421323955792, 39.7967777908108, 0.0]]]}}, {"type": "Feature", "properties": {"SPR_ID": 477.0, "Site_typ": "Complex", "Unit_Site": "IndotFac - Indianapolis Sub Complex", "layer": "GREENFIELD", "Volt_Class": "150", "Flood_Zone": "AE", "SlopeMean": 3.82676456254, "Solar_Mean": 1586019.26675, "NTran_DIST": 457.579819293, "Shape_Area": 174994.959875, "sol_s": 0.675107906234, "slp_s": 0.268338808393, "trn_s": 0.634997222666, "evp_s": 0.0, "dem_s": 1.0, "fld_s": 0.8985, "lc_s": 0.983246073299, "DevOpe_21": 0.261780104712, "DevLowI_22": 0.450261780105, "DDevMed_23": 0.219895287958, "DDevHig_24": 0.0471204188482, "DecFor_41": 0.0, "GrasHe_71": 0.0, "OpenW_11": 0.0, "EverFor_42": 0.0, "MixFor_43": 0.0, "SShrub_52": 0.0, "PasHay_81": 0.0, "CultCr_82": 0.020942408377, "welan_90": 0.0, "EmerW_95": 0.0, "Barre_31": 0.0, "source_geometry_valid": true, "dataset": "facility_complex", "layer_title": "INDOT Complex", "layer_type": "facility", "center_longitude": -86.04069690596913, "center_latitude": 39.745970560724395, "source_latitude": 0.0, "source_longitude": 0.0, "land_cover_sum": 1.0000000000002}, "geometry": {"type": "Polygon", "coordinates": [[[-86.04181871088826, 39.74141470304694, 0.0], [-86.0424869774148, 39.73988702439296, 0.0], [-86.04211462214928, 39.74260580035101, 0.0], [-86.042071134634, 39.749337580105774, 0.0], [-86.04206549113027, 39.750210865392596, 0.0], [-86.04206233953077, 39.750698529564694, 0.0], [-86.04205608329256, 39.75166665111084, 0.0], [-86.04201661850455, 39.751598702955974, 0.0], [-86.03967283566544, 39.74756309109384, 0.0], [-86.03959305701012, 39.747425716539965, 0.0], [-86.03953640801113, 39.747210405231, 0.0], [-86.03933868789784, 39.746458906652066, 0.0], [-86.03926331020685, 39.74545912451938, 0.0], [-86.03975197494448, 39.74401610981366, 0.0], [-86.04043593570913, 39.742970927000286, 0.0], [-86.04131925275905, 39.74203074716541, 0.0], [-86.04181871088826, 39.74141470304694, 0.0]]]}}, {"type": "Feature", "properties": {"SPR_ID": 480.0, "Site_typ": "Complex", "Unit_Site": "IndotFac - Albany Sub Complex", "layer": "GREENFIELD", "Volt_Class": "150", "Flood_Zone": "0", "SlopeMean": 3.26092764468, "Solar_Mean": 1632625.90545, "NTran_DIST": 3993.92246655, "Shape_Area": 73973.4913052, "sol_s": 0.988171587153, "slp_s": 0.401217969428, "trn_s": 0.166191627598, "evp_s": 0.0, "dem_s": 1.0, "fld_s": 1.0, "lc_s": 0.963636363636, "DevOpe_21": 0.0, "DevLowI_22": 0.0568181818182, "DDevMed_23": 0.0340909090909, "DDevHig_24": 0.0227272727273, "DecFor_41": 0.0454545454545, "GrasHe_71": 0.0, "OpenW_11": 0.0, "EverFor_42": 0.0, "MixFor_43": 0.0, "SShrub_52": 0.0, "PasHay_81": 0.840909090909, "CultCr_82": 0.0, "welan_90": 0.0, "EmerW_95": 0.0, "Barre_31": 0.0, "source_geometry_valid": true, "dataset": "facility_complex", "layer_title": "INDOT Complex", "layer_type": "facility", "center_longitude": -85.21103179440972, "center_latitude": 40.297059661689595, "source_latitude": 0.0, "source_longitude": 0.0, "land_cover_sum": 0.9999999999999001}, "geometry": {"type": "Polygon", "coordinates": [[[-85.20982501897662, 40.295609052459355, 0.0], [-85.21220872008001, 40.2955947987594, 0.0], [-85.21224022961624, 40.29866361142605, 0.0], [-85.21224712704925, 40.29930329247272, 0.0], [-85.21212027777948, 40.29926400813014, 0.0], [-85.21160965890995, 40.29908320799015, 0.0], [-85.20985425967604, 40.29847337960236, 0.0], [-85.20982501897662, 40.295609052459355, 0.0]]]}}, {"type": "Feature", "properties": {"SPR_ID": 483.0, "Site_typ": "Complex", "Unit_Site": "IndotFac - Tipton Sub Complex", "layer": "GREENFIELD", "Volt_Class": "250", "Flood_Zone": "X", "SlopeMean": 2.79765554737, "Solar_Mean": 1620505.77451, "NTran_DIST": 3056.52308372, "Shape_Area": 41074.1283105, "sol_s": 0.906758876193, "slp_s": 0.510011167042, "trn_s": 0.206628957333, "evp_s": 0.0, "dem_s": 1.0, "fld_s": 0.98565, "lc_s": 0.808695652175, "DevOpe_21": 0.0, "DevLowI_22": 0.130434782609, "DDevMed_23": 0.173913043478, "DDevHig_24": 0.217391304348, "DecFor_41": 0.0, "GrasHe_71": 0.0, "OpenW_11": 0.0, "EverFor_42": 0.0, "MixFor_43": 0.0, "SShrub_52": 0.0, "PasHay_81": 0.239130434783, "CultCr_82": 0.239130434783, "welan_90": 0.0, "EmerW_95": 0.0, "Barre_31": 0.0, "source_geometry_valid": true, "dataset": "facility_complex", "layer_title": "INDOT Complex", "layer_type": "facility", "center_longitude": -86.05534375812545, "center_latitude": 40.280515947955216, "source_latitude": 0.0, "source_longitude": 0.0, "land_cover_sum": 1.000000000001}, "geometry": {"type": "Polygon", "coordinates": [[[-86.05593866957403, 40.2793941624106, 0.0], [-86.05610050816964, 40.27925998860282, 0.0], [-86.05620349186442, 40.28182012801218, 0.0], [-86.05440056037708, 40.28188623881784, 0.0], [-86.05421433022876, 40.28189066897378, 0.0], [-86.05412487688375, 40.28189277198087, 0.0], [-86.05346496339766, 40.28190860338119, 0.0], [-86.0532434216616, 40.28191355030411, 0.0], [-86.05324303929483, 40.28184643615073, 0.0], [-86.05324311419108, 40.281813579460824, 0.0], [-86.05324419929335, 40.28150442553619, 0.0], [-86.053280246834, 40.28148469044048, 0.0], [-86.0532897541681, 40.28147910868089, 0.0], [-86.05330484573443, 40.28146845360867, 0.0], [-86.05375369271665, 40.28111307522282, 0.0], [-86.05376075422423, 40.281109107682326, 0.0], [-86.05377224864856, 40.28110122137406, 0.0], [-86.0540182205218, 40.280917242239305, 0.0], [-86.05420419162051, 40.28077826386366, 0.0], [-86.05421045707132, 40.28077334112325, 0.0], [-86.05425578485358, 40.280735896595715, 0.0], [-86.05481665726026, 40.280282806370465, 0.0], [-86.0549339722154, 40.28018935227422, 0.0], [-86.05516278115361, 40.280008501691164, 0.0], [-86.05580585631607, 40.27949944262795, 0.0], [-86.05593588446614, 40.27939641990473, 0.0], [-86.05593866957403, 40.2793941624106, 0.0]]]}}, {"type": "Feature", "properties": {"SPR_ID": 489.0, "Site_typ": "Complex", "Unit_Site": "IndotFac - Fort Wayne District Complex", "layer": "FORT WAYNE", "Volt_Class": "150", "Flood_Zone": "0", "SlopeMean": 3.4409711957, "Solar_Mean": 1608078.66554, "NTran_DIST": 0.0, "Shape_Area": 65493.0034006, "sol_s": 0.823284148432, "slp_s": 0.358937172163, "trn_s": 1.0, "evp_s": 0.0, "dem_s": 1.0, "fld_s": 1.0, "lc_s": 1.0, "DevOpe_21": 0.0, "DevLowI_22": 0.0547945205479, "DDevMed_23": 0.109589041096, "DDevHig_24": 0.835616438356, "DecFor_41": 0.0, "GrasHe_71": 0.0, "OpenW_11": 0.0, "EverFor_42": 0.0, "MixFor_43": 0.0, "SShrub_52": 0.0, "PasHay_81": 0.0, "CultCr_82": 0.0, "welan_90": 0.0, "EmerW_95": 0.0, "Barre_31": 0.0, "source_geometry_valid": true, "dataset": "facility_complex", "layer_title": "INDOT Complex", "layer_type": "facility", "center_longitude": -85.17597385372417, "center_latitude": 41.12752942683909, "source_latitude": 0.0, "source_longitude": 0.0, "land_cover_sum": 0.9999999999999}, "geometry": {"type": "Polygon", "coordinates": [[[-85.17443875078646, 41.1277577015125, 0.0], [-85.17440610995533, 41.12671940655387, 0.0], [-85.1744087772592, 41.12671759781129, 0.0], [-85.17441145041666, 41.1267157927644, 0.0], [-85.17441412704628, 41.12671399137543, 0.0], [-85.17441681069525, 41.126712194601396, 0.0], [-85.1744194977914, 41.12671040238563, 0.0], [-85.1744221907162, 41.126708614765924, 0.0], [-85.17442488949459, 41.12670683084189, 0.0], [-85.17442759288593, 41.12670505239537, 0.0], [-85.17443030094016, 41.12670327762566, 0.0], [-85.17443301482301, 41.12670150745198, 0.0], [-85.17443573334376, 41.12669974185548, 0.0], [-85.17443845769316, 41.126697980855, 0.0], [-85.17444118548974, 41.12669622441281, 0.0], [-85.17444392033065, 41.12669447168517, 0.0], [-85.17444665859378, 41.12669272441617, 0.0], [-85.17444940268555, 41.1266909817432, 0.0], [-85.17445215263093, 41.12668924276592, 0.0], [-85.17445490599853, 41.12668750924726, 0.0], [-85.17445766521972, 41.1266857794243, 0.0], [-85.17446042905388, 41.12668405507883, 0.0], [-85.17446319874163, 41.12668233442906, 0.0], [-85.17446597185162, 41.12668061923791, 0.0], [-85.1744687508152, 41.12667890774243, 0.0], [-85.17447153560742, 41.126677200843, 0.0], [-85.17447432382187, 41.12667549940219, 0.0], [-85.17447711788992, 41.12667380165706, 0.0], [-85.17447991657092, 41.12667210938943, 0.0], [-85.17448271988985, 41.12667042169897, 0.0], [-85.17448552787165, 41.12666873768531, 0.0], [-85.17448834165714, 41.126667059168, 0.0], [-85.17449115888982, 41.126665385208995, 0.0], [-85.1744939819761, 41.12666371494567, 0.0], [-85.17449680965036, 41.12666205106018, 0.0], [-85.17449964201249, 41.12666038995114, 0.0], [-85.17450248015332, 41.126658735238834, 0.0], [-85.17450532176632, 41.12665708418446, 0.0], [-85.17450816920795, 41.126655437726114, 0.0], [-85.17451102007183, 41.126653796726366, 0.0], [-85.17451387676435, 41.12665216032267, 0.0], [-85.17451673692902, 41.1266505275769, 0.0], [-85.17451960287242, 41.12664890122784, 0.0], [-85.1745224734787, 41.12664727855558, 0.0], [-85.17452534872291, 41.126645660460454, 0.0], [-85.17452822858007, 41.126644047842845, 0.0], [-85.17453111310012, 41.126642438902046, 0.0], [-85.17453400223314, 41.12664083543873, 0.0], [-85.17453689478839, 41.12663923743402, 0.0], [-85.17453979319725, 41.126637643124994, 0.0], [-85.17454269621908, 41.12663605429348, 0.0], [-85.17454560387881, 41.12663447003911, 0.0], [-85.1745485161765, 41.12663289036186, 0.0], [-85.17455143192136, 41.1266313152429, 0.0], [-85.17455435346993, 41.12662974562028, 0.0], [-85.1745572796564, 41.12662818057484, 0.0], [-85.1745602092901, 41.12662662008766, 0.0], [-85.17456314353676, 41.12662506507796, 0.0], [-85.17456608361208, 41.126623514664296, 0.0], [-85.1745690271346, 41.12662196880889, 0.0], [-85.17457197529504, 41.12662042753064, 0.0], [-85.17457492687772, 41.12661889171098, 0.0], [-85.17457788428906, 41.126617360487366, 0.0], [-85.17458084512265, 41.126615834722344, 0.0], [-85.17458381178488, 41.12661431355337, 0.0], [-85.17458678189435, 41.12661279694263, 0.0], [-85.17458975661677, 41.12661128580938, 0.0], [-85.1745927347864, 41.126609779234414, 0.0], [-85.17459571759396, 41.126608277236585, 0.0], [-85.1745987050145, 41.12660678071624, 0.0], [-85.17460169707296, 41.126605288773035, 0.0], [-85.17460469376937, 41.126603801406965, 0.0], [-85.174607693888, 41.12660231949953, 0.0], [-85.17461069861965, 41.12660084306956, 0.0], [-85.1746137079892, 41.12659937121674, 0.0], [-85.17461672080597, 41.12659790392215, 0.0], [-85.17461973823572, 41.126596442105075, 0.0], [-85.17462276030342, 41.12659498486515, 0.0], [-85.17462578579335, 41.12659353308382, 0.0], [-85.17462881592122, 41.12659208587964, 0.0], [-85.17463184949634, 41.126590643233705, 0.0], [-85.17463488765944, 41.12658920696562, 0.0], [-85.17463793048546, 41.12658777437431, 0.0], [-85.17464097673373, 41.1265863472416, 0.0], [-85.17464402759498, 41.12658492558638, 0.0], [-85.17464708309416, 41.126583508508304, 0.0], [-85.17465014201562, 41.12658209688884, 0.0], [-85.174653205575, 41.126580689846506, 0.0], [-85.17465627136593, 41.12657928824389, 0.0], [-85.17465934298554, 41.12657789123731, 0.0], [-85.17466241802738, 41.12657649968931, 0.0], [-85.17466549768221, 41.1265751136188, 0.0], [-85.17466857959357, 41.12657373208769, 0.0], [-85.17467166733357, 41.12657235515256, 0.0], [-85.17467475847089, 41.12657098457642, 0.0], [-85.17467785305541, 41.12656961855849, 0.0], [-85.17468095227791, 41.126568257117725, 0.0], [-85.17468405492265, 41.12656690113557, 0.0], [-85.17468716218038, 41.12656555063088, 0.0], [-85.17469027288534, 41.12656420468444, 0.0], [-85.17469338701258, 41.126562864196615, 0.0], [-85.1746965057528, 41.12656152918626, 0.0], [-85.17469962794024, 41.12656019873419, 0.0], [-85.17470275354997, 41.126558873740684, 0.0], [-85.17470588377267, 41.12655755422468, 0.0], [-85.17470901744261, 41.126556239266925, 0.0], [-85.1747121557505, 41.1265549288863, 0.0], [-85.17471529626498, 41.12655362484575, 0.0], [-85.17471844139246, 41.12655232628266, 0.0], [-85.17472158996718, 41.126551032277845, 0.0], [-85.17472474317982, 41.12654974285017, 0.0], [-85.1747278985991, 41.12654845976254, 0.0], [-85.1747310586563, 41.12654718125205, 0.0], [-85.1747342221358, 41.12654590820016, 0.0], [-85.17473739025324, 41.126544639725395, 0.0], [-85.17474056057729, 41.12654337759071, 0.0], [-85.1747437355393, 41.12654212003313, 0.0], [-85.17474691392357, 41.12654086793417, 0.0], [-85.17475009575509, 41.126539620393466, 0.0], [-85.17475328098394, 41.126538379211695, 0.0], [-85.17475646966003, 41.126537142588184, 0.0], [-85.17475966175837, 41.126535911423275, 0.0], [-85.17476285846975, 41.12653468573583, 0.0], [-85.17476605862835, 41.126533464606645, 0.0], [-85.17476926099356, 41.12653224981752, 0.0], [-85.17477246799673, 41.12653103960552, 0.0], [-85.17477567723148, 41.12652983483325, 0.0], [-85.17477889107923, 41.12652863553845, 0.0], [-85.1747821083742, 41.12652744080189, 0.0], [-85.17478532906654, 41.126526252424284, 0.0], [-85.1747885532061, 41.12652506860493, 0.0], [-85.17479178074299, 41.126523891144515, 0.0], [-85.17479501053643, 41.12652271822347, 0.0], [-85.17479824494285, 41.126521550779884, 0.0], [-85.17480148279652, 41.12652038789456, 0.0], [-85.17480472285682, 41.12651923134931, 0.0], [-85.17480796753014, 41.12651808028152, 0.0], [-85.17481121445996, 41.126516933753116, 0.0], [-85.17481446597786, 41.126515793602515, 0.0], [-85.1748177197523, 41.12651465799129, 0.0], [-85.17482097694902, 41.12651352783865, 0.0], [-85.17482423756802, 41.126512403144616, 0.0], [-85.17482750160933, 41.12651128390918, 0.0], [-85.17483076788223, 41.12651017011346, 0.0], [-85.17483403876814, 41.12650906179519, 0.0], [-85.17483731188563, 41.12650795891666, 0.0], [-85.17484058842541, 41.12650686149672, 0.0], [-85.17484386841247, 41.12650576863501, 0.0], [-85.17484715179684, 41.126504682132264, 0.0], [-85.17485043743777, 41.12650360016887, 0.0], [-85.17485372647604, 41.12650252456442, 0.0], [-85.17485701893662, 41.12650145441855, 0.0], [-85.17486031365375, 41.12650038881208, 0.0], [-85.17486361295893, 41.12649932958339, 0.0], [-85.17486691452065, 41.126498274894075, 0.0], [-85.17487021828902, 41.12649722654485, 0.0], [-85.17487352669534, 41.12649618277271, 0.0], [-85.1748768361176, 41.1264951453218, 0.0], [-85.17488015015289, 41.12649411334831, 0.0], [-85.17488346644471, 41.12649308591419, 0.0], [-85.1748867861339, 41.12649206483904, 0.0], [-85.17489010805467, 41.1264910492036, 0.0], [-85.1748934334227, 41.12649003812639, 0.0], [-85.1748967621881, 41.12648903340811, 0.0], [-85.1749000931851, 41.126488034129544, 0.0], [-85.1749034276044, 41.126487040309584, 0.0], [-85.17490676425531, 41.12648605192934, 0.0], [-85.1749101031378, 41.126485068988806, 0.0], [-85.17491344663333, 41.12648409152574, 0.0], [-85.17491679116974, 41.126483119483495, 0.0], [-85.17492014031919, 41.12648215291871, 0.0], [-85.17492349048456, 41.12648119267513, 0.0], [-85.17492684409721, 41.126480236989785, 0.0], [-85.17493020113218, 41.12647928676302, 0.0], [-85.1749335603738, 41.126478342876325, 0.0], [-85.17493692184703, 41.12647740442933, 0.0], [-85.17494028674257, 41.12647647144095, 0.0], [-85.1749436538697, 41.12647554389226, 0.0], [-85.17494702441918, 41.12647462180216, 0.0], [-85.17495039600954, 41.1264737051329, 0.0], [-85.17495377221294, 41.126472793941105, 0.0], [-85.17495714943229, 41.12647188907049, 0.0], [-85.17496053007395, 41.12647098965848, 0.0], [-85.17496391297216, 41.126470094785795, 0.0], [-85.17496729926776, 41.12646920627207, 0.0], [-85.17497068657931, 41.126468324079525, 0.0], [-85.17497407733815, 41.12646744644522, 0.0], [-85.17497747032859, 41.12646657425062, 0.0], [-85.17498086671641, 41.12646570841496, 0.0], [-85.17498426533584, 41.126464848019005, 0.0], [-85.1749876661869, 41.12646399306277, 0.0], [-85.17499106926955, 41.12646314354623, 0.0], [-85.1749944745589, 41.12646230036976, 0.0], [-85.17499788210479, 41.12646146173267, 0.0], [-85.17500129304807, 41.126460629454485, 0.0], [-85.17500470622298, 41.12645980261601, 0.0], [-85.17500812160453, 41.12645898211759, 0.0], [-85.17501153924269, 41.12645816615855, 0.0], [-85.1750149590875, 41.126457356539575, 0.0], [-85.17501838116395, 41.12645655236028, 0.0], [-85.17502180547201, 41.126455753620725, 0.0], [-85.1750252332024, 41.126454960339736, 0.0], [-85.17502866194877, 41.126454173379926, 0.0], [-85.17503209292677, 41.12645339185983, 0.0], [-85.17503552732711, 41.12645261579832, 0.0], [-85.17503896276834, 41.12645184515764, 0.0], [-85.17504240160699, 41.12645108087589, 0.0], [-85.17504584148654, 41.126450322014996, 0.0], [-85.17504928359772, 41.126449568593785, 0.0], [-85.17505272910628, 41.12644882153152, 0.0], [-85.17505617568074, 41.12644807898972, 0.0], [-85.17505962446187, 41.126447342788, 0.0], [-85.17506307544967, 41.12644661292632, 0.0], [-85.17506652869407, 41.126445887604014, 0.0], [-85.17506998414515, 41.126445168621764, 0.0], [-85.17507344180291, 41.12644445597956, 0.0], [-85.17507690052656, 41.12644374785785, 0.0], [-85.1750803626476, 41.12644304609505, 0.0], [-85.17508382580957, 41.1264423497531, 0.0], [-85.17508729117823, 41.1264416597512, 0.0], [-85.17509075880348, 41.126440974288684, 0.0], [-85.17509422863542, 41.12644029516618, 0.0], [-85.17509769948332, 41.126439622364906, 0.0], [-85.17510117256288, 41.12643895500329, 0.0], [-85.17510464789903, 41.12643829218107, 0.0], [-85.17510812541693, 41.12643763659924, 0.0], [-85.17511160397575, 41.12643698643823, 0.0], [-85.17511508476623, 41.126436341716925, 0.0], [-85.17511856778836, 41.12643570243536, 0.0], [-85.17512205301718, 41.12643506949382, 0.0], [-85.17512553928692, 41.12643444197313, 0.0], [-85.17512902776339, 41.126433820792485, 0.0], [-85.17513251728077, 41.12643320503269, 0.0], [-85.17513600902983, 41.126432594712576, 0.0], [-85.17513950301053, 41.12643198983218, 0.0], [-85.1751429980072, 41.12643139127296, 0.0], [-85.1751464952106, 41.12643079905381, 0.0], [-85.17514999347988, 41.12643021135514, 0.0], [-85.17515349393092, 41.12642963089685, 0.0], [-85.17515699544785, 41.12642905495906, 0.0], [-85.17516049917148, 41.12642848536132, 0.0], [-85.17516400510183, 41.12642792210364, 0.0], [-85.17516751209807, 41.12642736336645, 0.0], [-85.17517102011033, 41.12642681095045, 0.0], [-85.17517453032927, 41.126426264874475, 0.0], [-85.17517804158916, 41.12642572421934, 0.0], [-85.17518155508073, 41.126425189003925, 0.0], [-85.1751850695883, 41.12642466010967, 0.0], [-85.17518858632752, 41.126424136655146, 0.0], [-85.17519210408275, 41.12642361952179, 0.0], [-85.17519562406964, 41.12642310782813, 0.0], [-85.1751991450975, 41.12642260155529, 0.0], [-85.17520266714135, 41.126422101603666, 0.0], [-85.17520619022618, 41.12642160707286, 0.0], [-85.1752097155177, 41.1264211188821, 0.0], [-85.17521324185019, 41.126420636112194, 0.0], [-85.17521676919868, 41.12642015966345, 0.0], [-85.17522029877888, 41.126419688654416, 0.0], [-85.1752238294, 41.126419223066215, 0.0], [-85.17522736103714, 41.12641876379919, 0.0], [-85.17523089488103, 41.126418310872204, 0.0], [-85.17523442976585, 41.126417863366065, 0.0], [-85.17523796450094, 41.12641742126189, 0.0], [-85.17524150144276, 41.12641698549776, 0.0], [-85.17524504061625, 41.12641655517334, 0.0], [-85.17524857961504, 41.12641613115123, 0.0], [-85.17525212084551, 41.126415712568814, 0.0], [-85.17525566309203, 41.12641530030757, 0.0], [-85.1752592063795, 41.12641489346719, 0.0], [-85.17526275070793, 41.12641449204761, 0.0], [-85.17526629605238, 41.12641409694924, 0.0], [-85.17526984241287, 41.126413708172024, 0.0], [-85.17527338981434, 41.126413324815665, 0.0], [-85.17527693944747, 41.12641294689899, 0.0], [-85.17528048890593, 41.12641257528464, 0.0], [-85.17528403938041, 41.12641220999144, 0.0], [-85.17528759208659, 41.12641185013797, 0.0], [-85.17529114464303, 41.12641149568645, 0.0], [-85.17529469940621, 41.12641114757499, 0.0], [-85.17529825399471, 41.126410805765836, 0.0], [-85.17530181081491, 41.12641046939638, 0.0], [-85.17530536748538, 41.1264101384289, 0.0], [-85.17530892517186, 41.12640981378259, 0.0], [-85.17531248389935, 41.12640949455711, 0.0], [-85.17531604361793, 41.126409182553154, 0.0], [-85.17531960440242, 41.12640887506971, 0.0], [-85.17532316620296, 41.12640857390742, 0.0], [-85.17532672785379, 41.12640827814709, 0.0], [-85.17533029168638, 41.126407989627175, 0.0], [-85.17533385539424, 41.12640770560886, 0.0], [-85.17533742011811, 41.126407427911744, 0.0], [-85.17534098704876, 41.12640715655465, 0.0], [-85.17534455263896, 41.12640689058067, 0.0], [-85.17534812046087, 41.12640663004639, 0.0], [-85.17535168808315, 41.12640637671476, 0.0], [-85.17535525677141, 41.12640612790363, 0.0], [-85.17535882645073, 41.12640588631401, 0.0], [-85.17536239600531, 41.126405649226015, 0.0], [-85.17536596655098, 41.126405419359536, 0.0], [-85.17536953813766, 41.1264051949139, 0.0], [-85.17537311076532, 41.126404975889095, 0.0], [-85.17537668321833, 41.12640476316658, 0.0], [-85.17538025671233, 41.12640455586494, 0.0], [-85.17538383003168, 41.12640435486559, 0.0], [-85.17538740439204, 41.126404159287056, 0.0], [-85.1753909797435, 41.12640397093008, 0.0], [-85.17539455616091, 41.126403787093565, 0.0], [-85.17539813121296, 41.126403609540496, 0.0], [-85.1754017084718, 41.12640343832749, 0.0], [-85.17540528558091, 41.12640327251645, 0.0], [-85.17540886251537, 41.1264031130077, 0.0], [-85.17541244049085, 41.12640295891978, 0.0], [-85.17541601829164, 41.12640281113421, 0.0], [-85.17541959829926, 41.12640266968865, 0.0], [-85.17542317696645, 41.12640253362619, 0.0], [-85.17542675667464, 41.126402402984574, 0.0], [-85.17543033739892, 41.12640227866413, 0.0], [-85.17543391675781, 41.126402160627144, 0.0], [-85.17543749834846, 41.12640204802984, 0.0], [-85.17544107857374, 41.12640194171599, 0.0], [-85.17544465984004, 41.12640184082298, 0.0], [-85.17544824212241, 41.12640174625113, 0.0], [-85.17545182795197, 41.12640165263612, 0.0], [-85.17586051647375, 41.12639629444776, 0.0], [-85.17586128972019, 41.12639628958112, 0.0], [-85.17586206180087, 41.126396283795295, 0.0], [-85.17586283388154, 41.12639627800947, 0.0], [-85.17586746929574, 41.12639622352441, 0.0], [-85.17587210424253, 41.12639614291025, 0.0], [-85.1774794224654, 41.12636304616996, 0.0], [-85.17751539289146, 41.12750578379618, 0.0], [-85.17751841405718, 41.12760192722448, 0.0], [-85.17752098610329, 41.1276838255217, 0.0], [-85.17920979356443, 41.12764331383664, 0.0], [-85.17920050098635, 41.12764700317943, 0.0], [-85.17919120267764, 41.12765068432419, 0.0], [-85.17918189977925, 41.12765435909042, 0.0], [-85.17917259348191, 41.12765802749698, 0.0], [-85.1791632825949, 41.127661689525006, 0.0], [-85.17915396709328, 41.12766534607486, 0.0], [-85.17914464700202, 41.12766899624622, 0.0], [-85.1791353235118, 41.127672640057874, 0.0], [-85.1791259954319, 41.12767627749099, 0.0], [-85.17911666392818, 41.12767990946478, 0.0], [-85.17910732666894, 41.12768353414087, 0.0], [-85.17909798598589, 41.12768715335759, 0.0], [-85.1790886419039, 41.127690766214634, 0.0], [-85.17907929323223, 41.127694372693156, 0.0], [-85.17906993875529, 41.127697973674636, 0.0], [-85.17906058209505, 41.12770156741493, 0.0], [-85.17905122082024, 41.12770515567704, 0.0], [-85.1790418549558, 41.12770873756061, 0.0], [-85.1790324845017, 41.12771231306565, 0.0], [-85.17902311181453, 41.12771588313017, 0.0], [-85.17901373334695, 41.127719446797336, 0.0], [-85.17900435031464, 41.127723003185594, 0.0], [-85.17899496504926, 41.12772655413333, 0.0], [-85.17898557400348, 41.12773009868371, 0.0], [-85.17897617955882, 41.12773363687438, 0.0], [-85.1789667805245, 41.127737168686515, 0.0], [-85.17895737806641, 41.12774069503927, 0.0], [-85.17894797101867, 41.127744215013514, 0.0], [-85.17893856057204, 41.127747728628016, 0.0], [-85.17892914553575, 41.127751235864, 0.0], [-85.17891972590986, 41.12775473672143, 0.0], [-85.17891030288507, 41.12775823121914, 0.0], [-85.17890087527067, 41.1277617193383, 0.0], [-85.17889144423248, 41.127765201998116, 0.0], [-85.17888200979542, 41.127768678298196, 0.0], [-85.17887256960286, 41.12777214730056, 0.0], [-85.17886312717731, 41.12777561086237, 0.0], [-85.17885368016212, 41.12777906804564, 0.0], [-85.17884422855732, 41.12778251885036, 0.0], [-85.17883477352875, 41.1277859641957, 0.0], [-85.17882531393548, 41.12778940226216, 0.0], [-85.17881585094334, 41.127792833968876, 0.0], [-85.17880638333669, 41.127796260197385, 0.0], [-85.17879691233118, 41.12779968006616, 0.0], [-85.17878743673607, 41.127803093556395, 0.0], [-85.17877795776701, 41.12780649978656, 0.0], [-85.17876847537418, 41.12780990055734, 0.0], [-85.17875898839178, 41.127813294949554, 0.0], [-85.17874949679488, 41.12781668386355, 0.0], [-85.17874000182402, 41.12782006551747, 0.0], [-85.17873050345433, 41.12782344081166, 0.0], [-85.17872100049505, 41.1278268097273, 0.0], [-85.17871149411202, 41.12783017318354, 0.0], [-85.1787019831394, 41.12783353026123, 0.0], [-85.17869246879287, 41.12783688007882, 0.0], [-85.17868295102261, 41.127840224437016, 0.0], [-85.17867342866275, 41.127843562416665, 0.0], [-85.17866390292896, 41.12784689313622, 0.0], [-85.17865437258071, 41.12785021837755, 0.0], [-85.17864483883363, 41.12785353725914, 0.0], [-85.17863530168773, 41.127856849781, 0.0], [-85.17862575995227, 41.127860155924274, 0.0], [-85.178616214818, 41.127863455707804, 0.0], [-85.1786066662849, 41.12786674913161, 0.0], [-85.17859711316224, 41.127870036176816, 0.0], [-85.17858755661588, 41.127873317762635, 0.0], [-85.17857799550485, 41.12787659206953, 0.0], [-85.17856843218577, 41.127879860035506, 0.0], [-85.17855886308641, 41.127883121604086, 0.0], [-85.17854929175407, 41.12788637773209, 0.0], [-85.17853971585708, 41.127889626581144, 0.0], [-85.1785301365613, 41.12789286907048, 0.0], [-85.17852055384184, 41.1278961061004, 0.0], [-85.17851096655774, 41.127899335851374, 0.0], [-85.17850137706559, 41.12790255926146, 0.0], [-85.17849178176823, 41.12790577717443, 0.0], [-85.17848218309702, 41.12790898782734, 0.0], [-85.17847258219287, 41.12791219303966, 0.0], [-85.17846297672409, 41.12791539097305, 0.0], [-85.17845336666579, 41.12791858252783, 0.0], [-85.17844375437454, 41.12792176864205, 0.0], [-85.17843413751868, 41.127924947477354, 0.0], [-85.17842451726406, 41.12792811995284, 0.0], [-85.17841489358575, 41.12793128696896, 0.0], [-85.17840526534285, 41.127934446706114, 0.0], [-85.178395634867, 41.127937601002685, 0.0], [-85.17838599982657, 41.12794074802033, 0.0], [-85.17837636138736, 41.12794388867821, 0.0], [-85.17836671835866, 41.12794702295749, 0.0], [-85.17835707309705, 41.127950151796185, 0.0], [-85.17834742327084, 41.12795327335592, 0.0], [-85.17833777004587, 41.12795638855591, 0.0], [-85.17832811342217, 41.127959497396105, 0.0], [-85.17831845339971, 41.12796259987656, 0.0], [-85.17830878997852, 41.12796569599724, 0.0], [-85.17829912196781, 41.127968785739306, 0.0], [-85.1782894505584, 41.1279718691216, 0.0], [-85.17827977696587, 41.127974945262615, 0.0], [-85.17827009875899, 41.127978015925365, 0.0], [-85.1782604159626, 41.12798108020951, 0.0], [-85.17825073095824, 41.12798413815272, 0.0], [-85.17824104258004, 41.12798718883581, 0.0], [-85.17823135077823, 41.127990234059475, 0.0], [-85.17822165441187, 41.12799327200416, 0.0], [-85.17821195462186, 41.12799630448942, 0.0], [-85.17820225145805, 41.12799932971457, 0.0], [-85.17819254489552, 41.128002348579926, 0.0], [-85.17818283493429, 41.128005361085506, 0.0], [-85.17817312154942, 41.12800836813166, 0.0], [-85.17816340479077, 41.12801136791767, 0.0], [-85.17815368465831, 41.12801436044356, 0.0], [-85.17814396110225, 41.12801734751002, 0.0], [-85.17813423414748, 41.12802032821668, 0.0], [-85.17812450262818, 41.12802330164438, 0.0], [-85.17811476887601, 41.128026269631484, 0.0], [-85.17810503053441, 41.128029231239964, 0.0], [-85.17809529000978, 41.12803218560713, 0.0], [-85.17808554608645, 41.128035133614524, 0.0], [-85.1780757975737, 41.1280380752433, 0.0], [-85.17806604566225, 41.128041010512256, 0.0], [-85.17805629154287, 41.12804393944029, 0.0], [-85.17804653404973, 41.12804686110815, 0.0], [-85.17803677194225, 41.128049777297754, 0.0], [-85.17802700762685, 41.1280526871464, 0.0], [-85.17801723874695, 41.12805558971608, 0.0], [-85.1780074676591, 41.12805848594479, 0.0], [-85.17799769198184, 41.12806137579486, 0.0], [-85.17798791409668, 41.12806425930398, 0.0], [-85.17797813281287, 41.1280671364533, 0.0], [-85.17796834813038, 41.128070007242826, 0.0], [-85.1779585588834, 41.12807287075336, 0.0], [-85.1779487674036, 41.12807572882329, 0.0], [-85.17793897255007, 41.12807857963306, 0.0], [-85.17792917429789, 41.12808142408305, 0.0], [-85.17791937264705, 41.128084262173225, 0.0], [-85.17790956878832, 41.128087093922424, 0.0], [-85.17789976036511, 41.128089918392654, 0.0], [-85.17788994851837, 41.12809273740342, 0.0], [-85.17788013448863, 41.12809554917287, 0.0], [-85.17787031586953, 41.12809835456368, 0.0], [-85.17786049504252, 41.12810115361352, 0.0], [-85.17785067081691, 41.128103946303554, 0.0], [-85.17784084319266, 41.12810673263379, 0.0], [-85.17783101219469, 41.128109511703855, 0.0], [-85.17782117896392, 41.1281122853333, 0.0], [-85.17781134116873, 41.12811505168376, 0.0], [-85.17780150116566, 41.12811781169322, 0.0], [-85.17779165659815, 41.12812056442372, 0.0], [-85.17778180979785, 41.128123311713566, 0.0], [-85.17777196081461, 41.1281260517621, 0.0], [-85.177762107242, 41.12812878543199, 0.0], [-85.1777522502459, 41.12813151364241, 0.0], [-85.17774239109177, 41.128134233711144, 0.0], [-85.1777325285141, 41.12813694832041, 0.0], [-85.17772266256277, 41.128139655669514, 0.0], [-85.17771279321285, 41.12814235665882, 0.0], [-85.17770292165508, 41.12814505130712, 0.0], [-85.17769304669874, 41.12814773959562, 0.0], [-85.17768316834378, 41.12815042152431, 0.0], [-85.17767328661517, 41.1281530961928, 0.0], [-85.17766340267873, 41.128155764520336, 0.0], [-85.17765351415296, 41.1281584264692, 0.0], [-85.17764362341937, 41.128161082077064, 0.0], [-85.17763373050286, 41.128163730443625, 0.0], [-85.17762383299706, 41.12816637243152, 0.0], [-85.17761393328341, 41.1281690080784, 0.0], [-85.17760403017121, 41.12817163736549, 0.0], [-85.17759412487611, 41.12817425941123, 0.0], [-85.17758421496679, 41.12817687597866, 0.0], [-85.17757430287456, 41.12817948530474, 0.0], [-85.17756438859946, 41.12818208738948, 0.0], [-85.17755446971013, 41.128184683995904, 0.0], [-85.17754454863793, 41.128187273361, 0.0], [-85.17753462535792, 41.12818985638509, 0.0], [-85.17752469748862, 41.12819243303052, 0.0], [-85.17751476741154, 41.12819500333497, 0.0], [-85.17750483515157, 41.12819756639808, 0.0], [-85.17749489949307, 41.12820012310133, 0.0], [-85.1774849592453, 41.12820267342592, 0.0], [-85.17747501798048, 41.128205217428345, 0.0], [-85.17746507334206, 41.12820775417061, 0.0], [-85.17745512530512, 41.12821028455301, 0.0], [-85.1774451750604, 41.12821280859444, 0.0], [-85.17743522144207, 41.12821532537566, 0.0], [-85.17742526442522, 41.12821783579709, 0.0], [-85.17741530520063, 41.12822033987747, 0.0], [-85.1774053425775, 41.12822283759803, 0.0], [-85.1773953765808, 41.1282253280584, 0.0], [-85.17738540837634, 41.128227812177784, 0.0], [-85.1773754379641, 41.12823028995615, 0.0], [-85.17736546415338, 41.12823276137467, 0.0], [-85.17735548696909, 41.128235225533, 0.0], [-85.17734550757704, 41.12823768335034, 0.0], [-85.17733552481143, 41.12824013390748, 0.0], [-85.17732553981313, 41.12824257902397, 0.0], [-85.17731555263202, 41.12824501689909, 0.0], [-85.17730556088664, 41.128247447495205, 0.0], [-85.17729556690855, 41.12824987265064, 0.0], [-85.17728557074767, 41.128252290564724, 0.0], [-85.17727557118832, 41.128254702118966, 0.0], [-85.17726556825541, 41.12825710641301, 0.0], [-85.17725556428061, 41.12825950528523, 0.0], [-85.17724555576643, 41.12826189597807, 0.0], [-85.17723554621035, 41.12826428124908, 0.0], [-85.17722553209, 41.12826665924104, 0.0], [-85.17721551695267, 41.12826903091086, 0.0], [-85.17720549722615, 41.12827139620196, 0.0], [-85.17719547650758, 41.12827375427056, 0.0], [-85.17718545239056, 41.128276105979296, 0.0], [-85.17717542487509, 41.12827845132817, 0.0], [-85.17716539517686, 41.1282807894357, 0.0], [-85.17715536327091, 41.1282831212022, 0.0], [-85.17714532799147, 41.12828544570852, 0.0], [-85.1771352904794, 41.12828776477416, 0.0], [-85.17712524959381, 41.12829007657958, 0.0], [-85.17711520652547, 41.12829238114364, 0.0], [-85.17710516122453, 41.12829468026704, 0.0], [-85.177095112575, 41.128296971229894, 0.0], [-85.17708506050214, 41.12829925673321, 0.0], [-85.17707500743727, 41.128301535014, 0.0], [-85.17706495097397, 41.128303806934966, 0.0], [-85.177054892303, 41.128306072514874, 0.0], [-85.17704483025854, 41.12830833083459, 0.0], [-85.17703476600644, 41.128310582813285, 0.0], [-85.17702469957159, 41.128312827550594, 0.0], [-85.17701462973834, 41.128315065928064, 0.0], [-85.17700455769742, 41.128317297964486, 0.0], [-85.17699448347379, 41.12831952275956, 0.0], [-85.17698440585175, 41.128321741194746, 0.0], [-85.17697432602209, 41.12832395328893, 0.0], [-85.1769642440097, 41.12832615814173, 0.0], [-85.17695415859892, 41.12832835663466, 0.0], [-85.17694407100542, 41.12833054788621, 0.0], [-85.17693398117937, 41.12833273369708, 0.0], [-85.17692388919554, 41.128334911366245, 0.0], [-85.17691379378842, 41.12833708357587, 0.0], [-85.17690369619858, 41.12833924854412, 0.0], [-85.17689359642604, 41.12834140627101, 0.0], [-85.17688349325515, 41.12834355763801, 0.0], [-85.17687338787663, 41.128345702663985, 0.0], [-85.17686328148125, 41.12834784136778, 0.0], [-85.1768531705217, 41.128349972792506, 0.0], [-85.1768430585702, 41.12835209699471, 0.0], [-85.17683294319542, 41.12835421573734, 0.0], [-85.1768228256629, 41.128356326338285, 0.0], [-85.17681270589783, 41.12835843149854, 0.0], [-85.17680258395012, 41.1283605294174, 0.0], [-85.17679245979481, 41.12836262099523, 0.0], [-85.17678233226607, 41.128364705312826, 0.0], [-85.1767722025547, 41.128366782389065, 0.0], [-85.17676207061078, 41.12836885402461, 0.0], [-85.17675193648424, 41.12837091841874, 0.0], [-85.17674180017502, 41.12837297557153, 0.0], [-85.17673166044256, 41.12837502726476, 0.0], [-85.17672151974314, 41.1283770708351, 0.0], [-85.17671137562046, 41.128379108945914, 0.0], [-85.17670122931514, 41.128381139815325, 0.0], [-85.1766910808272, 41.12838316344338, 0.0], [-85.17668093013167, 41.128385180730376, 0.0], [-85.17667077606278, 41.128387190757145, 0.0], [-85.17666062095213, 41.12838919536205, 0.0], [-85.17665046368383, 41.12839119182524, 0.0], [-85.17664030299225, 41.128393182828866, 0.0], [-85.17663014011809, 41.12839516659113, 0.0], [-85.1766199750613, 41.12839714311198, 0.0], [-85.1766098089877, 41.12839911331066, 0.0], [-85.17659963951584, 41.128401077149434, 0.0], [-85.17658946786135, 41.12840303374681, 0.0], [-85.17657929402428, 41.128404983102804, 0.0], [-85.17656911797967, 41.12840692611775, 0.0], [-85.17655893972754, 41.12840886279165, 0.0], [-85.17654875807712, 41.12841079310566, 0.0], [-85.1765385754598, 41.12841271529677, 0.0], [-85.17652839061002, 41.128414632047196, 0.0], [-85.17651820357767, 41.12841654155621, 0.0], [-85.17650801317198, 41.12841844380498, 0.0], [-85.17649782174954, 41.12842033973156, 0.0], [-85.17648762811957, 41.12842222931709, 0.0], [-85.17647743230705, 41.12842411166121, 0.0], [-85.17646723309628, 41.128425987645436, 0.0], [-85.17645703289367, 41.128427856407136, 0.0], [-85.17644683048357, 41.12842971882776, 0.0], [-85.17643662589091, 41.128431574006996, 0.0], [-85.17642641909079, 41.1284334228452, 0.0], [-85.1764162101081, 41.12843526444197, 0.0], [-85.17640599772717, 41.12843709967886, 0.0], [-85.1763957855452, 41.128438927712025, 0.0], [-85.17638556996499, 41.12844074938532, 0.0], [-85.17637535220224, 41.12844256381718, 0.0], [-85.17636513223204, 41.128444371907996, 0.0], [-85.1763549112451, 41.12844617367661, 0.0], [-85.17634468688489, 41.128447968184965, 0.0], [-85.17633446034213, 41.128449755451946, 0.0], [-85.17632423278269, 41.12845153639669, 0.0], [-85.17631400301576, 41.12845331100039, 0.0], [-85.17630377106633, 41.128455078362684, 0.0], [-85.1762935369344, 41.12845683848358, 0.0], [-85.176283300595, 41.128458592263414, 0.0], [-85.17627306204814, 41.12846033970217, 0.0], [-85.17626282250956, 41.12846207991837, 0.0], [-85.1762525795977, 41.12846381287434, 0.0], [-85.17624233566917, 41.12846553950809, 0.0], [-85.17623208953319, 41.128467259800765, 0.0], [-85.17622184121471, 41.128468972852055, 0.0], [-85.17621159071378, 41.12847067866191, 0.0], [-85.17620133919614, 41.128472378149596, 0.0], [-85.17619108428033, 41.12847407127733, 0.0], [-85.1761808283728, 41.12847575718253, 0.0], [-85.17617057028278, 41.12847743584629, 0.0], [-85.17616030998536, 41.12847910816901, 0.0], [-85.17615004869621, 41.12848077326916, 0.0], [-85.17613978519967, 41.12848243202826, 0.0], [-85.17612951952064, 41.12848408354595, 0.0], [-85.17611925163422, 41.12848572872255, 0.0], [-85.1761089815404, 41.12848736755811, 0.0], [-85.1760987104798, 41.12848899827074, 0.0], [-85.17608843718689, 41.12849062354267, 0.0], [-85.17607816171153, 41.128492241573156, 0.0], [-85.17606788405371, 41.128493852362254, 0.0], [-85.17605760537926, 41.12849545682914, 0.0], [-85.17604732452239, 41.12849705405459, 0.0], [-85.1760370414581, 41.128498644938986, 0.0], [-85.17602675740217, 41.12850022860083, 0.0], [-85.17601647116379, 41.12850180502123, 0.0], [-85.17600618271804, 41.12850337510058, 0.0], [-85.17599589206493, 41.12850493883884, 0.0], [-85.17598560042015, 41.12850649535456, 0.0], [-85.1759753077837, 41.12850804464769, 0.0], [-85.17596501174916, 41.128509587580915, 0.0], [-85.17595471472293, 41.12851112329157, 0.0], [-85.17594441548935, 41.12851265266116, 0.0], [-85.17593411526414, 41.12851417480815, 0.0], [-85.17592381283157, 41.1285156906141, 0.0], [-85.17591350821661, 41.12851719917862, 0.0], [-85.1759032013943, 41.128518701402065, 0.0], [-85.17589289477112, 41.1285201964218, 0.0], [-85.17588258477478, 41.128521684181266, 0.0], [-85.17587227376187, 41.1285231656185, 0.0], [-85.17586196054164, 41.12852464071467, 0.0], [-85.17585164632976, 41.12852610858825, 0.0], [-85.17584132993554, 41.128527569220424, 0.0], [-85.17583101133397, 41.12852902351152, 0.0], [-85.1758206917408, 41.12853047058004, 0.0], [-85.175810371156, 41.12853191042599, 0.0], [-85.17580004717314, 41.12853334391201, 0.0], [-85.17578972336447, 41.128534771094664, 0.0], [-85.17577939620767, 41.128536190116684, 0.0], [-85.17576906800936, 41.128537603716836, 0.0], [-85.17575873881944, 41.12853901009441, 0.0], [-85.17574840744719, 41.12854040923056, 0.0], [-85.17573807508334, 41.12854180114415, 0.0], [-85.1757277405122, 41.128543186716655, 0.0], [-85.17571740492453, 41.12854456596693, 0.0], [-85.17570706715453, 41.12854593797576, 0.0], [-85.17569672720218, 41.12854730274317, 0.0], [-85.17568638744902, 41.12854866030689, 0.0], [-85.17567604427289, 41.128550012411004, 0.0], [-85.17566570013014, 41.12855135639217, 0.0], [-85.17565535497087, 41.128552694051145, 0.0], [-85.17564500762929, 41.128554024468684, 0.0], [-85.1756346592712, 41.12855534856397, 0.0], [-85.17562430870585, 41.12855666631819, 0.0], [-85.1756139571739, 41.12855797594949, 0.0], [-85.17560360462544, 41.12855927925858, 0.0], [-85.17559324870395, 41.128560575307354, 0.0], [-85.1755828929567, 41.12856186505275, 0.0], [-85.17557253621791, 41.12856314757562, 0.0], [-85.17556217608114, 41.12856442373848, 0.0], [-85.17555181614358, 41.12856569269766, 0.0], [-85.17554145399879, 41.12856695531575, 0.0], [-85.17553108967172, 41.12856821069239, 0.0], [-85.17552072554388, 41.128569458865336, 0.0], [-85.17551035923377, 41.12857069979683, 0.0], [-85.17549999071643, 41.12857193438724, 0.0], [-85.17548962118263, 41.128573162655414, 0.0], [-85.17547925065733, 41.12857438370103, 0.0], [-85.17546887794975, 41.12857559750516, 0.0], [-85.17545850541649, 41.12857680500597, 0.0], [-85.1754481295102, 41.12857800524646, 0.0], [-85.17543775380318, 41.12857919828325, 0.0], [-85.17542737588896, 41.12858038497893, 0.0], [-85.17541699698324, 41.12858156445204, 0.0], [-85.17540661706109, 41.128582737602905, 0.0], [-85.17539623495671, 41.12858390351235, 0.0], [-85.17538585186082, 41.12858506219919, 0.0], [-85.17537546655775, 41.128586214544946, 0.0], [-85.17536508145398, 41.12858735968699, 0.0], [-85.17535469416799, 41.1285884975876, 0.0], [-85.17534430586555, 41.128589629165965, 0.0], [-85.17533391538092, 41.128590753502884, 0.0], [-85.17532352507061, 41.12859187153644, 0.0], [-85.17531313257808, 41.12859298232855, 0.0], [-85.17530273909412, 41.12859408589809, 0.0], [-85.17529234340299, 41.128595183126535, 0.0], [-85.17528194791116, 41.128596273151246, 0.0], [-85.17527155021219, 41.12859735683485, 0.0], [-85.17526115152177, 41.12859843329589, 0.0], [-85.1752507518399, 41.12859950253435, 0.0], [-85.17524034997585, 41.128600564531354, 0.0], [-85.17522994828617, 41.12860162022498, 0.0], [-85.17521954438936, 41.12860266957751, 0.0], [-85.17520913952607, 41.12860371080713, 0.0], [-85.1751987336464, 41.12860474571449, 0.0], [-85.1751883255596, 41.128605774280764, 0.0], [-85.17517791767214, 41.12860679564332, 0.0], [-85.17516750760252, 41.12860780976441, 0.0], [-85.17515709773224, 41.12860881668181, 0.0], [-85.17514668565484, 41.12860981725808, 0.0], [-85.17513627256109, 41.12861081151212, 0.0], [-85.17512585731015, 41.128611797624366, 0.0], [-85.17511544223359, 41.12861277743324, 0.0], [-85.17510502616565, 41.12861375001953, 0.0], [-85.17509460789061, 41.12861471626473, 0.0], [-85.17508418981492, 41.12861567530618, 0.0], [-85.17507376953216, 41.128616628006554, 0.0], [-85.17506334828298, 41.12861757258398, 0.0], [-85.17505292601744, 41.12861851083918, 0.0], [-85.17504250392633, 41.128619442791, 0.0], [-85.17503207846237, 41.12862036748248, 0.0], [-85.17502165438854, 41.12862128498914, 0.0], [-85.17501122694182, 41.12862219523546, 0.0], [-85.17500079966956, 41.128623099178405, 0.0], [-85.17499037140593, 41.128623995898764, 0.0], [-85.174979942126, 41.1286248862969, 0.0], [-85.1749695118547, 41.12862576947242, 0.0], [-85.17495908059207, 41.12862664542538, 0.0], [-85.17494864714733, 41.12862751413689, 0.0], [-85.17493821387706, 41.128628376545, 0.0], [-85.17492777959049, 41.12862923263087, 0.0], [-85.17491734433753, 41.12863008059382, 0.0], [-85.17490690806831, 41.12863092223453, 0.0], [-85.17489646961698, 41.128631756633766, 0.0], [-85.17488603134014, 41.12863258472963, 0.0], [-85.17487559207197, 41.12863340560291, 0.0], [-85.17486515181248, 41.128634219253605, 0.0], [-85.17485471053674, 41.128635026582074, 0.0], [-85.17484426826967, 41.12863582668793, 0.0], [-85.17483382501129, 41.128636619571196, 0.0], [-85.17482338076161, 41.128637405231885, 0.0], [-85.17481293549567, 41.12863818457033, 0.0], [-85.17480249040423, 41.12863895760538, 0.0], [-85.1747920431557, 41.12863972249864, 0.0], [-85.17478159608166, 41.128640481088524, 0.0], [-85.17477114801636, 41.12864123245581, 0.0], [-85.17476069774405, 41.128641977482, 0.0], [-85.17475024767121, 41.12864271530445, 0.0], [-85.1747397966071, 41.12864344590432, 0.0], [-85.17472934452674, 41.12864417018194, 0.0], [-85.17471889148007, 41.12864488633662, 0.0], [-85.174708438583, 41.12864559708828, 0.0], [-85.17469798352883, 41.128646299698126, 0.0], [-85.1746875286492, 41.12864699600459, 0.0], [-85.17467707277834, 41.12864768508849, 0.0], [-85.17466661589124, 41.128648367850126, 0.0], [-85.1746561580129, 41.12864904338916, 0.0], [-85.17464569914331, 41.12864971170559, 0.0], [-85.17463524047322, 41.128650372818335, 0.0], [-85.17462478078694, 41.12865102760881, 0.0], [-85.17461432010941, 41.1286516751767, 0.0], [-85.17460385844066, 41.12865231552199, 0.0], [-85.1745933957557, 41.12865294954504, 0.0], [-85.17458293327029, 41.128653576364364, 0.0], [-85.17457246979365, 41.128654195961104, 0.0], [-85.17456200530081, 41.1286548092356, 0.0], [-85.17455153981676, 41.12865541528749, 0.0], [-85.17454107453226, 41.12865601413564, 0.0], [-85.17453060823158, 41.12865660666157, 0.0], [-85.17452014093968, 41.128657191964905, 0.0], [-85.1745096726566, 41.12865777004563, 0.0], [-85.17449920454808, 41.12865834182299, 0.0], [-85.17448873547335, 41.12865890547741, 0.0], [-85.1744782665732, 41.128659462828445, 0.0], [-85.17446779546616, 41.12866001383838, 0.0], [-85.17445732455867, 41.12866055764458, 0.0], [-85.17444685266, 41.12866109422817, 0.0], [-85.17443637977017, 41.12866162358918, 0.0], [-85.17442590705492, 41.12866214664681, 0.0], [-85.17441543453926, 41.12866266250073, 0.0], [-85.1744049598417, 41.128663171113175, 0.0], [-85.17439448531871, 41.12866367342223, 0.0], [-85.1743840098046, 41.1286641685087, 0.0], [-85.17437353449006, 41.12866465639144, 0.0], [-85.17436305818437, 41.128665137051605, 0.0], [-85.17435258086257, 41.12866561138949, 0.0], [-85.17434210374037, 41.128666078523686, 0.0], [-85.17433162560206, 41.128666539335626, 0.0], [-85.17432114649756, 41.1286669920246, 0.0], [-85.17431066756771, 41.128667438410226, 0.0], [-85.17430018762175, 41.12866787847357, 0.0], [-85.1742897079004, 41.12866831043288, 0.0], [-85.17427922716293, 41.128668736069926, 0.0], [-85.1742687466251, 41.12866915450324, 0.0], [-85.17425826507117, 41.128669566614306, 0.0], [-85.17424778255109, 41.12866997060244, 0.0], [-85.17423730018072, 41.12867036918753, 0.0], [-85.1742268168442, 41.1286707596497, 0.0], [-85.17421633368235, 41.12867114380847, 0.0], [-85.17420585072016, 41.128671520763525, 0.0], [-85.17417735400939, 41.12776396845855, 0.0], [-85.17443875078646, 41.1277577015125, 0.0]]]}}, {"type": "Feature", "properties": {"SPR_ID": 583.0, "Site_typ": "Complex", "Unit_Site": "IndotFac - Linton Sub Complex", "layer": "VINCENNES", "Volt_Class": "150", "Flood_Zone": "0", "SlopeMean": 3.08220170296, "Solar_Mean": 1537851.43304, "NTran_DIST": 648.265510539, "Shape_Area": 70854.1269683, "sol_s": 0.351557447677, "slp_s": 0.443189343938, "trn_s": 0.55116197364, "evp_s": 0.0, "dem_s": 1.0, "fld_s": 1.0, "lc_s": 0.99024390244, "DevOpe_21": 0.219512195122, "DevLowI_22": 0.0609756097561, "DDevMed_23": 0.0121951219512, "DDevHig_24": 0.0, "DecFor_41": 0.0121951219512, "GrasHe_71": 0.0, "OpenW_11": 0.0, "EverFor_42": 0.0, "MixFor_43": 0.0, "SShrub_52": 0.0, "PasHay_81": 0.69512195122, "CultCr_82": 0.0, "welan_90": 0.0, "EmerW_95": 0.0, "Barre_31": 0.0, "source_geometry_valid": true, "dataset": "facility_complex", "layer_title": "INDOT Complex", "layer_type": "facility", "center_longitude": -87.1544875012089, "center_latitude": 39.02948333204789, "source_latitude": 0.0, "source_longitude": 0.0, "land_cover_sum": 1.0000000000005}, "geometry": {"type": "Polygon", "coordinates": [[[-87.15260464636523, 39.03075362968519, 0.0], [-87.1526156466843, 39.030145629863355, 0.0], [-87.15263064737972, 39.02882462953772, 0.0], [-87.15363064653134, 39.028824629771584, 0.0], [-87.15431764671678, 39.0286506302008, 0.0], [-87.15636264545282, 39.02865863042424, 0.0], [-87.15634264581318, 39.03018362950242, 0.0], [-87.15595164595425, 39.03018362933297, 0.0], [-87.15594464607977, 39.03075262948779, 0.0], [-87.15455964639035, 39.030753629353455, 0.0], [-87.15260464636523, 39.03075362968519, 0.0]]]}}, {"type": "Feature", "properties": {"SPR_ID": 584.0, "Site_typ": "Complex", "Unit_Site": "IndotFac - Vincennes District Complex", "layer": "VINCENNES", "Volt_Class": "50", "Flood_Zone": "0", "SlopeMean": 1.90646483503, "Solar_Mean": 1521731.16183, "NTran_DIST": 343.820623347, "Shape_Area": 100780.048411, "sol_s": 0.243275203276, "slp_s": 0.719295274248, "trn_s": 0.698369784112, "evp_s": 0.0, "dem_s": 1.0, "fld_s": 1.0, "lc_s": 0.842857142857, "DevOpe_21": 0.0267857142857, "DevLowI_22": 0.0625, "DDevMed_23": 0.133928571429, "DDevHig_24": 0.535714285714, "DecFor_41": 0.0, "GrasHe_71": 0.0, "OpenW_11": 0.0, "EverFor_42": 0.0, "MixFor_43": 0.0, "SShrub_52": 0.0, "PasHay_81": 0.0446428571429, "CultCr_82": 0.196428571429, "welan_90": 0.0, "EmerW_95": 0.0, "Barre_31": 0.0, "source_geometry_valid": true, "dataset": "facility_complex", "layer_title": "INDOT Complex", "layer_type": "facility", "center_longitude": -87.52988256301819, "center_latitude": 38.6267014168527, "source_latitude": 0.0, "source_longitude": 0.0, "land_cover_sum": 1.0000000000006}, "geometry": {"type": "Polygon", "coordinates": [[[-87.52808057032223, 38.62841172261236, 0.0], [-87.52743257129272, 38.62642372277797, 0.0], [-87.52748857092222, 38.62641172337924, 0.0], [-87.5275765715572, 38.626295723498984, 0.0], [-87.52755357059324, 38.62622572312731, 0.0], [-87.53059157019986, 38.625619723295955, 0.0], [-87.53257056968724, 38.62522472394395, 0.0], [-87.53230456976439, 38.62647072310678, 0.0], [-87.53217256944977, 38.626910723250475, 0.0], [-87.53205256984852, 38.62761972363807, 0.0], [-87.52978057058321, 38.62807272312572, 0.0], [-87.52829757099354, 38.62836872254514, 0.0], [-87.52825457024004, 38.628235722506474, 0.0], [-87.52808457057832, 38.628268722597134, 0.0], [-87.52812857098208, 38.62840272300689, 0.0], [-87.52808057032223, 38.62841172261236, 0.0]]]}}, {"type": "Feature", "properties": {"SPR_ID": 590.0, "Site_typ": "Complex", "Unit_Site": "IndotFac - Dale Complex", "layer": "VINCENNES", "Volt_Class": "-99999", "Flood_Zone": "0", "SlopeMean": 4.14944283485, "Solar_Mean": 1526971.13554, "NTran_DIST": 1734.30316161, "Shape_Area": 148787.326016, "sol_s": 0.278472881189, "slp_s": 0.192562172483, "trn_s": 0.314601432499, "evp_s": 0.0, "dem_s": 1.0, "fld_s": 1.0, "lc_s": 0.770370370371, "DevOpe_21": 0.037037037037, "DevLowI_22": 0.0617283950617, "DDevMed_23": 0.0925925925926, "DDevHig_24": 0.135802469136, "DecFor_41": 0.00617283950617, "GrasHe_71": 0.0, "OpenW_11": 0.0, "EverFor_42": 0.0, "MixFor_43": 0.0, "SShrub_52": 0.0, "PasHay_81": 0.320987654321, "CultCr_82": 0.172839506173, "welan_90": 0.0, "EmerW_95": 0.0, "Barre_31": 0.172839506173, "source_geometry_valid": true, "dataset": "facility_complex", "layer_title": "INDOT Complex", "layer_type": "facility", "center_longitude": -86.9724323247719, "center_latitude": 38.19684574741572, "source_latitude": 0.0, "source_longitude": 0.0, "land_cover_sum": 1.00000000000047}, "geometry": {"type": "Polygon", "coordinates": [[[-86.97310691907961, 38.19899015761655, 0.0], [-86.97300530375799, 38.19753913534267, 0.0], [-86.9720906882472, 38.19763552030208, 0.0], [-86.97065590528092, 38.19749020557505, 0.0], [-86.97053384700216, 38.19620039755101, 0.0], [-86.97149405151609, 38.196136145855405, 0.0], [-86.9715559596799, 38.194540061046126, 0.0], [-86.97566226340102, 38.19425078366691, 0.0], [-86.97768454703566, 38.19479934172876, 0.0], [-86.97735745465783, 38.19554090071146, 0.0], [-86.97444684106588, 38.1957065064791, 0.0], [-86.97416104826996, 38.19754593852354, 0.0], [-86.97392409514548, 38.19907095329289, 0.0], [-86.97310691907961, 38.19899015761655, 0.0]]]}}, {"type": "Feature", "properties": {"SPR_ID": 593.0, "Site_typ": "Complex", "Unit_Site": "IndotFac - Evansville Sub Complex", "layer": "VINCENNES", "Volt_Class": "150", "Flood_Zone": "0", "SlopeMean": 4.58328208181, "Solar_Mean": 1485514.12295, "NTran_DIST": 642.978082388, "Shape_Area": 52618.2482659, "sol_s": 0.0, "slp_s": 0.0906808824135, "trn_s": 0.55318710526, "evp_s": 0.0, "dem_s": 1.0, "fld_s": 1.0, "lc_s": 0.659259259259, "DevOpe_21": 0.0, "DevLowI_22": 0.185185185185, "DDevMed_23": 0.203703703704, "DDevHig_24": 0.148148148148, "DecFor_41": 0.0, "GrasHe_71": 0.037037037037, "OpenW_11": 0.0, "EverFor_42": 0.0, "MixFor_43": 0.0, "SShrub_52": 0.0, "PasHay_81": 0.0, "CultCr_82": 0.425925925926, "welan_90": 0.0, "EmerW_95": 0.0, "Barre_31": 0.0, "source_geometry_valid": true, "dataset": "facility_complex", "layer_title": "INDOT Complex", "layer_type": "facility", "center_longitude": -87.54872893132561, "center_latitude": 38.129482529378215, "source_latitude": 0.0, "source_longitude": 0.0, "land_cover_sum": 1.0}, "geometry": {"type": "MultiPolygon", "coordinates": [[[[-87.55120660145025, 38.128966424776735, 0.0], [-87.55122109684534, 38.12854348637514, 0.0], [-87.55151677342427, 38.12854230861377, 0.0], [-87.55148763375514, 38.128630959982296, 0.0], [-87.55139495428274, 38.12893086756958, 0.0], [-87.55130916761202, 38.12923225864252, 0.0], [-87.55122545395353, 38.12955890583752, 0.0], [-87.55117983045973, 38.12974749317639, 0.0], [-87.55120191642993, 38.12910310573899, 0.0], [-87.55120528129275, 38.12900495623828, 0.0], [-87.55120660145025, 38.128966424776735, 0.0]]], [[[-87.54646540620043, 38.13011236489946, 0.0], [-87.54648721087, 38.12897047487385, 0.0], [-87.55099670285247, 38.12900297318618, 0.0], [-87.55099184456142, 38.12914473625782, 0.0], [-87.5509900993939, 38.1291956539252, 0.0], [-87.55097115811634, 38.12974832606243, 0.0], [-87.55096842590979, 38.129828075156524, 0.0], [-87.55095659121667, 38.130173348400454, 0.0], [-87.55095613909805, 38.13018651612694, 0.0], [-87.54646532166713, 38.13011678957887, 0.0], [-87.54646540620043, 38.13011236489946, 0.0]]]]}}]}