{"type": "FeatureCollection", "features": [{"type": "Feature", "properties": {"dataset": "indot_tmc", "layer_title": "Traffic Management Centers", "site_name": "Gary Tmc (Borman Tmc)", "site_type": "Traffic Management Centers", "district": "La Porte", "county": "Lake", "location": "Gary", "status": "Active", "center_longitude": -87.24514200957076, "center_latitude": 41.59440328106971, "layer_type": "point"}, "geometry": {"type": "Point", "coordinates": [-87.24514200957076, 41.59440328106971]}}, {"type": "Feature", "properties": {"dataset": "indot_tmc", "layer_title": "Traffic Management Centers", "site_name": "Indy Tmc", "site_type": "Traffic Management Centers", "district": "Greenfield", "county": "Marion", "location": "Indianapolis", "status": "Active", "center_longitude": -86.01561447970013, "center_latitude": 39.79859698104102, "layer_type": "point"}, "geometry": {"type": "Point", "coordinates": [-86.01561447970013, 39.79859698104102]}}]}