{"type": "FeatureCollection", "features": [{"type": "Feature", "properties": {"dataset": "rest_areas", "layer_title": "Rest Areas & Welcome Centers", "site_name": "Kankakee Welcome Facility (Southbound) closed until Fall 2023", "site_type": "Rest Area", "district": "La Porte", "status": "Temporarily Closed", "location": "Interstate 65, Mile Marker 231, Southbound", "parking": " ", "year_built": 0, "overnight": " ", "center_longitude": -87.27495781706403, "center_latitude": 41.16651041139379, "layer_type": "point"}, "geometry": {"type": "Point", "coordinates": [-87.27495781706403, 41.16651041139379]}}, {"type": "Feature", "properties": {"dataset": "rest_areas", "layer_title": "Rest Areas & Welcome Centers", "site_name": "Kankakee Truck Parking Facility (Northbound) closed until Fall 2023", "site_type": "Rest Area", "district": "La Porte", "status": "Temporarily Closed", "location": "Interstate 65, Mile Marker 231, Northbound", "parking": " ", "year_built": 0, "overnight": " ", "center_longitude": -87.271045871394, "center_latitude": 41.16524636535033, "layer_type": "point"}, "geometry": {"type": "Point", "coordinates": [-87.271045871394, 41.16524636535033]}}, {"type": "Feature", "properties": {"dataset": "rest_areas", "layer_title": "Rest Areas & Welcome Centers", "site_name": "Michigan City Welcome Center", "site_type": "Welcome Center", "district": "La Porte", "status": "Open", "location": "Interstate 94, Mile Marker 43, Westbound", "parking": "Cars - 103, Trucks - 31, Handicap - 4", "year_built": 1982, "overnight": "No", "center_longitude": -86.79039677913968, "center_latitude": 41.7358924415042, "layer_type": "point"}, "geometry": {"type": "Point", "coordinates": [-86.79039677913968, 41.7358924415042]}}, {"type": "Feature", "properties": {"dataset": "rest_areas", "layer_title": "Rest Areas & Welcome Centers", "site_name": "Lebanon Truck Parking Facility (Southbound) closed June 2023 - TBD", "site_type": "Rest Area", "district": "Crawfordsville", "status": "Temporarily Closed", "location": "Interstate 65, Mile Marker 149, Southbound", "parking": "Cars - 32, Trucks - 21, Handicap - 2", "year_built": 1976, "overnight": "No", "center_longitude": -86.55330187229167, "center_latitude": 40.17413198698559, "layer_type": "point"}, "geometry": {"type": "Point", "coordinates": [-86.55330187229167, 40.17413198698559]}}, {"type": "Feature", "properties": {"dataset": "rest_areas", "layer_title": "Rest Areas & Welcome Centers", "site_name": "Lebanon Truck Parking Facility (Northbound) closed June 2023 - TBD", "site_type": "Rest Area", "district": "Crawfordsville", "status": "Temporarily Closed", "location": "Interstate 65, Mile Marker 148, Northbound", "parking": "Cars - 27, Trucks - 21, Handicap - 2", "year_built": 1976, "overnight": "No", "center_longitude": -86.53868480668703, "center_latitude": 40.15604544821032, "layer_type": "point"}, "geometry": {"type": "Point", "coordinates": [-86.53868480668703, 40.15604544821032]}}, {"type": "Feature", "properties": {"dataset": "rest_areas", "layer_title": "Rest Areas & Welcome Centers", "site_name": "Clear Creek Welcome Center closed June 2023 - TBD", "site_type": "Welcome Center", "district": "Crawfordsville", "status": "Temporarily Closed", "location": "Interstate 70, Mile Marker 2, Eastbound", "parking": "Cars - 73, Trucks - 50, Handicap - 4", "year_built": 1992, "overnight": "No", "center_longitude": -87.50467504553653, "center_latitude": 39.44197639774537, "layer_type": "point"}, "geometry": {"type": "Point", "coordinates": [-87.50467504553653, 39.44197639774537]}}, {"type": "Feature", "properties": {"dataset": "rest_areas", "layer_title": "Rest Areas & Welcome Centers", "site_name": "Black River Welcome Center closed June 2023 - TBD", "site_type": "Welcome Center", "district": "Vincennes", "status": "Temporarily Closed", "location": "Interstate 64, Mile Marker 7, Eastbound", "parking": "Cars - 28, Trucks - 16, Handicap - 2", "year_built": 1976, "overnight": "No", "center_longitude": -87.86087792175734, "center_latitude": 38.1956572758824, "layer_type": "point"}, "geometry": {"type": "Point", "coordinates": [-87.86087792175734, 38.1956572758824]}}, {"type": "Feature", "properties": {"dataset": "rest_areas", "layer_title": "Rest Areas & Welcome Centers", "site_name": "Wolcott Rest Area Southbound", "site_type": "Rest Area", "district": "Crawfordsville", "status": "Open", "location": "Interstate 65, Mile Marker 195, Southbound", "parking": "Cars - 35, Trucks - 13, Handicap - 2", "year_built": 1975, "overnight": "No", "center_longitude": -87.06569524108568, "center_latitude": 40.7004130299872, "layer_type": "point"}, "geometry": {"type": "Point", "coordinates": [-87.06569524108568, 40.7004130299872]}}, {"type": "Feature", "properties": {"dataset": "rest_areas", "layer_title": "Rest Areas & Welcome Centers", "site_name": "Wolcott Rest Area Northbound", "site_type": "Rest Area", "district": "Crawfordsville", "status": "Open", "location": "Interstate 65, Mile Marker 195, Northbound", "parking": "Cars - 35, Trucks - 13, Handicap - 2", "year_built": 1975, "overnight": "No", "center_longitude": -87.06169941792093, "center_latitude": 40.69711872194608, "layer_type": "point"}, "geometry": {"type": "Point", "coordinates": [-87.06169941792093, 40.69711872194608]}}, {"type": "Feature", "properties": {"dataset": "rest_areas", "layer_title": "Rest Areas & Welcome Centers", "site_name": "Pigeon Creek Welcome Center", "site_type": "Welcome Center", "district": "Fort Wayne", "status": "Open", "location": "Interstate 69, Mile Marker 345, Southbound", "parking": "Cars - 39, Trucks - 18, Handicap - 2", "year_built": 2020, "overnight": "No", "center_longitude": -85.0594217097528, "center_latitude": 41.581968816492555, "layer_type": "point"}, "geometry": {"type": "Point", "coordinates": [-85.0594217097528, 41.581968816492555]}}, {"type": "Feature", "properties": {"dataset": "rest_areas", "layer_title": "Rest Areas & Welcome Centers", "site_name": "Auburn Rest Area", "site_type": "Rest Area", "district": "Fort Wayne", "status": "Open", "location": "Interstate 69, Mile Marker 325, Northbound", "parking": "Cars - 50, Trucks - 80, Handicap - 5", "year_built": 2012, "overnight": "No", "center_longitude": -85.08645733018685, "center_latitude": 41.29475453187517, "layer_type": "point"}, "geometry": {"type": "Point", "coordinates": [-85.08645733018685, 41.29475453187517]}}, {"type": "Feature", "properties": {"dataset": "rest_areas", "layer_title": "Rest Areas & Welcome Centers", "site_name": "Spring Creek Welcome Center", "site_type": "Welcome Center", "district": "Crawfordsville", "status": "Open", "location": "Interstate 74, Mile Marker 1, Eastbound", "parking": "Cars - 55, Trucks - 44, Handicap - 2", "year_built": 1988, "overnight": "No", "center_longitude": -87.50674141054019, "center_latitude": 40.11724971156429, "layer_type": "point"}, "geometry": {"type": "Point", "coordinates": [-87.50674141054019, 40.11724971156429]}}, {"type": "Feature", "properties": {"dataset": "rest_areas", "layer_title": "Rest Areas & Welcome Centers", "site_name": "Pipe Creek Rest Area Southbound", "site_type": "Rest Area", "district": "Greenfield", "status": "Open", "location": "Interstate 69, Mile Marker 251, Southbound", "parking": "Cars - 56, Trucks - 78, Handicap - 6", "year_built": 2008, "overnight": "No", "center_longitude": -85.55911011655029, "center_latitude": 40.36157220683347, "layer_type": "point"}, "geometry": {"type": "Point", "coordinates": [-85.55911011655029, 40.36157220683347]}}, {"type": "Feature", "properties": {"dataset": "rest_areas", "layer_title": "Rest Areas & Welcome Centers", "site_name": "Pipe Creek Rest Area Northbound", "site_type": "Rest Area", "district": "Greenfield", "status": "Open", "location": "Interstate 69, Mile Marker 251, Northbound", "parking": "Cars - 56, Trucks - 78, Handicap - 6", "year_built": 2008, "overnight": "No", "center_longitude": -85.55839443864491, "center_latitude": 40.3499074076908, "layer_type": "point"}, "geometry": {"type": "Point", "coordinates": [-85.55839443864491, 40.3499074076908]}}, {"type": "Feature", "properties": {"dataset": "rest_areas", "layer_title": "Rest Areas & Welcome Centers", "site_name": "Lizton Rest Area Eastbound", "site_type": "Rest Area", "district": "Crawfordsville", "status": "Open", "location": "Interstate 74, Mile Marker 57, Eastbound", "parking": "Cars - 37, Trucks - 31, Handicap - 2", "year_built": 1989, "overnight": "No", "center_longitude": -86.55644994633964, "center_latitude": 39.90173644907793, "layer_type": "point"}, "geometry": {"type": "Point", "coordinates": [-86.55644994633964, 39.90173644907793]}}, {"type": "Feature", "properties": {"dataset": "rest_areas", "layer_title": "Rest Areas & Welcome Centers", "site_name": "Lizton Rest Area Westbound", "site_type": "Rest Area", "district": "Crawfordsville", "status": "Open", "location": "Interstate 74, Mile Marker 57, Westbound", "parking": "Cars - 37, Trucks - 30, Handicap - 2", "year_built": 1989, "overnight": "No", "center_longitude": -86.55293123818522, "center_latitude": 39.89962588101223, "layer_type": "point"}, "geometry": {"type": "Point", "coordinates": [-86.55293123818522, 39.89962588101223]}}, {"type": "Feature", "properties": {"dataset": "rest_areas", "layer_title": "Rest Areas & Welcome Centers", "site_name": "Plainfield Rest Area Westbound", "site_type": "Rest Area", "district": "Crawfordsville", "status": "Open", "location": "Interstate 70, Mile Marker 64, Westbound", "parking": "Cars - 80, Trucks - 32, Handicap - 2", "year_built": 1971, "overnight": "No", "center_longitude": -86.39796444237012, "center_latitude": 39.65356567613324, "layer_type": "point"}, "geometry": {"type": "Point", "coordinates": [-86.39796444237012, 39.65356567613324]}}, {"type": "Feature", "properties": {"dataset": "rest_areas", "layer_title": "Rest Areas & Welcome Centers", "site_name": "Plainfield Rest Area Eastbound", "site_type": "Rest Area", "district": "Crawfordsville", "status": "Open", "location": "Interstate 70, Mile Marker 64, Eastbound", "parking": "Cars - 79, Trucks - 32, Handicap - 2", "year_built": 1971, "overnight": "No", "center_longitude": -86.39864341511301, "center_latitude": 39.652150087547376, "layer_type": "point"}, "geometry": {"type": "Point", "coordinates": [-86.39864341511301, 39.652150087547376]}}, {"type": "Feature", "properties": {"dataset": "rest_areas", "layer_title": "Rest Areas & Welcome Centers", "site_name": "Greenfield Rest Area Westbound", "site_type": "Rest Area", "district": "Greenfield", "status": "Open", "location": "Interstate 70, Mile Marker 107, Westbound", "parking": "Cars - 84, Trucks - 101, Handicap - 5", "year_built": 1999, "overnight": "No", "center_longitude": -85.70156232044555, "center_latitude": 39.826439023901536, "layer_type": "point"}, "geometry": {"type": "Point", "coordinates": [-85.70156232044555, 39.826439023901536]}}, {"type": "Feature", "properties": {"dataset": "rest_areas", "layer_title": "Rest Areas & Welcome Centers", "site_name": "Greenfield Rest Area Eastbound", "site_type": "Rest Area", "district": "Greenfield", "status": "Open", "location": "Interstate 70, Mile Marker 107, Eastbound", "parking": "Cars - 84, Trucks - 101, Handicap - 5", "year_built": 1999, "overnight": "No", "center_longitude": -85.71052290311523, "center_latitude": 39.82493108569478, "layer_type": "point"}, "geometry": {"type": "Point", "coordinates": [-85.71052290311523, 39.82493108569478]}}, {"type": "Feature", "properties": {"dataset": "rest_areas", "layer_title": "Rest Areas & Welcome Centers", "site_name": "Centerville Welcome Center", "site_type": "Welcome Center", "district": "Greenfield", "status": "Open", "location": "Interstate 70, Mile Marker 143, Westbound", "parking": "Cars - 96, Trucks - 156, Handicap - 2", "year_built": 2011, "overnight": "No", "center_longitude": -85.02095538665442, "center_latitude": 39.85988715963243, "layer_type": "point"}, "geometry": {"type": "Point", "coordinates": [-85.02095538665442, 39.85988715963243]}}, {"type": "Feature", "properties": {"dataset": "rest_areas", "layer_title": "Rest Areas & Welcome Centers", "site_name": "Taylorsville Rest Area Southbound", "site_type": "Rest Area", "district": "Seymour", "status": "Open", "location": "Interstate 65, Mile Marker 71, Southbound", "parking": "Cars - 64, Trucks - 44, Handicap - 3", "year_built": 1975, "overnight": "No", "center_longitude": -85.95785178419258, "center_latitude": 39.27943735903602, "layer_type": "point"}, "geometry": {"type": "Point", "coordinates": [-85.95785178419258, 39.27943735903602]}}, {"type": "Feature", "properties": {"dataset": "rest_areas", "layer_title": "Rest Areas & Welcome Centers", "site_name": "Taylorsville Rest Area Northbound", "site_type": "Rest Area", "district": "Seymour", "status": "Open", "location": "Interstate 65, Mile Marker 73, Northbound", "parking": "Cars - 42, Trucks - 39, Handicap - 3", "year_built": 1975, "overnight": "No", "center_longitude": -85.95335126414501, "center_latitude": 39.25802201849482, "layer_type": "point"}, "geometry": {"type": "Point", "coordinates": [-85.95335126414501, 39.25802201849482]}}, {"type": "Feature", "properties": {"dataset": "rest_areas", "layer_title": "Rest Areas & Welcome Centers", "site_name": "Batesville Westbound Welcome Center", "site_type": "Welcome Center", "district": "Seymour", "status": "Open", "location": "Interstate 74, Mile Marker 151, Westbound", "parking": "Cars - 64, Trucks - 40, Handicap - 6", "year_built": 2005, "overnight": "No", "center_longitude": -85.1676682954507, "center_latitude": 39.288390860161726, "layer_type": "point"}, "geometry": {"type": "Point", "coordinates": [-85.1676682954507, 39.288390860161726]}}, {"type": "Feature", "properties": {"dataset": "rest_areas", "layer_title": "Rest Areas & Welcome Centers", "site_name": "Nancy Hanks Rest Area Westbound", "site_type": "Rest Area", "district": "Vincennes", "status": "Open", "location": "Interstate 64, Mile Marker 59, Westbound", "parking": "Cars - 29, Trucks - 14, Handicap - 1", "year_built": 1974, "overnight": "No", "center_longitude": -86.94565940994076, "center_latitude": 38.19664172338641, "layer_type": "point"}, "geometry": {"type": "Point", "coordinates": [-86.94565940994076, 38.19664172338641]}}, {"type": "Feature", "properties": {"dataset": "rest_areas", "layer_title": "Rest Areas & Welcome Centers", "site_name": "Nancy Hanks Rest Area Eastbound", "site_type": "Rest Area", "district": "Vincennes", "status": "Open", "location": "Interstate 64, Mile Marker 59, Eastbound", "parking": "Cars - 29, Trucks - 14, Handicap - 1", "year_built": 1974, "overnight": "No", "center_longitude": -86.95263652593785, "center_latitude": 38.19481745151007, "layer_type": "point"}, "geometry": {"type": "Point", "coordinates": [-86.95263652593785, 38.19481745151007]}}, {"type": "Feature", "properties": {"dataset": "rest_areas", "layer_title": "Rest Areas & Welcome Centers", "site_name": "Henryville Rest Area Southbound", "site_type": "Rest Area", "district": "Seymour", "status": "Open", "location": "Interstate 65, Mile Marker 22, Southbound", "parking": "Cars - 68, Trucks - 64, Handicap - 4", "year_built": 1991, "overnight": "No", "center_longitude": -85.77963572913676, "center_latitude": 38.5877485520784, "layer_type": "point"}, "geometry": {"type": "Point", "coordinates": [-85.77963572913676, 38.5877485520784]}}, {"type": "Feature", "properties": {"dataset": "rest_areas", "layer_title": "Rest Areas & Welcome Centers", "site_name": "Henryville Rest Area Northbound", "site_type": "Rest Area", "district": "Seymour", "status": "Open", "location": "Interstate 65, Mile Marker 22, Northbound", "parking": "Cars - 62, Trucks - 64, Handicap - 6", "year_built": 1991, "overnight": "No", "center_longitude": -85.7784886137566, "center_latitude": 38.58306715549554, "layer_type": "point"}, "geometry": {"type": "Point", "coordinates": [-85.7784886137566, 38.58306715549554]}}, {"type": "Feature", "properties": {"dataset": "rest_areas", "layer_title": "Rest Areas & Welcome Centers", "site_name": "Travel Plaza 1, MP 22 Eastbound - Portage", "site_type": "Travel Plaza", "district": "La Porte", "status": "Open", "location": "Indiana Toll Road, Mile Marker 22, Eastbound", "parking": " ", "year_built": 0, "overnight": " ", "center_longitude": -87.21975243428508, "center_latitude": 41.5884855545753, "layer_type": "point"}, "geometry": {"type": "Point", "coordinates": [-87.21975243428508, 41.5884855545753]}}, {"type": "Feature", "properties": {"dataset": "rest_areas", "layer_title": "Rest Areas & Welcome Centers", "site_name": "Travel Plaza 1, MP 22 Westbound - Portage", "site_type": "Travel Plaza", "district": "La Porte", "status": "Open", "location": "Indiana Toll Road, Mile Marker 22, Westbound", "parking": " ", "year_built": 0, "overnight": " ", "center_longitude": -87.21420498885932, "center_latitude": 41.58737961259425, "layer_type": "point"}, "geometry": {"type": "Point", "coordinates": [-87.21420498885932, 41.58737961259425]}}, {"type": "Feature", "properties": {"dataset": "rest_areas", "layer_title": "Rest Areas & Welcome Centers", "site_name": "Travel Plaza 3, MP 56 Eastbound - Rolling Prairie", "site_type": "Travel Plaza", "district": "La Porte", "status": "Open", "location": "Indiana Toll Road, Mile Marker 56, Eastbound", "parking": " ", "year_built": 0, "overnight": " ", "center_longitude": -86.6239241608413, "center_latitude": 41.70481835233258, "layer_type": "point"}, "geometry": {"type": "Point", "coordinates": [-86.6239241608413, 41.70481835233258]}}, {"type": "Feature", "properties": {"dataset": "rest_areas", "layer_title": "Rest Areas & Welcome Centers", "site_name": "Travel Plaza 3, MP 56 Westbound - Rolling Prairie", "site_type": "Travel Plaza", "district": "La Porte", "status": "Open", "location": "Indiana Toll Road, Mile Marker 56, Westbound", "parking": " ", "year_built": 0, "overnight": " ", "center_longitude": -86.62091919919786, "center_latitude": 41.707951554858134, "layer_type": "point"}, "geometry": {"type": "Point", "coordinates": [-86.62091919919786, 41.707951554858134]}}, {"type": "Feature", "properties": {"dataset": "rest_areas", "layer_title": "Rest Areas & Welcome Centers", "site_name": "Travel Plaza 5, MP 90 Eastbound - Elkhart", "site_type": "Travel Plaza", "district": "Fort Wayne", "status": "Open", "location": "Indiana Toll Road, Mile Marker 90, Eastbound", "parking": " ", "year_built": 0, "overnight": " ", "center_longitude": -86.00840923697909, "center_latitude": 41.73202668805703, "layer_type": "point"}, "geometry": {"type": "Point", "coordinates": [-86.00840923697909, 41.73202668805703]}}, {"type": "Feature", "properties": {"dataset": "rest_areas", "layer_title": "Rest Areas & Welcome Centers", "site_name": "Travel Plaza 5, MP 90 Westbound - Elkhart", "site_type": "Travel Plaza", "district": "Fort Wayne", "status": "Open", "location": "Indiana Toll Road, Mile Marker 90, Westbound", "parking": " ", "year_built": 0, "overnight": " ", "center_longitude": -86.00192611443823, "center_latitude": 41.73247209994423, "layer_type": "point"}, "geometry": {"type": "Point", "coordinates": [-86.00192611443823, 41.73247209994423]}}, {"type": "Feature", "properties": {"dataset": "rest_areas", "layer_title": "Rest Areas & Welcome Centers", "site_name": "Travel Plaza 7, MP 126 Eastbound - Howe", "site_type": "Travel Plaza", "district": "Fort Wayne", "status": "Open", "location": "Indiana Toll Road, Mile Marker 126, Eastbound", "parking": " ", "year_built": 0, "overnight": " ", "center_longitude": -85.33251047869493, "center_latitude": 41.74676990202965, "layer_type": "point"}, "geometry": {"type": "Point", "coordinates": [-85.33251047869493, 41.74676990202965]}}, {"type": "Feature", "properties": {"dataset": "rest_areas", "layer_title": "Rest Areas & Welcome Centers", "site_name": "Travel Plaza 7, MP 126 Westbound - Howe", "site_type": "Travel Plaza", "district": "Fort Wayne", "status": "Open", "location": "Indiana Toll Road, Mile Marker 126, Westbound", "parking": " ", "year_built": 0, "overnight": " ", "center_longitude": -85.3258397214474, "center_latitude": 41.745406345272315, "layer_type": "point"}, "geometry": {"type": "Point", "coordinates": [-85.3258397214474, 41.745406345272315]}}, {"type": "Feature", "properties": {"dataset": "rest_areas", "layer_title": "Rest Areas & Welcome Centers", "site_name": "Travel Plaza 8, MP 146 Eastbound - Fremont", "site_type": "Travel Plaza", "district": "Fort Wayne", "status": "Open", "location": "Indiana Toll Road, Mile Marker 146, Eastbound", "parking": " ", "year_built": 0, "overnight": " ", "center_longitude": -84.96891732792169, "center_latitude": 41.727753987391594, "layer_type": "point"}, "geometry": {"type": "Point", "coordinates": [-84.96891732792169, 41.727753987391594]}}, {"type": "Feature", "properties": {"dataset": "rest_areas", "layer_title": "Rest Areas & Welcome Centers", "site_name": "Travel Plaza 8, MP 146 Westbound - Fremont", "site_type": "Travel Plaza", "district": "Fort Wayne", "status": "Open", "location": "Indiana Toll Road, Mile Marker 146, Westbound", "parking": " ", "year_built": 0, "overnight": " ", "center_longitude": -84.96500702706692, "center_latitude": 41.72439315850777, "layer_type": "point"}, "geometry": {"type": "Point", "coordinates": [-84.96500702706692, 41.72439315850777]}}]}